{"type":"Topology","arcs":[[[4886,8251],[111,-1],[76,-14]],[[5073,8236],[36,-90],[-29,-110]],[[5080,8036],[-156,50],[-126,12],[-93,23],[-180,59]],[[4525,8180],[-164,-9],[-83,24],[-23,26],[-158,-137],[-33,-43]],[[4064,8041],[-9,-1]],[[4055,8040],[-55,29],[14,48],[-30,30],[-143,-3],[-39,23],[-43,105],[-25,28],[-68,21],[-31,-59],[-84,17],[-23,-13],[-127,37],[-38,50],[-70,20],[-64,65],[-76,18],[-21,41],[87,28]],[[3219,8525],[116,21]],[[3335,8546],[77,-12],[29,-39],[93,9],[35,30],[116,49],[17,38],[61,50]],[[3763,8671],[70,5],[151,-30]],[[3984,8646],[83,-34],[102,-91]],[[4169,8521],[-21,-67],[80,-49],[38,-37],[62,-10],[26,17],[73,-15]],[[4427,8360],[74,-45],[75,15]],[[4576,8330],[79,-41],[-7,-32],[78,-8],[63,-47],[97,49]],[[3832,9154],[18,-50],[-12,-33]],[[3838,9071],[-167,-87],[27,-146],[20,-2]],[[3718,8836],[-30,-65]],[[3688,8771],[-66,7],[-44,21]],[[3578,8799],[-24,52],[-102,125]],[[3452,8976],[380,178]],[[4596,9388],[105,-14],[30,-24],[143,-61]],[[4874,9289],[36,-38]],[[4910,9251],[54,-58],[234,-155],[15,-3]],[[5213,9035],[3,-3]],[[5216,9032],[-59,-15],[-58,-95],[-12,-40]],[[5087,8882],[-68,52]],[[5019,8934],[-50,68],[-90,49]],[[4879,9051],[-96,79],[-149,46]],[[4634,9176],[-91,8],[-152,34],[-85,49],[-97,-26]],[[4209,9241],[-76,6],[-69,-26],[-64,12]],[[4000,9233],[446,210]],[[4446,9443],[150,-55]],[[5284,2969],[-61,7],[-7,-31],[-237,26],[6,-56],[-434,46],[112,98],[-1,51],[-240,25],[27,90],[-27,43],[-78,4],[-65,-40],[-89,-18],[-45,-79],[-125,17],[-134,7],[-245,27],[-46,18],[5,44],[-59,56],[10,70],[-53,33],[27,44],[-23,45],[-78,75],[-12,73],[12,44],[-51,47],[-41,74],[9,35],[163,-18],[68,265],[349,-40],[46,166],[10,82],[58,63],[76,41],[29,-54],[102,-105],[31,-4],[36,77],[217,-25],[58,64],[75,265],[144,-9],[29,53],[-85,75],[-45,109]],[[4702,4849],[6,34],[94,55],[9,73]],[[4811,5011],[64,25],[47,-8]],[[4922,5028],[7,-97],[112,-41],[75,-15],[46,-49],[142,-22],[18,-12],[19,-79],[-20,-75],[36,-68],[7,-47],[74,-16],[21,-40],[-4,-148],[13,-52],[-44,-42]],[[5424,4225],[-373,39],[-26,-47],[-75,-23],[9,-77],[-9,-79],[21,-46],[-4,-66],[52,-74],[31,-13],[11,-62],[-16,-26],[58,-78],[-10,-30],[21,-48],[-16,-70],[94,-5],[32,-3],[8,-67],[22,-21],[-23,-88],[39,-36],[-36,-40],[-9,-83],[25,-83],[-36,-41],[15,-45],[55,-44]],[[5125,8333],[128,-42]],[[5253,8291],[99,5],[75,-13],[38,-56]],[[5465,8227],[-19,-14],[37,-148],[-70,-61],[-112,-27],[-87,-3]],[[5214,7974],[-67,-8],[-76,-29],[-49,-109],[-54,-2],[-21,46],[-104,-69]],[[4843,7803],[38,46],[86,67],[80,36],[33,84]],[[5073,8236],[22,74],[30,23]],[[3219,8525],[-145,36],[-69,-1],[-37,-21],[-11,-101],[-99,-64],[-19,-126],[19,-48],[151,-159],[-8,-42],[42,-105],[143,-57],[44,-35],[5,-46],[-62,-65],[-54,-14],[-35,-43],[31,-57],[-47,-23],[-103,-2],[-26,-60]],[[2939,7492],[-26,-27],[-83,-3],[-77,-31]],[[2753,7431],[-13,11],[79,66],[-84,43],[-39,-9],[-51,26],[-37,-6],[-24,48],[-55,6],[-12,32],[-56,1],[-24,-62],[-51,-33],[-14,-52],[-67,-67],[-10,-76],[-46,-18],[-103,-90],[-63,53],[6,32],[-58,18],[-89,89],[49,22],[-30,29],[-42,-14],[-48,57],[-86,38],[-27,35],[-63,-6],[-101,-71],[-46,-2],[-85,121],[-44,42],[-145,-42],[-84,41],[-176,20],[-278,-14]],[[736,7699],[1158,545],[1219,573],[5,2]],[[3118,8819],[21,-42],[67,-71],[23,-48]],[[3229,8658],[114,-87],[-8,-25]],[[2651,7844],[-134,60],[-39,2],[-46,-73],[79,-52],[91,-1],[49,64]],[[2277,5015],[68,-73],[-55,-29],[-37,1],[-104,-47],[-57,-3],[15,-65],[-39,-24],[-108,-26],[-70,-30],[-78,-72],[-64,-18],[-36,-63],[-37,-21],[8,-36],[-34,-69],[18,-113],[80,-37],[29,-35],[-49,-54],[-18,-61],[49,-41],[13,-39],[-53,-48],[24,-23],[-120,-29],[-15,-45],[-122,-50],[-88,-16],[-153,40],[-39,-1],[-69,-70],[-65,-16],[-75,0],[-43,-70],[20,-145],[37,-54],[-31,-27],[-102,-14],[0,43],[-73,-31],[-89,39],[-52,-23],[-105,23],[-28,27],[-153,-1],[-109,40]],[[268,3609],[48,56],[-43,32],[-19,42],[14,63],[-35,53],[-87,50],[-59,65],[74,71],[151,40],[12,25],[76,64],[-42,74],[-56,15],[-7,25],[-134,126],[-10,18],[88,54],[-10,63],[-74,121],[-51,41],[-3,94],[39,104],[-67,61],[0,43],[-31,134],[36,33],[-49,38],[-29,137],[29,43],[144,60],[-55,76],[-5,56],[-58,56],[5,71],[71,26],[68,108],[-47,67],[25,43],[4,54],[45,22],[52,84],[40,8],[84,78],[0,107],[19,30],[-60,36],[-8,48],[160,29],[6,35],[-11,136],[59,35],[66,18],[18,46],[61,34],[-72,78],[6,99],[20,40],[-66,32],[-19,36],[-57,17],[43,63],[-11,66],[-29,22],[-52,91],[78,89],[50,36],[9,45],[-19,48],[108,151],[35,29]],[[2753,7431],[-43,14],[-31,-53],[-49,-29],[-18,-49],[11,-34],[-30,-79],[-46,-27],[-64,-89],[-16,-68],[48,-104],[57,-45],[-17,-19],[-121,-26],[-99,-11],[-6,-42],[-146,-84],[-10,-81],[36,-57],[-39,-54],[13,-73],[-107,-54],[-17,-41],[14,-52],[-88,-139],[-91,-11],[-54,-47],[8,-23],[-67,-36],[-62,2],[-57,-39],[47,-60],[-43,-74],[46,-80],[-46,-104],[6,-53],[46,-14],[50,-39],[25,-46],[-70,-106],[-12,-121],[-26,-22],[51,-46],[130,-37],[12,-36],[-47,-38],[30,-22],[13,-76],[52,-16],[287,67],[64,-43]],[[5540,9048],[115,1],[123,31]],[[5778,9080],[23,-50]],[[5801,9030],[2,-67]],[[5803,8963],[-6,-88],[-31,-83],[-27,-27],[-90,-39]],[[5649,8726],[-41,60],[-157,131]],[[5451,8917],[22,51],[71,-8],[19,69],[-23,19]],[[5954,9689],[8,62],[-49,33],[-156,-23],[-18,41],[-65,7],[-61,-46]],[[5613,9763],[-26,33],[-107,13],[-36,32],[-100,-13],[-47,-32],[-90,3],[-36,-160],[55,-6]],[[5226,9633],[-19,-18],[-23,-101],[-90,-64],[-49,-111]],[[5045,9339],[-43,-8],[-92,-80]],[[4874,9289],[-31,66],[-2,41],[59,19],[-11,29],[37,30],[-164,17],[-60,72]],[[4702,9563],[455,214],[29,42],[148,44],[24,39],[87,13],[47,43],[85,14],[46,27],[97,-16],[77,-36],[79,16],[48,-39],[-20,-55],[111,-15],[58,-31],[10,-84],[114,15],[27,29],[80,-4],[-17,-61],[24,-23],[-33,-71],[107,-75],[37,23],[75,2],[142,-36],[55,-56],[-24,-56],[-62,-71],[36,-28],[87,-17],[88,-77],[-10,-70],[-96,-43],[33,-103],[96,-4],[34,-34]],[[6876,8979],[-81,-12],[-102,-71],[-149,-92],[-113,-37]],[[6431,8767],[-224,-54],[-107,-53]],[[6100,8660],[-117,65]],[[5983,8725],[26,124],[29,90]],[[6038,8939],[152,-14],[63,17],[46,48],[20,57]],[[6319,9047],[55,5],[-19,69],[12,68],[-103,82],[-127,33],[-79,-28]],[[6058,9276],[-50,9]],[[6008,9285],[20,74],[66,10],[21,82],[-108,21],[91,56],[84,100]],[[6182,9628],[-10,65],[-162,13],[-56,-17]],[[4446,9443],[242,114]],[[4688,9557],[-19,-90],[10,-63],[-83,-16]],[[6763,6979],[-42,-51]],[[6721,6928],[-82,9],[-9,-34],[-185,33],[-23,26],[-95,3],[-209,-280],[-64,-33],[28,-52],[-45,-23]],[[6037,6577],[-60,10],[-111,71],[-109,22],[-85,-4],[-41,25],[-46,60]],[[5585,6761],[104,21],[-98,263]],[[5591,7045],[132,97]],[[5723,7142],[505,-149],[110,38],[-3,53],[260,26],[56,27],[13,122]],[[6664,7259],[54,35]],[[6718,7294],[126,-24],[57,41],[55,12]],[[6956,7323],[85,20],[132,50],[41,-15],[-2,-80]],[[7212,7298],[-11,-24]],[[7201,7274],[-41,-1]],[[7160,7273],[-121,27],[-53,-1],[-4,-75]],[[6982,7224],[-15,-8],[-32,-23],[-172,-214]],[[9926,7753],[-2,-76],[43,-22],[-1,-80],[33,-22],[-33,-65],[-103,-82],[-83,-22],[-169,-67],[-129,-30],[-21,-25],[0,-52],[-59,-23],[-80,-30],[-75,-8],[-62,13],[-99,64],[-22,36],[-57,32],[-383,48],[-107,1],[-76,35],[-113,-6],[-132,-53],[-67,0],[-60,22],[-109,10],[-116,49],[-57,-9],[-56,22],[-53,0],[-87,-19],[-73,-62]],[[7518,7332],[-44,40],[-12,75],[84,95],[26,74],[85,77],[32,90],[82,124],[33,96],[-10,103],[70,112],[-13,100]],[[7851,8318],[79,-16],[86,4],[10,-51],[-34,-95],[13,-33],[46,-21],[26,47],[132,-4],[61,-51],[144,45],[122,-30],[6,-25],[136,3],[16,-69],[64,-27],[33,-36],[80,55],[39,-26],[121,-31],[59,3],[27,-67],[74,6],[41,-55],[1,-43],[70,-4],[110,-43],[-37,-56],[31,-19],[130,10],[61,43],[156,-20],[7,26],[87,21],[78,-6]],[[6758,7967],[23,107],[-129,13],[-38,-121],[-63,-16],[-30,17],[-68,-50],[-23,-52]],[[6430,7865],[-80,79],[-116,47],[1,28],[-64,27],[-67,54],[-2,49]],[[6102,8149],[13,56],[113,90]],[[6228,8295],[97,22],[66,70],[-10,71],[15,41]],[[6396,8499],[1,46],[-22,64],[15,65],[28,28],[13,65]],[[6876,8979],[82,-75],[41,1],[-15,-57],[-80,-108],[40,-56],[75,32],[63,87],[98,-14],[55,20],[83,-32],[88,8],[68,-15],[32,-35],[75,-21],[20,-31],[-63,-56],[-24,-40],[-105,-46],[95,-67],[104,-9],[49,-19],[5,-53],[37,0],[68,-62],[84,-13]],[[7518,7332],[-156,-70],[-1,0]],[[7361,7262],[27,35],[-40,30],[-98,-34],[-38,5]],[[6956,7323],[104,135],[-28,78],[-200,-5]],[[6832,7531],[2,103],[97,75],[47,-8],[30,30],[-29,47],[-94,3],[-39,27],[19,39],[-52,37],[-1,87],[-54,-4]],[[4703,7619],[-149,-49]],[[4554,7570],[-96,-10],[-12,53],[33,46],[-74,32],[-61,-19],[-36,9]],[[4308,7681],[10,25],[223,61],[21,20],[-91,31],[-96,65],[-18,56]],[[4357,7939],[-13,26]],[[4344,7965],[50,61],[11,43],[81,54],[39,57]],[[4843,7803],[12,-5]],[[4855,7798],[-14,-18],[-5,-79],[-26,-29],[-107,-53]],[[4572,6363],[16,-56],[-43,-46],[-15,-61],[63,-22],[85,0],[100,-73]],[[4778,6105],[58,-27],[3,-45],[32,-32],[29,-71],[-4,-46],[-79,-8],[-207,26],[-33,-51],[51,-59],[73,-24],[30,-45],[-71,-104],[19,-34],[84,-60],[12,-61],[53,-45],[6,-37],[-29,-37]],[[4805,5345],[-94,11],[-35,-25],[-24,-101],[-82,29],[-24,-92],[4,-90],[55,-12],[81,-69],[49,-16],[76,31]],[[4702,4849],[-77,9],[15,59],[-139,15],[13,51],[-136,15],[1,48],[-62,50],[-104,64],[-55,8],[-46,-22],[-258,27],[69,-53],[140,-83],[-110,8],[-33,-131],[-113,99],[-57,85],[-139,62],[-265,22],[-143,-18],[-49,14],[-33,-19],[-94,-9],[-275,33],[-59,-215],[-416,47]],[[2939,7492],[69,-109],[62,-56],[28,-78],[64,-30],[80,-13],[42,-24],[62,-7],[18,-39],[-16,-57],[52,-106],[41,-60],[16,-64],[48,-14],[68,38],[97,20],[60,-2],[112,-27],[21,-56],[72,-83],[9,-39]],[[3944,6686],[4,-31],[-67,-26],[-37,-40],[35,-39],[194,-68],[47,-26],[44,5],[154,-54],[71,-3],[92,-51],[91,10]],[[5250,1795],[-65,-73],[6,-51],[41,0],[64,-31],[0,-55],[-49,-35],[1,-36],[43,-26],[20,-41],[-45,-36],[35,-27],[2,-58],[-72,-64],[-39,-55],[18,-56],[-16,-66],[-26,-19],[57,-129],[-105,-32],[-38,0],[-69,-62],[-38,-73],[-46,-21],[-101,-109],[-42,-19],[-54,-52],[-41,-62],[11,-59],[-32,-57],[22,-30],[-47,-56],[-72,-36],[-39,-57],[87,-50],[-37,-83],[-28,-21],[-64,-58],[-65,11],[-13,38],[-41,24],[-81,8],[-36,34],[-99,-21],[-42,30],[-34,55],[-82,33],[-83,47],[-56,-21],[-84,1],[-64,-19],[-32,21],[9,54],[-74,20],[-39,-9],[-238,46],[-124,-23],[-23,-40],[-112,23],[-13,46],[-85,43],[-132,86],[-63,71],[-132,36],[1,30],[-123,90],[-72,33],[4,44],[-112,22],[-80,59],[1,37],[-62,67],[21,36],[-34,55],[54,41],[8,31],[-55,44],[-94,17],[-16,85],[-64,17],[-22,34],[-70,48],[39,31],[25,50],[111,113],[-44,125],[8,68],[-7,106],[67,39],[47,56],[16,67],[-71,83],[-74,0],[-18,66],[-41,83],[-36,30],[5,42],[64,41],[-2,26],[-89,115],[-45,25],[-96,29],[-82,-81],[-24,-68],[-59,-64],[-50,-25],[54,-60],[-41,-47],[-15,-70],[-50,-61],[27,-59],[-44,-39],[-74,17],[18,72],[-32,30],[-110,8],[-96,49],[-98,77],[-29,69],[-43,36],[-36,75],[-67,25],[-17,40],[-59,29],[-72,-15],[-88,34],[-70,40],[-123,58],[-2,18],[-80,57],[-42,70],[47,57],[0,46],[82,89],[28,81],[-17,46],[19,69],[-125,96],[-56,-14],[-15,38],[-68,20],[-129,4],[-21,23],[10,46],[-42,2],[-42,31],[67,32],[-14,60],[150,89]],[[5284,2969],[78,-12],[-9,-62],[33,-17],[55,-68],[-30,-72],[-87,-69],[-13,-64],[-28,-22],[21,-55],[50,-54],[-3,-34],[-72,-41],[25,-88],[-70,-93],[12,-46],[-30,-38],[21,-31],[-55,-79],[11,-34],[-46,-48],[40,-64],[-25,-40],[88,-43]],[[4055,8040],[3,-12],[-35,-175],[-100,-11],[-64,-49],[52,-32],[40,-51],[55,-15],[68,-41]],[[4074,7654],[117,-44],[36,-30],[-28,-115]],[[4199,7465],[-68,10],[-57,-149],[36,-91]],[[4110,7235],[28,-111],[84,-22],[19,-73]],[[4241,7029],[22,-183],[-319,-160]],[[5553,6755],[32,6]],[[6037,6577],[86,-9],[-111,-86],[105,-80]],[[6117,6402],[-94,-58],[-30,-98],[-100,-83],[34,-54],[78,10],[101,-2],[53,-35],[-57,-97],[-63,-6],[-51,-25],[-18,-50],[-94,-19],[-30,-23],[15,-89],[30,-36],[9,-59],[103,-108],[94,-178],[8,-27],[-4,-158],[-21,-70],[-180,-312],[-5,-3],[-89,-160],[-18,-56],[7,-45],[138,-395],[31,-52],[-194,23],[-67,-11],[-7,55],[-163,19],[-109,25]],[[4922,5028],[-25,72],[-93,106],[-50,89],[7,34],[44,16]],[[4778,6105],[36,13]],[[4814,6118],[36,-14],[74,-109],[40,-43]],[[4964,5952],[28,-43],[-18,-41],[-120,-80],[122,-76],[18,-39],[-39,-49],[193,-33]],[[5148,5591],[174,-64],[90,27],[4,41],[50,48]],[[5466,5643],[73,-12],[86,93],[21,106]],[[5646,5830],[108,51],[20,57],[-18,68],[-79,77]],[[5677,6083],[40,39],[45,17]],[[5762,6139],[50,18],[108,64]],[[5920,6221],[60,65],[15,57],[2,125],[-45,-3]],[[5952,6465],[-55,48],[-71,-14],[-81,63],[-50,-11]],[[5695,6551],[-53,60],[-19,41],[-61,10],[-80,-53],[-11,-38],[-88,33]],[[5383,6604],[-34,14],[-76,87],[-86,28]],[[5187,6733],[-59,14],[-100,-10],[-80,42],[-117,39],[-48,45],[-100,58],[-33,0],[-115,-42],[-32,11],[-166,-9],[-6,-63],[103,-24],[-27,-21],[-203,-100],[-31,-30],[38,-44],[54,-26],[87,-17],[76,35],[34,-19],[102,4],[49,-14],[36,-48],[90,-20]],[[4739,6494],[-50,-52],[-74,3],[-65,-60],[22,-22]],[[4241,7029],[125,-17],[27,-39],[42,20],[70,0]],[[4505,6993],[25,-29],[61,12],[53,-23],[72,6],[88,93]],[[4804,7052],[65,-15]],[[4869,7037],[121,-129]],[[4990,6908],[15,-20],[-1,-75],[183,6]],[[5187,6819],[55,-1],[112,-50],[25,-34],[99,5],[75,16]],[[5026,7630],[-87,-32],[-139,-27],[-90,-34]],[[4710,7537],[-7,82]],[[4855,7798],[29,-22],[-13,-43],[68,-56],[87,-47]],[[5501,8183],[48,-34],[90,-21],[49,-23]],[[5688,8105],[-67,-75],[17,-59],[94,-3]],[[5732,7968],[-21,-104]],[[5711,7864],[-89,-47],[-22,-35],[-79,39],[-111,22],[-48,-39],[-122,21],[-29,50],[25,74],[-22,25]],[[5465,8227],[36,-44]],[[5979,8092],[-2,2]],[[5977,8094],[-118,162],[4,27]],[[5863,8283],[18,33],[285,100]],[[6166,8416],[75,-42],[-25,-61],[12,-18]],[[6102,8149],[-123,-57]],[[5701,9312],[-136,96],[-34,47]],[[5531,9455],[83,0],[13,40],[72,75]],[[5699,9570],[27,-38],[57,-26]],[[5783,9506],[72,-16],[35,-25]],[[5890,9465],[24,-85]],[[5914,9380],[-143,-31],[-70,-37]],[[4912,8415],[156,-46],[57,-36]],[[4886,8251],[-7,36],[15,89]],[[4894,8376],[18,39]],[[5148,5591],[2,140]],[[5150,5731],[79,9],[80,-42],[67,2],[90,-57]],[[6049,7805],[23,-31],[48,-13]],[[6120,7761],[4,-29]],[[6124,7732],[-65,-70]],[[6059,7662],[-59,36],[-129,-117]],[[5871,7581],[-21,9]],[[5850,7590],[-32,33],[-74,35]],[[5744,7658],[7,56]],[[5751,7714],[298,91]],[[7160,7273],[-178,-49]],[[4830,8762],[57,-38]],[[4887,8724],[55,-51],[41,-13]],[[4983,8660],[-53,-89],[-55,-38],[36,-70],[1,-48]],[[4912,8415],[-182,46],[-125,38]],[[4605,8499],[27,99]],[[4632,8598],[6,64],[64,115]],[[4702,8777],[128,-15]],[[5783,9506],[11,35],[45,49],[13,82],[65,23],[37,-6]],[[6182,9628],[-72,-18],[-56,-49],[-96,-65],[-68,-31]],[[5156,6063],[-67,-41],[-29,19],[-58,-17],[-1,-39],[-37,-33]],[[4814,6118],[-83,69],[70,33],[151,17]],[[4952,6237],[90,-50],[114,-124]],[[5853,8055],[-38,38],[-52,5]],[[5763,8098],[38,191]],[[5801,8289],[62,-6]],[[5977,8094],[-124,-39]],[[5513,8500],[-260,-209]],[[4983,8660],[135,-42],[49,-7]],[[5167,8611],[104,-22],[111,-58],[71,-25],[60,-6]],[[5415,5868],[-225,124]],[[5190,5992],[-34,71]],[[5156,6063],[77,44],[73,19],[87,-5]],[[5393,6121],[129,-3],[155,-35]],[[5677,6083],[-55,-74],[-54,-23],[-126,-23],[-14,-27],[27,-43],[-40,-25]],[[6430,7865],[83,-63],[-54,-41]],[[6459,7761],[-57,-5],[-33,-34],[-94,8],[-59,35],[-92,-33]],[[6120,7761],[28,5],[-4,62],[-115,55]],[[6029,7883],[-92,45]],[[5937,7928],[99,89],[-57,75]],[[6832,7531],[-96,1],[-30,21],[-44,86],[-24,83],[-81,34],[1,48],[55,5],[56,26],[74,91],[15,41]],[[5744,7658],[-56,-21],[-61,11]],[[5627,7648],[-28,26]],[[5599,7674],[8,43],[80,26]],[[5687,7743],[64,-29]],[[5226,9633],[143,-33]],[[5369,9600],[-7,-4]],[[5362,9596],[-24,-28],[-35,-114],[-38,-58],[23,-40]],[[5288,9356],[-152,-37],[-91,20]],[[4110,7235],[62,6]],[[4172,7241],[11,-66],[42,-28],[90,-29],[63,1]],[[4378,7119],[29,-24],[93,-8]],[[4500,7087],[-24,-65],[29,-29]],[[4256,8955],[-108,25]],[[4148,8980],[-60,24]],[[4088,9004],[24,58],[56,6],[68,59]],[[4236,9127],[109,2],[29,-19]],[[4374,9110],[47,-50],[-42,-38],[-103,-43],[-20,-24]],[[4804,7052],[15,32],[-4,101]],[[4815,7185],[134,8],[94,-14]],[[5043,7179],[38,-86]],[[5081,7093],[-109,-18],[-103,-38]],[[5762,6139],[-28,42],[-47,-14],[-82,-1],[-73,33],[-47,46],[59,68],[-24,18]],[[5520,6331],[105,42],[140,12]],[[5765,6385],[-4,-58],[59,-69],[100,-37]],[[5846,7972],[-25,-20],[-89,16]],[[5688,8105],[75,-7]],[[5853,8055],[30,-44],[-37,-39]],[[5150,5731],[4,159],[36,102]],[[5415,5868],[30,-46],[100,-55],[101,63]],[[4576,8330],[96,23],[137,-4],[85,27]],[[4554,7570],[-38,-93],[11,-26]],[[4527,7451],[-65,2],[-42,20]],[[4420,7473],[-7,4]],[[4413,7477],[-142,96],[-63,109]],[[4208,7682],[100,-1]],[[5451,8917],[-18,11]],[[5433,8928],[-146,61],[-71,43]],[[5213,9035],[86,13],[122,54]],[[5421,9102],[51,-33],[68,-21]],[[5094,7460],[-16,-82],[11,-45]],[[5089,7333],[-56,-24]],[[5033,7309],[-69,16],[-24,31],[-51,9],[-28,33],[-59,-25],[-80,-1]],[[4722,7372],[8,113],[-20,52]],[[5026,7630],[94,8],[35,-36]],[[5155,7602],[-61,-142]],[[5327,7438],[-233,22]],[[5155,7602],[178,22],[266,50]],[[5627,7648],[-97,-90]],[[5530,7558],[-56,-26],[-42,-64],[-105,-30]],[[4208,7682],[-134,-28]],[[4064,8041],[42,20],[58,-10],[-23,-53],[49,-76],[52,3],[17,52],[85,-12]],[[4357,7939],[-64,-25],[-22,-34],[-19,-108],[-34,-44],[-10,-46]],[[5801,8289],[31,153]],[[5832,8442],[150,-6],[162,22]],[[6144,8458],[22,-42]],[[5832,8442],[10,57],[36,39],[102,56]],[[5980,8594],[141,-94],[23,-42]],[[4199,7465],[145,-12],[69,24]],[[4420,7473],[-14,-54],[-43,-13],[-47,-49],[2,-42],[50,-54]],[[4368,7261],[-85,1],[-111,-21]],[[4088,9004],[-44,26],[-111,-50],[-95,91]],[[3832,9154],[168,79]],[[4209,9241],[5,-56],[29,-12],[-7,-46]],[[4702,8777],[-131,21]],[[4571,8798],[7,35],[98,58],[20,47],[51,14]],[[4747,8952],[57,25],[-2,52],[77,22]],[[5019,8934],[-29,-43],[-99,-4],[-76,-46],[15,-79]],[[5765,6386],[0,-1]],[[5520,6331],[30,32],[24,65],[-64,34],[-118,37]],[[5392,6499],[-18,82],[9,23]],[[5695,6551],[9,-63],[-18,-60],[65,-14],[14,-28]],[[5187,6819],[-4,70]],[[5183,6889],[114,9],[131,37]],[[5428,6935],[35,-94],[72,-42],[18,-44]],[[4538,7116],[80,-52],[186,-12]],[[4500,7087],[38,29]],[[4632,8598],[-54,12],[-93,42]],[[4485,8652],[-51,21],[-164,26]],[[4270,8699],[132,128]],[[4402,8827],[74,-21],[95,-8]],[[4560,9035],[-88,-77],[-5,-64],[-65,-67]],[[4402,8827],[-71,41],[-33,55],[-42,32]],[[4374,9110],[81,6],[105,-81]],[[6008,9285],[-57,29],[-37,66]],[[5714,7509],[-111,-9],[-73,58]],[[5850,7590],[-37,-38],[-99,-43]],[[6091,9184],[10,-33],[-62,-211]],[[6039,8940],[-236,23]],[[5801,9030],[42,-4],[18,50],[103,12],[21,124],[106,-28]],[[4634,9176],[-10,-89],[21,-47]],[[4645,9040],[-85,-5]],[[6664,7259],[-354,129],[-49,23]],[[6261,7411],[-153,73]],[[6108,7484],[2,42]],[[6110,7526],[32,37],[6,68],[-89,31]],[[6459,7761],[30,-21],[-22,-57],[57,-57],[-17,-60],[171,-41],[71,-104],[-32,-71],[1,-56]],[[5300,7156],[-16,67],[-33,33],[-80,41]],[[5171,7297],[25,29],[105,-19],[62,47]],[[5363,7354],[4,-44],[81,15],[-12,42],[45,25],[72,8],[-7,-71],[131,-138]],[[5677,7191],[-159,35],[-78,-16],[-98,-47],[-42,-7]],[[5765,6386],[46,13],[141,66]],[[5433,8928],[-120,-93],[-52,-30]],[[5261,8805],[-65,29],[-93,-9],[-55,21]],[[5048,8846],[39,36]],[[5520,6331],[-53,-28],[-121,-28]],[[5346,6275],[-18,64],[2,112]],[[5330,6451],[62,48]],[[4739,6494],[23,41],[94,47]],[[4856,6582],[43,-83]],[[4899,6499],[-28,-104],[24,-53]],[[4895,6342],[57,-105]],[[6108,7484],[-98,-7],[-6,-28],[-157,-77],[10,-43]],[[5857,7329],[-49,9],[-68,78],[-26,93]],[[5871,7581],[37,-1],[117,-56],[85,2]],[[6058,9276],[111,-33]],[[6169,9243],[-78,-59]],[[5778,9080],[-47,53],[-130,90]],[[5601,9223],[142,55],[-42,34]],[[6144,8458],[56,16],[123,79],[54,-24],[19,-30]],[[4688,9557],[14,6]],[[6038,8939],[1,1]],[[6169,9243],[66,-57],[40,-93],[44,-46]],[[4169,8521],[26,31]],[[4195,8552],[87,-18],[83,-1]],[[4365,8533],[73,-19]],[[4438,8514],[-30,-46],[3,-91],[16,-17]],[[3984,8646],[29,51],[128,9],[65,39]],[[4206,8745],[64,-46]],[[4270,8699],[-28,-100],[-47,-47]],[[4489,7261],[-55,9],[-66,-9]],[[4527,7451],[38,9],[-2,-87],[-74,-112]],[[3763,8671],[-71,-1],[-17,55],[13,46]],[[3718,8836],[20,-12],[135,-5],[154,-14]],[[4027,8805],[65,-6],[80,-27],[34,-27]],[[5171,7297],[-82,36]],[[5327,7438],[41,-51],[-5,-33]],[[6278,6517],[-81,-69],[-80,-46]],[[6721,6928],[-114,-132],[-91,-72],[-25,-27],[-213,-180]],[[5428,6935],[-50,74]],[[5378,7009],[58,36],[52,61],[45,7],[58,-68]],[[4952,6237],[55,11],[121,-9],[114,30],[104,6]],[[5346,6275],[-1,-63],[48,-91]],[[5699,9570],[-55,61]],[[5644,9631],[19,52],[-50,80]],[[5649,8726],[39,-71]],[[5688,8655],[-78,-23],[-84,-75],[-13,-57]],[[5167,8611],[32,57],[66,28],[36,42],[-1,32],[-39,35]],[[5187,6733],[-79,-53],[-142,-43],[-110,-55]],[[4027,8805],[0,49],[70,32],[45,41],[6,53]],[[4887,8724],[64,34],[38,52],[59,36]],[[5688,8655],[166,38],[101,35],[28,-3]],[[6100,8660],[-120,-66]],[[5801,8289],[-26,2]],[[5775,8291],[-2,18],[-127,108],[-133,83]],[[5033,7309],[-16,-67],[26,-63]],[[4815,7185],[-75,136],[-18,51]],[[3578,8799],[-52,-67],[-239,-47],[-58,-27]],[[3118,8819],[334,157]],[[4576,8330],[-3,38],[31,85],[1,46]],[[5183,6889],[-6,95]],[[5177,6984],[-14,89]],[[5163,7073],[6,33],[49,19],[84,-22]],[[5302,7103],[76,-94]],[[4645,9040],[41,-59],[61,-29]],[[4895,6342],[149,35],[42,29]],[[5086,6406],[100,45],[144,0]],[[5531,9455],[-33,76],[-85,28],[-51,37]],[[5369,9600],[84,36],[97,9],[94,-14]],[[5903,7235],[-46,94]],[[6261,7411],[22,-131],[-66,-10],[-176,-46],[-88,-1],[-50,12]],[[5601,9223],[-112,37],[-108,71],[-93,25]],[[5601,9223],[-104,-50],[-76,-71]],[[5775,8291],[-6,-14],[-268,-94]],[[5302,7103],[-2,53]],[[5677,7191],[46,-49]],[[7361,7262],[-91,5],[-69,7]],[[4899,6499],[44,-2],[143,-91]],[[4605,8499],[-167,15]],[[4365,8533],[16,37],[104,82]],[[5687,7743],[24,121]],[[5846,7972],[91,-44]],[[6029,7883],[-28,-25],[48,-53]],[[5081,7093],[82,-20]],[[5177,6984],[-87,-17],[-36,-44],[-64,-15]],[[5903,7235],[-83,0],[-143,-44]],[[4489,7261],[-91,-88],[-20,-54]],[[4621,7221],[-6,-34],[-77,-71]],[[4489,7261],[132,-40]],[[4621,7221],[138,-32],[56,-4]]],"transform":{"scale":[0.00006359951135114,0.00007958725862586397],"translate":[148.763361034,-35.92019593799995]},"objects":{"SAL_2021_AUST_GDA2020":{"type":"GeometryCollection","geometries":[{"arcs":[[[0,1,2,3,4,5,6,7,8,9,10,11,12]],[[13,14,15,16,17,18]],[[19,20,21,22,23,24,25,26,27,28,29,30]]],"type":"MultiPolygon","properties":{"SAL_CODE21":"80001","SAL_NAME21":"ACT Remainder - Belconnen","STE_CODE21":"8"},"id":"80001"},{"arcs":[[31,32,33,34,35]],"type":"Polygon","properties":{"SAL_CODE21":"80002","SAL_NAME21":"ACT Remainder - Booth","STE_CODE21":"8"},"id":"80002"},{"arcs":[[36,37,38,39,40,-2,41]],"type":"Polygon","properties":{"SAL_CODE21":"80003","SAL_NAME21":"ACT Remainder - Canberra Central","STE_CODE21":"8"},"id":"80003"},{"arcs":[[42,43,44,45,46,47,-7],[48]],"type":"Polygon","properties":{"SAL_CODE21":"80004","SAL_NAME21":"ACT Remainder - Coree","STE_CODE21":"8"},"id":"80004"},{"arcs":[[49,50,-45,51]],"type":"Polygon","properties":{"SAL_CODE21":"80005","SAL_NAME21":"ACT Remainder - Cotter River","STE_CODE21":"8"},"id":"80005"},{"arcs":[[[52,53,54,55,56,57]],[[58,59,60,61,-21,62,63,64,65,66,67,68,69,70,71,72]]],"type":"MultiPolygon","properties":{"SAL_CODE21":"80006","SAL_NAME21":"ACT Remainder - Gungahlin","STE_CODE21":"8"},"id":"80006"},{"arcs":[[-31,73,74]],"type":"Polygon","properties":{"SAL_CODE21":"80007","SAL_NAME21":"ACT Remainder - Hall","STE_CODE21":"8"},"id":"80007"},{"arcs":[[75,76,77,78,79,80,81,82,83,84,85,86,87]],"type":"Polygon","properties":{"SAL_CODE21":"80008","SAL_NAME21":"ACT Remainder - Jerrabomberra","STE_CODE21":"8"},"id":"80008"},{"arcs":[[88,89,90]],"type":"Polygon","properties":{"SAL_CODE21":"80009","SAL_NAME21":"ACT Remainder - Kowen","STE_CODE21":"8"},"id":"80009"},{"arcs":[[91,92,93,94,95,-65,96,-90,97,98,-84,99,100]],"type":"Polygon","properties":{"SAL_CODE21":"80010","SAL_NAME21":"ACT Remainder - Majura","STE_CODE21":"8"},"id":"80010"},{"arcs":[[101,102,103,104,105,-3,-41,106,107]],"type":"Polygon","properties":{"SAL_CODE21":"80011","SAL_NAME21":"ACT Remainder - Molonglo Valley","STE_CODE21":"8"},"id":"80011"},{"arcs":[[108,109,110,-33,111,-52,-44,112,113]],"type":"Polygon","properties":{"SAL_CODE21":"80012","SAL_NAME21":"ACT Remainder - Paddys River","STE_CODE21":"8"},"id":"80012"},{"arcs":[[114,-50,-112,-32,115]],"type":"Polygon","properties":{"SAL_CODE21":"80013","SAL_NAME21":"ACT Remainder - Rendezvous Creek","STE_CODE21":"8"},"id":"80013"},{"arcs":[[-6,116,117,118,119,120,-113,-43]],"type":"Polygon","properties":{"SAL_CODE21":"80014","SAL_NAME21":"ACT Remainder - Stromlo","STE_CODE21":"8"},"id":"80014"},{"arcs":[[121,-78,122,123,-35,124,-110,125,126,127,128,129,130,131,132,133,134,135,136,137,138,-114,-121,139,140,141,142,143,144]],"type":"Polygon","properties":{"SAL_CODE21":"80015","SAL_NAME21":"ACT Remainder - Tuggeranong","STE_CODE21":"8"},"id":"80015"},{"arcs":[[145,146,-108,147]],"type":"Polygon","properties":{"SAL_CODE21":"80016","SAL_NAME21":"ACT Remainder - Weston Creek","STE_CODE21":"8"},"id":"80016"},{"arcs":[[148,149,150,151,-39,152]],"type":"Polygon","properties":{"SAL_CODE21":"80017","SAL_NAME21":"Acton (ACT)","STE_CODE21":"8"},"id":"80017"},{"arcs":[[153,154,155,156,-94,157]],"type":"Polygon","properties":{"SAL_CODE21":"80018","SAL_NAME21":"Ainslie","STE_CODE21":"8"},"id":"80018"},{"arcs":[[158,159,160,161,162,163]],"type":"Polygon","properties":{"SAL_CODE21":"80019","SAL_NAME21":"Amaroo (ACT)","STE_CODE21":"8"},"id":"80019"},{"arcs":[[164,-42,-1,165,166]],"type":"Polygon","properties":{"SAL_CODE21":"80020","SAL_NAME21":"Aranda","STE_CODE21":"8"},"id":"80020"},{"arcs":[[-129,167,168]],"type":"Polygon","properties":{"SAL_CODE21":"80021","SAL_NAME21":"Banks","STE_CODE21":"8"},"id":"80021"},{"arcs":[[169,170,171,172,173,174,175,176]],"type":"Polygon","properties":{"SAL_CODE21":"80022","SAL_NAME21":"Barton","STE_CODE21":"8"},"id":"80022"},{"arcs":[[-87,177]],"type":"Polygon","properties":{"SAL_CODE21":"80023","SAL_NAME21":"Beard","STE_CODE21":"8"},"id":"80023"},{"arcs":[[178,179,180,181,182,183,184]],"type":"Polygon","properties":{"SAL_CODE21":"80024","SAL_NAME21":"Belconnen","STE_CODE21":"8"},"id":"80024"},{"arcs":[[-162,185,-73,186]],"type":"Polygon","properties":{"SAL_CODE21":"80025","SAL_NAME21":"Bonner","STE_CODE21":"8"},"id":"80025"},{"arcs":[[187,-127,188,189]],"type":"Polygon","properties":{"SAL_CODE21":"80026","SAL_NAME21":"Bonython","STE_CODE21":"8"},"id":"80026"},{"arcs":[[190,191,192,-155,193]],"type":"Polygon","properties":{"SAL_CODE21":"80027","SAL_NAME21":"Braddon","STE_CODE21":"8"},"id":"80027"},{"arcs":[[194,-37,-165,-181,195,196]],"type":"Polygon","properties":{"SAL_CODE21":"80028","SAL_NAME21":"Bruce (ACT)","STE_CODE21":"8"},"id":"80028"},{"arcs":[[197,198,199,200,201]],"type":"Polygon","properties":{"SAL_CODE21":"80029","SAL_NAME21":"Calwell","STE_CODE21":"8"},"id":"80029"},{"arcs":[[-158,-93,202,203,-171,204,205,206]],"type":"Polygon","properties":{"SAL_CODE21":"80030","SAL_NAME21":"Campbell","STE_CODE21":"8"},"id":"80030"},{"arcs":[[-101,207]],"type":"Polygon","properties":{"SAL_CODE21":"80031","SAL_NAME21":"Canberra Airport","STE_CODE21":"8"},"id":"80031"},{"arcs":[[-176,208,209,210,211]],"type":"Polygon","properties":{"SAL_CODE21":"80032","SAL_NAME21":"Capital Hill","STE_CODE21":"8"},"id":"80032"},{"arcs":[[-61,212,213,214,215]],"type":"Polygon","properties":{"SAL_CODE21":"80033","SAL_NAME21":"Casey","STE_CODE21":"8"},"id":"80033"},{"arcs":[[216,217,218,219,-140,-120]],"type":"Polygon","properties":{"SAL_CODE21":"80034","SAL_NAME21":"Chapman","STE_CODE21":"8"},"id":"80034"},{"arcs":[[220,221,222,223,224]],"type":"Polygon","properties":{"SAL_CODE21":"80035","SAL_NAME21":"Charnwood","STE_CODE21":"8"},"id":"80035"},{"arcs":[[-142,225,226,227,228]],"type":"Polygon","properties":{"SAL_CODE21":"80036","SAL_NAME21":"Chifley (ACT)","STE_CODE21":"8"},"id":"80036"},{"arcs":[[-133,229,230,231]],"type":"Polygon","properties":{"SAL_CODE21":"80037","SAL_NAME21":"Chisholm (ACT)","STE_CODE21":"8"},"id":"80037"},{"arcs":[[232,-150,233,-191,234]],"type":"Polygon","properties":{"SAL_CODE21":"80038","SAL_NAME21":"City","STE_CODE21":"8"},"id":"80038"},{"arcs":[[235,-198,236,-130,-169]],"type":"Polygon","properties":{"SAL_CODE21":"80039","SAL_NAME21":"Conder","STE_CODE21":"8"},"id":"80039"},{"arcs":[[-13,237,-166]],"type":"Polygon","properties":{"SAL_CODE21":"80040","SAL_NAME21":"Cook","STE_CODE21":"8"},"id":"80040"},{"arcs":[[238,239,240,241,242,-103]],"type":"Polygon","properties":{"SAL_CODE21":"80041","SAL_NAME21":"Coombs","STE_CODE21":"8"},"id":"80041"},{"arcs":[[-58,243,244,-23,245,246]],"type":"Polygon","properties":{"SAL_CODE21":"80042","SAL_NAME21":"Crace","STE_CODE21":"8"},"id":"80042"},{"arcs":[[247,248,249,250,-146,251,252]],"type":"Polygon","properties":{"SAL_CODE21":"80043","SAL_NAME21":"Curtin","STE_CODE21":"8"},"id":"80043"},{"arcs":[[253,-253,254,-210,255,256]],"type":"Polygon","properties":{"SAL_CODE21":"80044","SAL_NAME21":"Deakin","STE_CODE21":"8"},"id":"80044"},{"arcs":[[257,-117,-5,258,-105,259]],"type":"Polygon","properties":{"SAL_CODE21":"80045","SAL_NAME21":"Denman Prospect","STE_CODE21":"8"},"id":"80045"},{"arcs":[[-193,260,261,262,-156]],"type":"Polygon","properties":{"SAL_CODE21":"80046","SAL_NAME21":"Dickson","STE_CODE21":"8"},"id":"80046"},{"arcs":[[263,264,-262]],"type":"Polygon","properties":{"SAL_CODE21":"80047","SAL_NAME21":"Downer","STE_CODE21":"8"},"id":"80047"},{"arcs":[[-217,-119,265,-241,266,267]],"type":"Polygon","properties":{"SAL_CODE21":"80048","SAL_NAME21":"Duffy","STE_CODE21":"8"},"id":"80048"},{"arcs":[[268,-14,269,-29,270,-223]],"type":"Polygon","properties":{"SAL_CODE21":"80049","SAL_NAME21":"Dunlop","STE_CODE21":"8"},"id":"80049"},{"arcs":[[-185,271,272,273,-26,274]],"type":"Polygon","properties":{"SAL_CODE21":"80050","SAL_NAME21":"Evatt","STE_CODE21":"8"},"id":"80050"},{"arcs":[[275,-231,276,277,-136,278]],"type":"Polygon","properties":{"SAL_CODE21":"80051","SAL_NAME21":"Fadden","STE_CODE21":"8"},"id":"80051"},{"arcs":[[-145,279,280,281]],"type":"Polygon","properties":{"SAL_CODE21":"80052","SAL_NAME21":"Farrer","STE_CODE21":"8"},"id":"80052"},{"arcs":[[282,-141,-220,283]],"type":"Polygon","properties":{"SAL_CODE21":"80053","SAL_NAME21":"Fisher (ACT)","STE_CODE21":"8"},"id":"80053"},{"arcs":[[284,285,286,287,-272,-184]],"type":"Polygon","properties":{"SAL_CODE21":"80054","SAL_NAME21":"Florey","STE_CODE21":"8"},"id":"80054"},{"arcs":[[288,289,-225,290]],"type":"Polygon","properties":{"SAL_CODE21":"80055","SAL_NAME21":"Flynn (ACT)","STE_CODE21":"8"},"id":"80055"},{"arcs":[[291,-163,-187,-72]],"type":"Polygon","properties":{"SAL_CODE21":"80056","SAL_NAME21":"Forde","STE_CODE21":"8"},"id":"80056"},{"arcs":[[292,-256,-209,-175,293]],"type":"Polygon","properties":{"SAL_CODE21":"80057","SAL_NAME21":"Forrest (ACT)","STE_CODE21":"8"},"id":"80057"},{"arcs":[[294,295,-55,296]],"type":"Polygon","properties":{"SAL_CODE21":"80058","SAL_NAME21":"Franklin (ACT)","STE_CODE21":"8"},"id":"80058"},{"arcs":[[-271,-28,297,298,-291,-224]],"type":"Polygon","properties":{"SAL_CODE21":"80059","SAL_NAME21":"Fraser","STE_CODE21":"8"},"id":"80059"},{"arcs":[[299,300,301,302,-172,-204,303,-82]],"type":"Polygon","properties":{"SAL_CODE21":"80060","SAL_NAME21":"Fyshwick","STE_CODE21":"8"},"id":"80060"},{"arcs":[[304,305,306,307]],"type":"Polygon","properties":{"SAL_CODE21":"80061","SAL_NAME21":"Garran","STE_CODE21":"8"},"id":"80061"},{"arcs":[[-232,-276,308,-134]],"type":"Polygon","properties":{"SAL_CODE21":"80062","SAL_NAME21":"Gilmore (ACT)","STE_CODE21":"8"},"id":"80062"},{"arcs":[[309,310,311,-24,-245]],"type":"Polygon","properties":{"SAL_CODE21":"80063","SAL_NAME21":"Giralang","STE_CODE21":"8"},"id":"80063"},{"arcs":[[-199,-236,-168,-128,-188]],"type":"Polygon","properties":{"SAL_CODE21":"80064","SAL_NAME21":"Gordon (ACT)","STE_CODE21":"8"},"id":"80064"},{"arcs":[[312,313,314,-277]],"type":"Polygon","properties":{"SAL_CODE21":"80065","SAL_NAME21":"Gowrie (ACT)","STE_CODE21":"8"},"id":"80065"},{"arcs":[[-126,-109,-139,315,316,317,318,-189]],"type":"Polygon","properties":{"SAL_CODE21":"80066","SAL_NAME21":"Greenway","STE_CODE21":"8"},"id":"80066"},{"arcs":[[-302,319,320,-294,-174,321]],"type":"Polygon","properties":{"SAL_CODE21":"80067","SAL_NAME21":"Griffith (ACT)","STE_CODE21":"8"},"id":"80067"},{"arcs":[[-71,322,323,-297,-54,324,325,-164,-292]],"type":"Polygon","properties":{"SAL_CODE21":"80068","SAL_NAME21":"Gungahlin","STE_CODE21":"8"},"id":"80068"},{"arcs":[[-157,-263,326,-95]],"type":"Polygon","properties":{"SAL_CODE21":"80069","SAL_NAME21":"Hackett","STE_CODE21":"8"},"id":"80069"},{"arcs":[[-20,-75,327,-63]],"type":"Polygon","properties":{"SAL_CODE21":"80070","SAL_NAME21":"Hall","STE_CODE21":"8"},"id":"80070"},{"arcs":[[-69,328,-295,-324,329]],"type":"Polygon","properties":{"SAL_CODE21":"80071","SAL_NAME21":"Harrison","STE_CODE21":"8"},"id":"80071"},{"arcs":[[-11,330,331,332,333]],"type":"Polygon","properties":{"SAL_CODE21":"80072","SAL_NAME21":"Hawker (ACT)","STE_CODE21":"8"},"id":"80072"},{"arcs":[[-331,-10,334,335,336]],"type":"Polygon","properties":{"SAL_CODE21":"80073","SAL_NAME21":"Higgins","STE_CODE21":"8"},"id":"80073"},{"arcs":[[337,-267,-240,338]],"type":"Polygon","properties":{"SAL_CODE21":"80074","SAL_NAME21":"Holder (ACT)","STE_CODE21":"8"},"id":"80074"},{"arcs":[[-9,339,-16,340,341,-335]],"type":"Polygon","properties":{"SAL_CODE21":"80075","SAL_NAME21":"Holt","STE_CODE21":"8"},"id":"80075"},{"arcs":[[342,-248,-254,343,-306]],"type":"Polygon","properties":{"SAL_CODE21":"80076","SAL_NAME21":"Hughes (ACT)","STE_CODE21":"8"},"id":"80076"},{"arcs":[[344,-123,-77,345]],"type":"Polygon","properties":{"SAL_CODE21":"80077","SAL_NAME21":"Hume","STE_CODE21":"8"},"id":"80077"},{"arcs":[[-79,-122,-282,346,347]],"type":"Polygon","properties":{"SAL_CODE21":"80078","SAL_NAME21":"Isaacs","STE_CODE21":"8"},"id":"80078"},{"arcs":[[-190,348,349,-200]],"type":"Polygon","properties":{"SAL_CODE21":"80079","SAL_NAME21":"Isabella Plains","STE_CODE21":"8"},"id":"80079"},{"arcs":[[-186,-161,350,351,-59]],"type":"Polygon","properties":{"SAL_CODE21":"80080","SAL_NAME21":"Jacka","STE_CODE21":"8"},"id":"80080"},{"arcs":[[-244,-57,352,353,-197,354,-310]],"type":"Polygon","properties":{"SAL_CODE21":"80081","SAL_NAME21":"Kaleen","STE_CODE21":"8"},"id":"80081"},{"arcs":[[355,-316,-138]],"type":"Polygon","properties":{"SAL_CODE21":"80082","SAL_NAME21":"Kambah","STE_CODE21":"8"},"id":"80082"},{"arcs":[[-322,-173,-303]],"type":"Polygon","properties":{"SAL_CODE21":"80083","SAL_NAME21":"Kingston (ACT)","STE_CODE21":"8"},"id":"80083"},{"arcs":[[-287,-336,-342,356,-221,-290]],"type":"Polygon","properties":{"SAL_CODE21":"80084","SAL_NAME21":"Latham (ACT)","STE_CODE21":"8"},"id":"80084"},{"arcs":[[-196,-180,357,-311,-355]],"type":"Polygon","properties":{"SAL_CODE21":"80085","SAL_NAME21":"Lawson (ACT)","STE_CODE21":"8"},"id":"80085"},{"arcs":[[358,-67,359,-264,-261,360,361,-354]],"type":"Polygon","properties":{"SAL_CODE21":"80086","SAL_NAME21":"Lyneham","STE_CODE21":"8"},"id":"80086"},{"arcs":[[362,-227,363,-250]],"type":"Polygon","properties":{"SAL_CODE21":"80087","SAL_NAME21":"Lyons (ACT)","STE_CODE21":"8"},"id":"80087"},{"arcs":[[-309,-279,-135]],"type":"Polygon","properties":{"SAL_CODE21":"80088","SAL_NAME21":"Macarthur (ACT)","STE_CODE21":"8"},"id":"80088"},{"arcs":[[-341,-15,-269,-222,-357]],"type":"Polygon","properties":{"SAL_CODE21":"80089","SAL_NAME21":"Macgregor (ACT)","STE_CODE21":"8"},"id":"80089"},{"arcs":[[-18,364,-47,365]],"type":"Polygon","properties":{"SAL_CODE21":"80090","SAL_NAME21":"Macnamara","STE_CODE21":"8"},"id":"80090"},{"arcs":[[-238,366,-182,-167]],"type":"Polygon","properties":{"SAL_CODE21":"80091","SAL_NAME21":"Macquarie","STE_CODE21":"8"},"id":"80091"},{"arcs":[[367,368,369,370,-347,-281]],"type":"Polygon","properties":{"SAL_CODE21":"80092","SAL_NAME21":"Mawson","STE_CODE21":"8"},"id":"80092"},{"arcs":[[-179,-275,-25,-312,-358]],"type":"Polygon","properties":{"SAL_CODE21":"80093","SAL_NAME21":"McKellar","STE_CODE21":"8"},"id":"80093"},{"arcs":[[-288,-289,-299,371,-273]],"type":"Polygon","properties":{"SAL_CODE21":"80094","SAL_NAME21":"Melba","STE_CODE21":"8"},"id":"80094"},{"arcs":[[-329,-68,-359,-353,-56,-296]],"type":"Polygon","properties":{"SAL_CODE21":"80095","SAL_NAME21":"Mitchell (ACT)","STE_CODE21":"8"},"id":"80095"},{"arcs":[[-243,-260,-104]],"type":"Polygon","properties":{"SAL_CODE21":"80096","SAL_NAME21":"Molonglo","STE_CODE21":"8"},"id":"80096"},{"arcs":[[-314,-349,-319,372,373]],"type":"Polygon","properties":{"SAL_CODE21":"80097","SAL_NAME21":"Monash (ACT)","STE_CODE21":"8"},"id":"80097"},{"arcs":[[-160,374,-214,375,-351]],"type":"Polygon","properties":{"SAL_CODE21":"80098","SAL_NAME21":"Moncrieff","STE_CODE21":"8"},"id":"80098"},{"arcs":[[376,-320,-301,377]],"type":"Polygon","properties":{"SAL_CODE21":"80099","SAL_NAME21":"Narrabundah","STE_CODE21":"8"},"id":"80099"},{"arcs":[[-375,-159,-326,378,-215]],"type":"Polygon","properties":{"SAL_CODE21":"80100","SAL_NAME21":"Ngunnawal","STE_CODE21":"8"},"id":"80100"},{"arcs":[[-22,-62,-216,-379,379,-246]],"type":"Polygon","properties":{"SAL_CODE21":"80101","SAL_NAME21":"Nicholls","STE_CODE21":"8"},"id":"80101"},{"arcs":[[-153,-38,-195,-362,380]],"type":"Polygon","properties":{"SAL_CODE21":"80102","SAL_NAME21":"O'Connor (ACT)","STE_CODE21":"8"},"id":"80102"},{"arcs":[[-371,381,-308,382,-80,-348]],"type":"Polygon","properties":{"SAL_CODE21":"80103","SAL_NAME21":"O'Malley","STE_CODE21":"8"},"id":"80103"},{"arcs":[[383,-85,-99]],"type":"Polygon","properties":{"SAL_CODE21":"80104","SAL_NAME21":"Oaks Estate","STE_CODE21":"8"},"id":"80104"},{"arcs":[[-318,384,-373]],"type":"Polygon","properties":{"SAL_CODE21":"80105","SAL_NAME21":"Oxley (ACT)","STE_CODE21":"8"},"id":"80105"},{"arcs":[[385,-333,386,-285,-183]],"type":"Polygon","properties":{"SAL_CODE21":"80106","SAL_NAME21":"Page","STE_CODE21":"8"},"id":"80106"},{"arcs":[[-247,-380,-325,-53]],"type":"Polygon","properties":{"SAL_CODE21":"80107","SAL_NAME21":"Palmerston (ACT)","STE_CODE21":"8"},"id":"80107"},{"arcs":[[-212,387,-151,-233,388,-206,389,-177]],"type":"Polygon","properties":{"SAL_CODE21":"80108","SAL_NAME21":"Parkes (ACT)","STE_CODE21":"8"},"id":"80108"},{"arcs":[[-143,-229,390,-369,391]],"type":"Polygon","properties":{"SAL_CODE21":"80109","SAL_NAME21":"Pearce","STE_CODE21":"8"},"id":"80109"},{"arcs":[[-391,-228,-363,-249,-343,-305,-382,-370]],"type":"Polygon","properties":{"SAL_CODE21":"80110","SAL_NAME21":"Phillip","STE_CODE21":"8"},"id":"80110"},{"arcs":[[-208,-100,-83,-304,-203,-92]],"type":"Polygon","properties":{"SAL_CODE21":"80111","SAL_NAME21":"Pialligo","STE_CODE21":"8"},"id":"80111"},{"arcs":[[-377,392,-307,-344,-257,-293,-321]],"type":"Polygon","properties":{"SAL_CODE21":"80112","SAL_NAME21":"Red Hill (ACT)","STE_CODE21":"8"},"id":"80112"},{"arcs":[[-154,-207,-389,-235,-194]],"type":"Polygon","properties":{"SAL_CODE21":"80113","SAL_NAME21":"Reid (ACT)","STE_CODE21":"8"},"id":"80113"},{"arcs":[[-201,-350,-313,-230,-132]],"type":"Polygon","properties":{"SAL_CODE21":"80114","SAL_NAME21":"Richardson","STE_CODE21":"8"},"id":"80114"},{"arcs":[[-338,393,-218,-268]],"type":"Polygon","properties":{"SAL_CODE21":"80115","SAL_NAME21":"Rivett","STE_CODE21":"8"},"id":"80115"},{"arcs":[[-390,-205,-170]],"type":"Polygon","properties":{"SAL_CODE21":"80116","SAL_NAME21":"Russell","STE_CODE21":"8"},"id":"80116"},{"arcs":[[-286,-387,-332,-337]],"type":"Polygon","properties":{"SAL_CODE21":"80117","SAL_NAME21":"Scullin","STE_CODE21":"8"},"id":"80117"},{"arcs":[[-274,-372,-298,-27]],"type":"Polygon","properties":{"SAL_CODE21":"80118","SAL_NAME21":"Spence (ACT)","STE_CODE21":"8"},"id":"80118"},{"arcs":[[394,-284,-219,-394,395]],"type":"Polygon","properties":{"SAL_CODE21":"80119","SAL_NAME21":"Stirling (ACT)","STE_CODE21":"8"},"id":"80119"},{"arcs":[[-48,-365,-17,-340,-8]],"type":"Polygon","properties":{"SAL_CODE21":"80120","SAL_NAME21":"Strathnairn","STE_CODE21":"8"},"id":"80120"},{"arcs":[[-81,-383,-393,-378,-300]],"type":"Polygon","properties":{"SAL_CODE21":"80121","SAL_NAME21":"Symonston","STE_CODE21":"8"},"id":"80121"},{"arcs":[[-213,-60,-352,-376]],"type":"Polygon","properties":{"SAL_CODE21":"80122","SAL_NAME21":"Taylor","STE_CODE21":"8"},"id":"80122"},{"arcs":[[-125,-34,-111]],"type":"Polygon","properties":{"SAL_CODE21":"80123","SAL_NAME21":"Tharwa","STE_CODE21":"8"},"id":"80123"},{"arcs":[[-237,-202,-131]],"type":"Polygon","properties":{"SAL_CODE21":"80124","SAL_NAME21":"Theodore (ACT)","STE_CODE21":"8"},"id":"80124"},{"arcs":[[-330,-323,-70]],"type":"Polygon","properties":{"SAL_CODE21":"80125","SAL_NAME21":"Throsby","STE_CODE21":"8"},"id":"80125"},{"arcs":[[-368,-280,-144,-392]],"type":"Polygon","properties":{"SAL_CODE21":"80126","SAL_NAME21":"Torrens","STE_CODE21":"8"},"id":"80126"},{"arcs":[[-234,-149,-381,-361,-192]],"type":"Polygon","properties":{"SAL_CODE21":"80127","SAL_NAME21":"Turner","STE_CODE21":"8"},"id":"80127"},{"arcs":[[-49]],"type":"Polygon","properties":{"SAL_CODE21":"80128","SAL_NAME21":"Uriarra Village","STE_CODE21":"8"},"id":"80128"},{"arcs":[[-315,-374,-385,-317,-356,-137,-278]],"type":"Polygon","properties":{"SAL_CODE21":"80129","SAL_NAME21":"Wanniassa","STE_CODE21":"8"},"id":"80129"},{"arcs":[[-283,-395,396,-226]],"type":"Polygon","properties":{"SAL_CODE21":"80130","SAL_NAME21":"Waramanga","STE_CODE21":"8"},"id":"80130"},{"arcs":[[-265,-360,-66,-96,-327]],"type":"Polygon","properties":{"SAL_CODE21":"80131","SAL_NAME21":"Watson","STE_CODE21":"8"},"id":"80131"},{"arcs":[[-12,-334,-386,-367]],"type":"Polygon","properties":{"SAL_CODE21":"80132","SAL_NAME21":"Weetangera","STE_CODE21":"8"},"id":"80132"},{"arcs":[[-364,-397,-396,-339,-239,-102,-147,-251]],"type":"Polygon","properties":{"SAL_CODE21":"80133","SAL_NAME21":"Weston (ACT)","STE_CODE21":"8"},"id":"80133"},{"arcs":[[-106,-259,-4]],"type":"Polygon","properties":{"SAL_CODE21":"80134","SAL_NAME21":"Whitlam","STE_CODE21":"8"},"id":"80134"},{"arcs":[[-266,-118,-258,-242]],"type":"Polygon","properties":{"SAL_CODE21":"80135","SAL_NAME21":"Wright","STE_CODE21":"8"},"id":"80135"},{"arcs":[[-252,-148,-107,-40,-152,-388,-211,-255]],"type":"Polygon","properties":{"SAL_CODE21":"80136","SAL_NAME21":"Yarralumla","STE_CODE21":"8"},"id":"80136"},{"type":null,"properties":{"SAL_CODE21":"89494","SAL_NAME21":"No usual address (ACT)","STE_CODE21":"8"},"id":"89494"},{"type":null,"properties":{"SAL_CODE21":"89797","SAL_NAME21":"Migratory - Offshore - Shipping (ACT)","STE_CODE21":"8"},"id":"89797"}]}}}