{"type":"Topology","arcs":[[[5979,5947],[-8,-43],[-95,-19],[-29,-23],[-2,-15],[17,-74],[29,-36],[10,-59],[103,-108],[94,-178],[7,-27],[-3,-158],[-21,-70],[-275,-475],[-18,-56],[68,-217],[-16,-3],[17,-1],[76,-218],[32,-53],[-194,23],[-67,-11],[6,26],[-10,2],[-3,27],[-162,19],[-97,23],[-386,42],[-27,-48],[-75,-23],[9,-77],[-8,-79],[21,-46],[-5,-66],[53,-74],[31,-13],[10,-62],[-16,-26],[58,-78],[-9,-30],[20,-48],[-32,-22],[14,-11],[2,-37],[24,-17],[34,14],[69,-5],[8,-67],[21,-21],[-15,-58],[-18,-14],[50,-52],[-42,-54],[-2,-83],[24,-69],[-36,-41],[5,-31],[65,-58],[78,-12],[-10,-73],[34,-6],[55,-68],[-31,-72],[-82,-62],[-18,-71],[-27,-22],[20,-55],[51,-54],[-3,-34],[-72,-41],[25,-88],[-70,-92],[-10,-30],[21,-17],[-30,-38],[21,-31],[-23,-18],[-31,-61],[11,-34],[-46,-48],[40,-64],[-26,-40],[89,-43],[-65,-73],[5,-51],[42,0],[64,-32],[0,-54],[-38,-24],[-16,-28],[6,-19],[42,-26],[0,-19],[11,-2],[9,-20],[-44,-36],[34,-27],[-14,-23],[16,-35],[-31,-29],[-42,-7],[2,-28],[-24,-18],[5,-8],[-20,-29],[-3,-18],[21,-38],[-17,-66],[-25,-19],[57,-129],[-105,-32],[-38,0],[-38,-25],[-31,-37],[-38,-73],[-47,-21],[-101,-109],[-42,-18],[-54,-53],[-43,-65],[13,-55],[-35,-48],[25,-40],[-21,-26],[-29,-14],[3,-16],[-71,-35],[-38,-42],[-2,-16],[87,-50],[-20,-25],[-17,-58],[-35,-22],[-57,-57],[-63,11],[-15,38],[-64,31],[-58,1],[-36,34],[-42,-1],[-56,-20],[-42,30],[-18,42],[-17,13],[-82,33],[-57,40],[-26,7],[-56,-21],[-84,1],[-64,-19],[-32,21],[5,58],[-70,16],[-39,-9],[-237,46],[-76,-8],[-49,-15],[-23,-40],[-111,23],[5,14],[-18,32],[-86,43],[-132,86],[-63,71],[-131,36],[0,30],[-29,30],[-18,4],[-66,51],[-82,38],[11,25],[-7,19],[-58,19],[-53,3],[-81,59],[1,37],[-61,67],[20,36],[-34,55],[55,41],[7,31],[-13,19],[-42,25],[-93,17],[-17,86],[-64,16],[-22,34],[-70,48],[39,31],[25,50],[35,26],[76,87],[-44,125],[8,68],[-7,105],[67,40],[47,56],[16,67],[-71,83],[-74,0],[-17,66],[-33,68],[-45,45],[5,42],[64,41],[-2,26],[-88,115],[-46,25],[-96,29],[-82,-81],[-25,-69],[-58,-63],[-22,4],[-28,-29],[54,-60],[-41,-47],[-15,-70],[-39,-28],[-11,-33],[27,-59],[-44,-39],[-74,17],[18,72],[-32,30],[-109,8],[-97,50],[-98,76],[-28,69],[-43,36],[-19,56],[-18,19],[-67,25],[-17,40],[-59,29],[-73,-15],[-87,34],[-52,40],[-17,0],[-37,24],[-87,34],[-2,18],[-80,57],[-41,71],[46,56],[0,46],[15,4],[81,112],[14,54],[-17,46],[18,74],[-124,91],[-56,-14],[-14,38],[-44,14],[-154,10],[-21,23],[14,21],[-4,25],[-42,2],[-42,31],[35,17],[26,2],[9,58],[-17,15],[150,89],[48,56],[-17,29],[-26,3],[-19,42],[18,29],[-4,34],[-21,36],[-44,39],[-56,28],[-60,65],[27,26],[25,10],[22,35],[151,40],[12,25],[56,35],[20,29],[-42,74],[-56,15],[-6,25],[-145,144],[88,54],[-9,63],[-74,121],[-52,43],[-3,92],[39,104],[-67,61],[-17,121],[5,24],[-19,32],[36,33],[-7,15],[-42,23],[-29,137],[29,43],[144,60],[2,14],[-57,62],[-5,56],[-58,56],[5,71],[90,40],[-2,13],[51,81],[-47,67],[25,43],[4,54],[45,22],[52,84],[50,13],[74,73],[0,107],[20,30],[-61,36],[-8,48],[160,29],[-4,171],[58,35],[66,18],[18,23],[1,23],[61,34],[-1,22],[-39,20],[-33,36],[6,99],[20,40],[-38,25],[-28,7],[-11,30],[-20,16],[-45,7],[40,52],[1,49],[-9,28],[-28,22],[-23,56],[-30,35],[78,89],[50,36],[9,45],[-19,48],[28,25],[12,31],[69,95],[34,29],[4422,2078],[29,42],[49,9],[99,35],[24,39],[87,13],[23,12],[24,31],[85,14],[46,27],[97,-16],[28,-22],[11,3],[38,-17],[79,16],[48,-39],[-20,-26],[-1,-29],[22,-3],[8,-10],[12,7],[70,-9],[58,-31],[-5,-43],[-32,-13],[-8,-21],[55,-7],[92,9],[22,6],[27,29],[80,-4],[-18,-61],[25,-23],[-36,-65],[81,-61],[-1,-14],[30,-6],[37,23],[16,-2],[6,-13],[14,16],[38,1],[14,-13],[22,4],[70,-18],[8,-7],[29,-2],[54,-56],[-24,-55],[-40,-38],[-21,-34],[11,-16],[24,-12],[87,-17],[64,-66],[25,-11],[-10,-70],[-96,-43],[17,-54],[-19,-18],[-10,-40],[45,10],[96,-5],[34,-43],[82,-66],[41,1],[-15,-57],[-23,-3],[-17,-45],[-40,-60],[40,-56],[75,32],[63,87],[98,-14],[55,20],[83,-32],[46,-4],[42,12],[35,-8],[8,-9],[25,2],[32,-35],[75,-21],[20,-31],[-31,-28],[-30,1],[-2,-29],[-20,-18],[-4,-21],[-105,-47],[-3,-29],[8,-8],[48,-2],[62,-35],[37,-1],[25,-12],[22,11],[48,-19],[-10,-17],[16,-36],[37,0],[37,-39],[0,-13],[31,-10],[163,-29],[86,4],[-10,-33],[20,-18],[-15,-41],[-12,-6],[-5,-82],[57,-20],[26,47],[82,-3],[11,-6],[39,5],[61,-51],[145,45],[56,-14],[9,-11],[11,6],[44,-11],[-12,-13],[19,-12],[40,1],[9,-23],[31,9],[7,12],[49,4],[16,-69],[65,-28],[32,-35],[33,5],[7,22],[40,28],[39,-26],[75,-23],[24,-31],[20,11],[2,12],[59,3],[-1,-28],[17,-12],[11,-27],[74,5],[13,-16],[-10,-7],[24,-12],[14,-19],[1,-43],[23,-6],[47,2],[110,-43],[-37,-56],[31,-19],[130,10],[61,43],[156,-20],[7,26],[65,10],[22,11],[30,-9],[48,3],[-2,-76],[43,-22],[-9,-40],[8,-40],[13,-16],[20,-6],[-18,-19],[-15,-46],[-103,-82],[-76,-19],[-176,-70],[-122,-27],[-28,-27],[0,-53],[-87,-27],[-52,-26],[-75,-8],[-62,13],[-100,65],[-38,52],[-37,15],[-352,46],[-142,3],[-50,31],[-97,2],[-31,13],[28,-13],[-52,-7],[-118,-50],[-67,0],[-61,23],[-109,9],[-112,49],[-25,1],[-36,-10],[-60,23],[-85,0],[-28,-6],[-95,-76],[-158,-70],[-31,2],[6,19],[37,15],[-27,15],[-21,-3],[-24,-28],[-27,-6],[-57,7],[-11,-8],[-48,-2],[-179,-49],[-43,-31],[-328,-397],[-412,-349],[-139,-74],[-34,-29],[-29,-98],[-98,-72],[12,-46],[20,-19],[22,-4],[56,14],[101,-2],[53,-35],[-31,-39],[-26,-58],[-54,-2],[-70,-36]],[[4873,9423],[-20,3],[-27,32],[-25,-2],[-19,22],[-14,-6],[17,-20],[-14,-12],[27,-27],[36,9],[19,-12],[20,13]],[[4697,6896],[-13,13],[-10,-3],[4,-23],[17,2],[2,11]],[[4305,7926],[2,24],[-18,-16],[-14,-34],[30,26]],[[4597,6873],[-2,26],[-38,-14],[15,-3],[25,-9]],[[5013,8411],[25,7],[17,3],[-28,10],[-46,-15],[32,-5]],[[6797,8609],[12,-32],[16,33],[-28,-1]],[[4939,8686],[36,40],[29,5],[-4,18],[-25,1],[-10,-29],[-24,-18],[-2,-17]],[[4938,8685],[-13,-3],[-16,12],[-19,-45],[-42,-25],[-23,4],[-47,62],[14,16],[-1,18],[21,7],[-8,18],[10,21],[16,3],[31,-10],[32,-35],[44,21],[47,62],[64,37],[63,-14],[83,10],[77,-33],[41,-33],[4,-38],[-34,-46],[-26,-13],[-20,-1],[-42,-24],[-49,-141],[-43,-5],[-14,8],[1,22],[37,35],[-4,23],[-22,6],[-25,0],[-15,-14],[-26,4],[-14,-30],[-66,-9],[0,-10],[81,-4],[12,-15],[25,-2],[8,-9],[-6,-18],[90,-27],[-1,-26],[31,-5],[16,-20],[21,2],[16,19],[-7,20],[21,8],[48,-22],[-1,-20],[-19,-10],[5,-5],[14,8],[25,-5],[23,7],[43,-6],[36,32],[27,63],[-2,4],[-12,-7],[-37,11],[-76,44],[72,32],[73,19],[45,27],[13,27],[-16,11],[-1,14],[41,19],[8,40],[-16,38],[16,27],[-106,78],[-24,0],[-29,-19],[-48,-8],[-13,20],[30,39],[-31,13],[-39,-1],[-91,31],[-31,-1],[-21,12],[-3,12],[-25,-5],[-43,-104],[-28,-3],[-66,57],[-19,49],[-81,33],[-112,95],[-98,19],[-51,25],[-121,12],[-84,24],[18,-25],[-3,-10],[-13,-7],[-25,0],[-37,-18],[-10,-16],[-22,1],[-15,14],[37,52],[-8,11],[-43,2],[-18,-6],[15,-28],[-6,-7],[-44,1],[-10,8],[-20,-9],[-37,31],[5,48],[-52,4],[35,-55],[-20,-15],[-62,29],[2,33],[-18,-16],[-27,-8],[-4,-11],[13,-14],[-11,-9],[-27,17],[-2,15],[-17,5],[-81,-36],[62,0],[17,-14],[-11,-15],[-30,10],[-17,-11],[21,-48],[-13,-13],[33,-11],[-5,-15],[-56,12],[-37,-3],[32,-42],[22,-1],[19,10],[18,-16],[-4,-9],[-35,-14],[9,-10],[-7,-8],[-38,-9],[-18,14],[-36,-18],[-68,39],[-20,1],[18,-9],[0,-8],[-20,-9],[-28,0],[-16,-10],[-15,-24],[0,-33],[40,-25],[-6,-34],[32,-13],[-5,-19],[-31,-3],[-27,13],[-64,6],[-9,-42],[-14,-7],[-12,-29],[-172,21],[-27,-8],[-25,5],[-75,-12],[60,-6],[15,-15],[-8,-26],[37,5],[13,10],[22,-6],[61,12],[22,-6],[4,-9],[-13,-8],[61,-19],[3,-32],[16,-4],[42,8],[2,-10],[20,-6],[-1,-14],[10,-6],[42,14],[46,31],[72,6],[189,-41],[36,-17],[59,-58],[62,-40],[-8,-75],[98,-78],[52,-9],[27,16],[51,-5],[15,-12],[15,0],[37,-34],[23,-9],[72,16],[56,-14],[43,-32],[-4,-26],[17,1],[21,-10],[47,2],[32,-44],[46,24],[48,5],[16,18],[83,-2],[6,16],[-49,65],[19,13],[18,-3],[38,-40],[20,-28],[1,-26],[13,-10],[39,94],[1,8],[-41,20],[-125,33],[1,27],[36,4],[12,15],[-1,24],[29,32],[-74,8],[-27,14],[-2,10],[42,38],[31,51],[64,9],[-12,16],[-23,10],[-34,2],[-14,24]],[[5104,8386],[20,-12],[36,6],[-20,11],[-1,12],[-22,-4],[-13,-13]],[[4221,7434],[70,2],[1,7],[-55,4],[-16,-13]],[[5659,8733],[-34,15],[-26,-47],[48,18],[12,14]],[[968,5880],[11,59],[12,8],[18,-2],[-20,9],[-33,-37],[12,-37]],[[5007,8681],[-2,20],[28,-1],[17,11],[-53,4],[-17,-23],[5,-14],[22,3]],[[5990,6511],[13,58],[-11,2],[-39,-42],[8,-19],[17,-5],[12,6]],[[4816,7716],[-3,60],[9,22],[-54,-42],[48,-40]],[[6752,8674],[31,4],[1,60],[-12,17],[-2,-21],[-29,-7],[13,-14],[-2,-39]],[[7127,7292],[-16,37],[86,28],[2,10],[-17,11],[-31,0],[-46,-33],[5,-11],[-12,-6],[14,-34],[15,-2]],[[6934,7480],[-57,35],[-19,-25],[1,-33],[30,4],[34,-6],[11,25]],[[6395,6871],[57,2],[19,31],[-4,10],[-60,2],[-19,-15],[7,-30]],[[5206,8691],[-81,20],[-8,9],[-51,-38],[11,-14],[19,0],[30,20],[31,1],[22,-11],[-1,-11],[28,24]],[[6956,7283],[59,-34],[76,34],[-82,16],[-53,-16]],[[4273,8146],[-13,33],[-59,-46],[-15,0],[-3,-17],[-25,-2],[-15,-14],[60,-15],[22,29],[48,32]],[[6508,7318],[96,-34],[25,33],[-107,40],[-14,-39]],[[5819,7021],[-35,-26],[22,-28],[1,-38],[46,-2],[19,14],[-1,12],[-29,24],[-10,25],[6,18],[-19,1]],[[5967,5430],[-10,10],[-42,-1],[13,-58],[58,-6],[17,8],[2,19],[21,2],[-1,18],[-58,8]],[[2537,7812],[69,50],[-45,20],[-4,13],[-11,-6],[-17,4],[-35,-51],[10,-9],[33,-21]],[[4096,7849],[26,29],[-18,14],[9,29],[-25,21],[-20,6],[-3,-20],[-17,-6],[-5,-68],[19,-7],[6,-18],[13,13],[21,-1],[-6,8]],[[4401,6804],[27,34],[23,6],[-1,23],[-42,12],[-58,-5],[-14,-22],[14,-35],[51,-13]],[[6916,7190],[-5,15],[-60,17],[-38,0],[1,-75],[68,1],[34,42]],[[6147,6507],[-7,-16],[-21,3],[-18,29],[-44,-35],[-4,-16],[70,-49],[53,33],[5,29],[-25,21],[-9,1]],[[5755,6407],[25,0],[28,14],[29,36],[-37,23],[-3,15],[-51,25],[-21,-25],[-6,-31],[-15,-7],[1,-25],[45,-11],[5,-14]],[[6304,7340],[43,1],[35,20],[31,-9],[71,28],[-190,81],[-39,-52],[22,-61],[27,-8]],[[6202,6526],[11,-11],[8,14],[23,1],[13,-15],[57,58],[-43,31],[0,8],[31,12],[35,-34],[142,126],[-25,-13],[-19,10],[-251,-135],[15,-16],[3,-36]],[[1126,4829],[-42,-34],[-42,-56],[22,-17],[-11,-30],[-55,-22],[30,-7],[12,-15],[-6,-49],[19,-26],[-13,-18],[1,-94],[-46,-42],[-55,-17],[-11,-49],[29,-2],[-7,13],[7,14],[66,30],[10,13],[39,13],[18,-2],[3,22],[-19,26],[13,51],[-21,85],[8,23],[14,9],[-4,37],[23,28],[4,65],[35,19],[30,2],[23,-10],[25,25],[-20,-14],[-20,-1],[-19,9],[-2,17],[-38,4]],[[2401,7565],[76,62],[18,3],[22,-25],[31,-3],[21,-26],[-44,-24],[29,2],[15,-11],[41,-8],[11,-16],[-7,-15],[48,-5],[-1,25],[16,9],[45,-24],[7,28],[12,5],[20,-5],[5,5],[-52,25],[-34,2],[-31,25],[-25,3],[-4,14],[28,14],[-4,12],[-60,-9],[-32,5],[-13,25],[-1,28],[-18,-11],[-47,3],[2,-16],[-32,-20],[-12,-27],[-30,-23],[-18,-4],[9,-25],[-18,-23],[-21,-9],[2,-17],[-21,-17],[11,-16],[-27,-28],[54,41],[10,36],[20,13],[-1,22]],[[4494,8134],[17,37],[-18,4],[-12,-9],[-21,0],[-40,-15],[-69,2],[-30,-23],[-19,-4],[-1,-8],[-37,-24],[2,-26],[-23,-2],[3,-14],[-14,-4],[14,-42],[72,23],[19,-14],[24,-1],[25,12],[25,56],[83,52]],[[4903,7970],[-144,10],[-15,-18],[-53,2],[-31,8],[-23,-60],[19,-32],[29,9],[55,-31],[-28,-24],[7,-15],[-13,-44],[-16,-12],[-6,-32],[-11,-9],[15,-14],[37,56],[91,68],[38,45],[82,46],[-34,3],[-7,24],[8,20]],[[4982,5961],[4,-26],[32,-34],[-30,-44],[-44,-39],[2,-19],[-13,-9],[12,-24],[-20,-16],[64,-15],[17,-11],[4,-15],[28,-19],[19,-3],[17,-47],[15,-10],[2,-13],[-9,-7],[52,-8],[-2,18],[34,2],[10,-7],[1,-21],[38,2],[56,-42],[42,-15],[26,22],[-7,12],[30,63],[21,2],[36,32],[45,2],[43,14],[2,9],[-39,21],[-12,29],[-24,12],[-28,3],[-23,-11],[-31,11],[-8,11],[14,25],[-8,26],[-37,18],[-6,15],[-87,1],[-5,16],[-25,19],[16,45],[-50,5],[-12,18],[-29,3],[-25,22],[-3,27],[-62,8],[-7,-13],[20,-3],[4,-17],[-60,-25]],[[6619,7352],[-5,34],[44,0],[1,48],[-14,24],[-41,38],[-12,-9],[-20,1],[-9,9],[6,15],[-53,19],[-85,-20],[-4,25],[12,5],[2,19],[47,25],[37,-25],[28,2],[136,-29],[49,-68],[30,27],[-7,13],[-72,37],[-23,-1],[11,24],[-8,30],[21,2],[27,-43],[23,-15],[85,-2],[6,105],[94,71],[51,-6],[53,46],[-34,30],[25,31],[-65,9],[-32,-11],[-83,39],[-3,26],[-32,3],[-3,86],[-36,-5],[-14,-35],[-55,-67],[-15,-5],[-20,11],[-17,-15],[0,-11],[20,-10],[1,-8],[-42,-17],[-65,-5],[-29,7],[-6,9],[-10,-6],[-20,6],[-5,6],[20,18],[-29,-10],[-29,9],[-58,48],[-16,30],[-46,24],[-19,-33],[-50,-45],[23,-16],[-26,-19],[14,-6],[5,-15],[-17,-11],[-3,-16],[-25,-15],[25,-6],[-8,-11],[4,-6],[18,5],[5,-15],[26,2],[26,-19],[20,0],[35,15],[22,29],[23,4],[7,-5],[-18,-38],[-98,-48],[-24,-43],[31,-90],[-23,-10],[-14,2],[-21,-22],[79,-48],[142,-61],[83,-14],[28,-31],[18,-2]],[[4645,7530],[21,12],[-4,12],[-49,-5],[1,-16],[-23,-7],[17,0],[22,-17],[-41,-34],[-24,5],[-8,38],[-10,-27],[-20,-4],[-17,31],[6,23],[-55,-11],[-29,14],[-27,31],[16,58],[-26,10],[-52,-17],[-62,13],[-35,17],[-21,26],[-18,-3],[-2,35],[38,51],[8,37],[-132,-1],[-34,13],[-51,-48],[-26,-12],[-20,11],[8,10],[-23,9],[-72,6],[56,-52],[-3,-15],[10,-7],[41,-8],[75,-34],[69,6],[2,-14],[-36,-19],[39,-23],[43,-10],[40,-33],[-29,-112],[139,-7],[25,-13],[9,1],[-5,12],[34,18],[45,-21],[33,-6],[42,2],[29,11],[11,-4],[2,-32],[-11,-6],[-175,-13],[-20,-8],[-28,5],[-181,-14],[-11,-66],[26,-35],[-19,-46],[27,-6],[1,-40],[-36,-6],[-34,-32],[32,7],[16,-21],[-13,-21],[38,2],[52,-21],[-6,-26],[18,-19],[-7,-11],[8,-15],[50,-4],[-9,20],[17,13],[23,-7],[22,8],[17,-5],[12,-12],[-13,-14],[29,-34],[-6,-17],[46,18],[41,-14],[30,8],[25,-22],[59,12],[56,-24],[46,4],[-16,32],[13,7],[31,-1],[25,52],[33,8],[14,57],[-12,45],[-29,25],[19,15],[-7,11],[-33,14],[18,18],[-25,30],[-11,46],[-18,11],[-2,98],[-19,4],[-15,57],[5,15],[-18,6],[-2,12]],[[5134,9087],[24,9],[18,30],[67,10],[35,23],[62,22],[62,0],[7,-12],[-11,-32],[3,-6],[23,2],[-2,-27],[-25,-9],[-30,0],[-10,-21],[-72,-53],[28,-19],[45,-12],[48,-30],[40,-10],[18,37],[31,-1],[29,-13],[-8,20],[7,26],[-29,30],[12,18],[50,-12],[79,0],[78,14],[55,20],[-87,76],[31,23],[11,20],[88,-9],[162,-30],[16,-15],[-15,-74],[-64,-14],[-41,1],[-17,-48],[-44,-2],[4,-35],[-18,-56],[9,-44],[-27,-86],[45,-12],[24,22],[29,-11],[-5,-28],[115,-9],[9,22],[20,3],[2,9],[-26,15],[5,38],[18,31],[28,6],[1,12],[15,9],[-4,27],[57,4],[5,-19],[59,-6],[13,19],[37,5],[28,14],[46,52],[-33,-21],[-48,-10],[-19,-11],[-54,-4],[-36,7],[3,20],[-16,13],[-2,20],[23,1],[14,20],[88,-13],[46,9],[34,-16],[14,33],[19,7],[26,-12],[3,5],[-14,62],[9,64],[-16,27],[-55,35],[-23,26],[-40,2],[-6,-9],[-51,-18],[-67,24],[-84,15],[-33,10],[-17,15],[38,22],[22,48],[23,8],[38,-2],[18,69],[-99,14],[-10,15],[32,29],[45,23],[90,91],[-44,14],[-35,0],[-9,9],[3,17],[-25,2],[3,14],[-16,-15],[-39,-15],[-30,8],[-50,-5],[-47,9],[-21,-37],[-1,-33],[-40,-40],[-63,0],[-20,25],[-22,3],[14,-29],[37,-30],[-18,-6],[-52,20],[-7,-9],[17,-11],[-14,-8],[-3,-15],[15,-16],[-26,-21],[-52,-8],[-74,6],[-17,15],[0,21],[27,16],[38,7],[0,26],[16,14],[19,5],[28,-7],[25,33],[15,2],[-11,45],[56,34],[-13,13],[11,10],[13,-1],[6,13],[-44,10],[-13,18],[-44,10],[-50,-18],[-62,19],[-43,-9],[-11,12],[7,35],[-27,5],[-27,-6],[-26,27],[-38,-17],[-3,-12],[12,-13],[-7,-18],[23,2],[13,-8],[-12,-18],[-58,3],[-8,22],[-25,9],[-78,4],[-11,-44],[49,-9],[-3,-10],[-23,-1],[-2,-6],[38,-40],[-19,-49],[-24,-11],[-7,-17],[18,-20],[-27,-30],[24,-19],[-25,-25],[31,-6],[25,16],[26,1],[16,-14],[-4,-17],[-18,-19],[-98,-7],[-35,12],[-9,-15],[-38,-3],[30,-7],[11,-33],[-35,-21],[-47,7],[0,-17],[17,-8],[-3,-14],[-60,-85],[20,-13],[-48,-46],[133,-94]],[[4513,6840],[-105,-101],[-17,10],[-158,-73],[-42,-34],[21,-30],[56,-30],[46,-5],[0,11],[41,34],[34,9],[60,0],[17,-12],[-18,-23],[18,-13],[12,2],[0,23],[32,14],[31,-10],[29,-29],[88,-26],[12,-21],[-15,-11],[3,-7],[15,-8],[14,3],[53,-11],[12,-14],[-9,-38],[-27,-32],[-12,-36],[13,-48],[-10,-8],[-23,-1],[26,-33],[-23,-29],[0,-24],[58,17],[34,-18],[28,-1],[22,-13],[-6,-39],[7,-4],[14,-2],[56,18],[10,-45],[-11,-8],[-42,-7],[12,-10],[34,10],[28,-11],[7,13],[23,1],[65,-30],[58,-51],[0,-10],[19,0],[47,-19],[40,-1],[10,-40],[48,12],[105,-15],[21,-7],[-7,-17],[-54,11],[50,-19],[28,6],[14,-15],[14,3],[12,25],[-21,12],[-3,17],[-20,16],[12,16],[32,-1],[65,-39],[-12,-21],[8,-23],[48,-14],[28,-20],[-16,-38],[-26,-22],[9,-27],[36,-13],[14,9],[19,41],[27,3],[21,19],[54,25],[5,10],[32,12],[-23,16],[-1,24],[14,10],[-33,34],[-30,11],[-24,-21],[-17,7],[37,67],[-20,9],[10,33],[45,17],[39,32],[46,-10],[33,17],[4,14],[44,14],[35,26],[3,19],[49,32],[15,36],[-58,15],[-33,43],[-17,-3],[-23,13],[-35,-17],[-18,-19],[-17,4],[-14,22],[-112,-5],[-129,-45],[-11,30],[41,12],[25,43],[-48,-7],[-11,10],[3,13],[42,33],[38,-6],[-5,-26],[26,13],[26,-10],[-22,34],[12,9],[21,0],[1,12],[14,6],[-31,37],[-14,36],[-29,5],[-2,18],[-11,-16],[-25,-5],[-15,8],[4,13],[-17,9],[-11,-33],[3,-15],[22,-2],[-8,-26],[-69,-12],[-21,4],[-19,13],[5,-23],[-19,-17],[-18,-1],[-16,14],[1,26],[-18,45],[5,28],[-28,15],[-59,74],[-84,36],[-55,9],[-41,2],[-70,-11],[-43,7],[-60,47],[-95,26],[-75,58],[-44,2],[-69,-14],[-85,11],[-41,-24]],[[4856,7804],[37,-21],[-19,-31],[3,-15],[81,-66],[-30,-17],[0,-20],[51,26],[48,-26],[60,6],[45,-8],[2,14],[-26,20],[0,29],[35,26],[6,-8],[-26,-29],[5,-19],[9,-7],[52,10],[44,-24],[12,-19],[-16,-18],[-49,-4],[-20,-12],[-41,-49],[-66,34],[-79,4],[-31,16],[-86,-16],[5,-12],[-15,-9],[-7,-24],[21,-117],[29,-42],[36,-1],[25,-10],[30,-40],[-10,-11],[-21,-1],[-29,7],[-20,24],[-21,-1],[-12,9],[-27,-3],[43,-75],[-14,-27],[29,-14],[-8,-15],[-31,-2],[6,-31],[33,-75],[21,-14],[-13,-15],[-45,3],[11,-30],[17,-6],[35,11],[19,-12],[-2,-11],[-36,-22],[114,-121],[12,-26],[-12,-46],[54,9],[63,-5],[94,4],[2,17],[23,10],[53,-29],[-3,-19],[25,-20],[36,-13],[19,-29],[103,8],[6,44],[-46,27],[-12,20],[24,8],[36,-17],[23,5],[35,-29],[9,4],[5,36],[-30,41],[-19,10],[12,25],[-52,44],[-9,27],[18,34],[-14,10],[4,15],[-48,24],[-96,-2],[-34,9],[-8,15],[6,45],[42,12],[29,-23],[-10,-8],[-17,2],[-3,-18],[25,-5],[34,10],[31,-9],[12,16],[-16,9],[-9,27],[33,11],[16,-2],[20,14],[-12,29],[13,19],[25,12],[-18,59],[-13,10],[-8,50],[18,18],[-6,23],[25,7],[-4,11],[-21,18],[-91,-4],[-12,-2],[-13,-30],[-16,-5],[-41,7],[-16,15],[-21,3],[-66,-8],[-55,5],[-43,13],[-6,12],[18,18],[89,-10],[11,13],[23,-3],[-15,26],[24,38],[24,-2],[5,-16],[75,-3],[1,15],[56,29],[33,8],[66,2],[24,-19],[32,-11],[62,-68],[23,-39],[-12,-35],[15,-39],[-9,-79],[57,-33],[16,-19],[9,-4],[53,23],[78,8],[43,-3],[76,-26],[55,4],[25,-21],[21,-51],[29,13],[-5,14],[37,16],[20,-11],[45,17],[30,-25],[35,9],[-24,63],[34,12],[7,22],[-13,19],[-26,-27],[-101,-24],[-15,6],[0,9],[68,22],[-42,-5],[-29,-13],[-22,15],[11,10],[13,-2],[89,25],[0,6],[-81,-6],[-10,12],[9,6],[42,0],[33,45],[23,10],[-27,1],[-7,22],[-17,11],[16,17],[5,52],[-53,32],[10,15],[-16,14],[-13,50],[-50,6],[-6,31],[-25,20],[62,73],[-24,14],[-2,17],[44,12],[-9,9],[-1,46],[-76,33],[-20,28],[8,9],[25,4],[31,-20],[48,-4],[41,29],[23,-8],[3,-11],[14,2],[27,24],[10,26],[25,4],[6,11],[-72,30],[-3,24],[-60,24],[-19,-6],[5,-11],[-11,-19],[-35,2],[-19,34],[-37,17],[-9,33],[-16,6],[-26,-10],[-15,18],[33,26],[53,22],[-26,43],[4,37],[27,36],[40,26],[3,12],[23,3],[2,39],[59,13],[21,27],[21,9],[39,-15],[17,-34],[25,9],[36,46],[-8,16],[11,35],[-26,36],[2,40],[-54,24],[-19,20],[-68,38],[-18,2],[-4,10],[-43,25],[29,17],[86,-47],[27,21],[62,0],[0,55],[31,13],[12,26],[-9,12],[-30,-7],[12,-23],[-6,-6],[-67,-16],[-25,16],[14,-42],[-55,-2],[-25,39],[-37,-18],[-14,5],[-24,107],[-12,-25],[-26,0],[-37,-17],[-14,-38],[-26,-8],[-12,8],[-13,-3],[-53,-23],[-66,-43],[-8,-13],[-41,-13],[-18,-21],[-19,0],[-57,34],[-5,-20],[-84,-35],[-46,-68],[24,-14],[-14,-37],[-55,-60],[-16,-4],[-43,-61],[28,-2],[22,-20],[-14,-13],[-30,4],[31,-32],[1,-16],[-21,-34],[24,-42],[-35,-17],[34,-57],[-3,-36],[-64,-59],[-111,-37],[-52,4],[-103,-17],[-49,8],[11,-22],[-14,-8],[-23,3],[-14,-6],[5,-23],[-31,-29],[4,-26],[-32,-35],[-29,-8],[-35,6],[-20,33],[-89,-48]],[[5391,6116],[-31,44],[-19,52],[-38,37],[-25,4],[-43,-10],[-32,11],[-46,-15],[-35,2],[-10,26],[-22,9],[1,17],[27,22],[7,22],[21,-2],[-2,-18],[36,11],[41,-10],[1,-13],[-26,-22],[9,-6],[128,7],[20,-15],[0,-53],[127,-56],[28,-38],[-89,-12],[-28,6]],[[4898,6264],[20,8],[10,-8],[-19,-20],[-10,4],[-1,16]],[[4980,6280],[22,6],[18,-7],[-33,-15],[-16,3],[9,13]],[[4997,6429],[1,-30],[-50,-27],[-3,-13],[-39,9],[-6,16],[15,8],[0,21],[14,18],[43,12],[25,-14]],[[5405,6963],[-3,-25],[-23,-11],[-17,2],[-15,16],[9,30],[20,3],[29,-15]],[[5224,7287],[-9,14],[25,21],[57,-1],[28,11],[22,-19],[0,-14],[-22,-7],[-16,-17],[-85,12]],[[5229,8490],[-24,19],[11,19],[30,7],[42,-12],[3,-12],[-20,-20],[-42,-1]],[[4014,8811],[3,39],[31,26],[47,14],[37,27],[17,-3],[84,15],[12,6],[8,24],[32,-6],[23,-33],[-7,-20],[-17,1],[-13,-19],[-41,5],[-57,-17],[26,-13],[10,-19],[-6,-10],[-49,0],[-16,-6],[-24,12],[-33,-2],[-25,-30],[-42,9]],[[4025,9004],[-14,24],[36,11],[106,-60],[-2,-26],[-12,-5],[-86,43],[0,-10],[43,-38],[-7,-30],[-20,-12],[-56,17],[-24,35],[-5,29],[-14,7],[7,15],[48,0]],[[4519,9011],[-15,17],[10,13],[-18,8],[1,18],[-27,25],[1,27],[54,26],[29,-1],[13,-11],[20,-3],[15,0],[18,12],[18,-1],[9,-9],[-7,-41],[24,-23],[9,-34],[-90,-9],[-7,-18],[-26,-7],[-31,11]],[[5712,6271],[70,0],[14,-15],[-38,-47],[-18,-7],[-32,14],[-7,42],[11,13]],[[5393,7760],[-53,-4],[-21,-17],[-18,13],[6,23],[14,5],[-4,30],[16,7],[36,-4],[23,31],[20,5],[46,-7],[30,-16],[13,6],[30,-2],[28,-34],[62,-15],[20,-31],[-10,-10],[-33,-2],[-66,13],[-38,-25],[-101,34]],[[5917,8888],[-9,11],[14,35],[31,-3],[13,-29],[15,13],[-18,4],[3,16],[-44,6],[-7,-7],[-14,2],[1,21],[72,-2],[-14,7],[1,11],[36,47],[30,5],[36,-6],[8,-17],[-27,-57],[-2,-41],[-21,-5],[-7,-17],[-20,-11],[-39,3],[-12,10],[-26,4]],[[5484,9004],[-54,3],[-8,7],[13,24],[31,10],[35,-15],[-17,-29]],[[5165,9156],[22,19],[34,-2],[3,-20],[-10,-11],[-46,2],[-3,12]],[[5179,9221],[2,12],[45,15],[17,-2],[-13,-31],[-30,-20],[-23,6],[11,16],[-9,4]],[[5321,9317],[35,16],[34,-15],[-12,-13],[-45,-10],[-13,6],[1,16]],[[5423,9320],[23,9],[20,25],[3,61],[45,4],[9,-8],[-15,-9],[7,-32],[-12,-61],[-19,-6],[-2,-10],[-35,-9],[-28,24],[4,12]],[[5888,9462],[74,40],[21,-5],[-3,-10],[-33,-19],[-32,-48],[-13,3],[-14,39]],[[5625,9660],[32,40],[38,-14],[-7,-24],[-22,-19],[-41,17]]],"transform":{"scale":[0.00006359299010399582,0.00007958638606287975],"translate":[148.76335543408211,-35.920200110359175]},"objects":{"ACT-bushfire_prone":{"type":"GeometryCollection","geometries":[{"arcs":[[[0],[1],[2],[3],[4],[5],[6],[7],[8],[9],[10],[11],[12],[13],[14],[15],[16],[17],[18],[19],[20],[21],[22],[23],[24],[25],[26],[27],[28],[29],[30],[31],[32],[33],[34],[35],[36],[37],[38],[39],[40],[41],[42],[43]],[[44]],[[45]],[[46]],[[47]],[[48]],[[49]],[[50]],[[51]],[[52]],[[53]],[[54]],[[55]],[[56]],[[57]],[[58]],[[59]],[[60]],[[61]],[[62]],[[63]]],"type":"MultiPolygon","properties":{"layer":"bushfire_prone"}}]}},"properties":{"layer":"bushfire_prone","state":"ACT","source":"Bushfire Prone Area 2026 (ACT Government)","licence":"CC-BY-4.0","asOf":"2026-09-23","simplify":"100%"}}