{"type":"Topology","arcs":[[[451,197],[-31,-3],[9,-53],[-31,-3],[-17,104],[62,7],[8,-52]],[[1569,931],[16,-104],[-31,-4],[4,-26],[-31,-3],[9,-52],[31,3],[4,-26],[-31,-4],[29,-182],[-31,-3],[4,-26],[31,3],[12,-78],[62,7],[4,-26],[-155,-18],[4,-26],[-62,-7],[4,-26],[-62,-6],[4,-27],[62,7],[4,-26],[31,4],[4,-26],[-93,-11],[4,-26],[-31,-3],[4,-26],[63,7],[8,-52],[-31,-4],[4,-26],[-31,-3],[4,-26],[-31,-4],[8,-52],[-31,-3],[4,-27],[-31,-3],[-8,52],[31,4],[-8,52],[31,3],[-17,104],[-31,-3],[-4,26],[-31,-3],[-12,78],[31,3],[-9,52],[31,4],[-4,26],[63,7],[-5,26],[31,3],[-4,26],[31,4],[-8,52],[31,3],[-24,157],[31,3],[-25,156],[-31,-3],[-4,26],[-31,-3],[-4,26],[31,3],[-4,26],[62,7],[-4,26],[31,4],[-9,52],[-31,-4],[-4,26],[31,4],[-4,26],[31,3],[21,-130],[-31,-4],[4,-26],[-31,-3],[16,-104],[31,3],[-8,52],[31,4],[-8,52],[31,3],[-4,26],[31,4]],[[605,426],[-31,-3],[-8,52],[93,10],[4,-26],[31,4],[4,-27],[-62,-6],[-4,26],[-31,-4],[4,-26]],[[261,600],[63,7],[-4,26],[31,4],[8,-53],[-31,-3],[4,-26],[-31,-3],[4,-27],[-31,-3],[-13,78]],[[606,824],[-4,26],[-63,-7],[-4,26],[31,4],[-4,26],[125,13],[4,-26],[31,4],[12,-78],[-31,-4],[4,-26],[-31,-3],[-8,52],[-62,-7]],[[1579,1065],[21,-131],[-31,-3]],[[1569,931],[-21,130],[31,4]],[[1579,1065],[-12,78],[62,7],[-4,26],[-62,-7],[-4,26],[31,3],[-4,26],[31,4],[4,-26],[31,3],[4,-26],[31,4],[4,-26],[31,3],[-4,26],[94,10],[4,-26],[31,4],[12,-78],[31,3],[4,-26],[62,7],[5,-26],[-94,-10],[-4,26],[-31,-4],[-8,52],[-31,-3],[-4,26],[-31,-4],[4,-26],[-31,-3],[4,-26],[-31,-4],[-4,26],[-94,-10],[5,-26],[-32,-3]],[[304,1135],[-9,52],[-62,-7],[-4,26],[62,7],[-4,26],[62,7],[4,-26],[-31,-3],[9,-52],[31,3],[8,-52],[-31,-3],[-4,26],[-31,-4]],[[648,1359],[-62,-7],[-9,52],[31,4],[-4,26],[31,3],[5,-26],[93,10],[4,-26],[-31,-3],[12,-78],[-62,-7],[-8,52]],[[321,1429],[62,7],[16,-105],[-31,-3],[-4,26],[-31,-4],[-8,53],[-31,-4],[-9,52],[32,4],[4,-26]],[[658,1493],[-31,-4],[-8,52],[31,4],[-4,26],[62,7],[17,-105],[-63,-6],[-4,26]],[[39,1610],[4,-26],[-31,-4],[-12,78],[62,7],[8,-52],[-31,-3]],[[1405,3166],[32,4],[4,-26],[-31,-4],[8,-52],[-31,-3],[12,-79],[-62,-7],[4,-26],[31,4],[17,-104],[-125,-14],[17,-104],[-31,-4],[-21,130],[93,11],[-8,52],[-31,-4],[-4,27],[31,3],[-12,78],[31,4],[-8,52],[-31,-4],[-5,26],[63,7],[-33,209],[31,3],[-4,26],[31,4],[-5,26],[32,3],[4,-26],[31,3],[8,-52],[-31,-3],[4,-26],[-31,-4],[20,-130]],[[4948,5523],[31,4],[29,-183],[-31,-3],[-25,156],[-31,-3],[-17,104],[31,3],[13,-78]],[[4914,5732],[-62,-7],[-4,26],[93,10],[4,-26],[31,4],[9,-53],[-31,-3],[-4,26],[-31,-3],[-5,26]],[[4524,6006],[31,3],[20,-130],[-31,-3],[-20,130]],[[4329,6434],[-4,27],[217,24],[4,-26],[-186,-21],[4,-26],[-31,-4],[13,-78],[-31,-3],[-17,104],[31,3]],[[3872,6330],[-4,26],[-62,-7],[-4,26],[31,4],[-12,78],[62,7],[4,-26],[31,3],[4,-26],[-31,-3],[4,-26],[31,3],[8,-52],[-62,-7]],[[3503,6474],[4,-26],[31,4],[4,-26],[-62,-7],[12,-78],[-31,-4],[4,-26],[-31,-3],[-4,26],[-62,-7],[-4,26],[-31,-4],[-8,53],[62,6],[4,-26],[62,7],[-8,52],[31,4],[-4,26],[31,3]],[[4718,6770],[4,-26],[-31,-4],[4,-26],[-93,-10],[-4,26],[62,7],[-4,26],[62,7]],[[3503,6474],[-5,26],[-31,-3],[-4,26],[31,4],[-4,26],[62,6],[-4,27],[31,3],[-8,52],[31,4],[-9,52],[-62,-7],[-4,26],[62,7],[-12,78],[31,3],[16,-104],[31,4],[5,-26],[31,3],[-5,26],[31,3],[13,-78],[31,4],[4,-26],[93,10],[-4,26],[31,4],[12,-78],[-62,-7],[4,-26],[-31,-4],[5,-26],[-31,-3],[8,-52],[-62,-7],[-4,26],[31,3],[-4,26],[-31,-3],[-13,78],[-31,-4],[-4,26],[-31,-3],[8,-52],[-93,-11],[4,-26],[-31,-3],[5,-26],[-31,-4]],[[4778,6988],[20,-130],[-31,-3],[9,-52],[-31,-4],[-13,78],[31,4],[-16,104],[31,3]],[[4414,7292],[31,3],[25,-156],[-31,-3],[-25,156]],[[4406,7344],[-17,104],[-31,-3],[-12,78],[31,3],[8,-52],[31,4],[12,-78],[31,3],[4,-26],[-31,-3],[5,-26],[-31,-4]],[[4172,7821],[8,-52],[31,4],[17,-104],[-31,-4],[-13,78],[-31,-3],[-12,78],[31,3]],[[4172,7821],[-21,131],[31,3],[-12,78],[31,4],[16,-105],[-31,-3],[17,-104],[-31,-4]],[[4362,8214],[8,-52],[-31,-4],[4,-26],[-62,-7],[-4,26],[31,4],[-4,26],[31,3],[-4,26],[31,4]],[[4362,8214],[-25,156],[31,3],[25,-156],[-31,-3]],[[5804,4904],[31,3],[29,-182],[-31,-4],[-29,183]],[[5674,5128],[31,3],[20,-130],[-31,-4],[-20,131]],[[5440,5207],[4,-26],[-62,-7],[4,-26],[-124,-14],[-4,26],[93,11],[-4,26],[93,10]],[[5845,7612],[-4,26],[31,3],[4,-26],[62,7],[17,-104],[-31,-3],[-12,78],[-93,-11],[-5,26],[31,4]],[[4903,8380],[4,-26],[-62,-7],[4,-26],[-31,-3],[-4,26],[-93,-11],[5,-26],[-93,-10],[-5,26],[62,7],[-4,26],[-31,-3],[-4,26],[62,7],[4,-27],[186,21]],[[4903,8380],[-12,78],[-31,-3],[-13,78],[31,4],[9,-53],[31,4],[4,-26],[31,3],[8,-52],[-31,-3],[4,-26],[-31,-4]],[[4746,8575],[-12,78],[-31,-4],[-17,104],[31,4],[13,-78],[31,3],[16,-104],[-31,-3]],[[4568,8899],[31,4],[5,-26],[30,3],[13,-78],[-31,-3],[-8,52],[-31,-4],[-9,52]],[[7308,1626],[25,-156],[-31,-3],[-25,156],[31,3]],[[7090,2000],[-31,-4],[-25,156],[31,4],[25,-156]],[[7029,2576],[31,4],[29,-183],[-31,-3],[-29,182]],[[7029,2576],[-31,-3],[-4,26],[-31,-4],[-4,26],[-31,-3],[-9,52],[-31,-4],[-12,78],[31,4],[-4,26],[31,3],[21,-130],[31,4],[4,-26],[31,3],[8,-52]],[[7041,2896],[-31,-4],[4,-26],[-31,-3],[-8,52],[31,3],[-8,52],[-31,-3],[-9,52],[31,3],[4,-26],[31,4],[17,-104]],[[7018,3238],[-93,-11],[-4,26],[-93,-10],[4,-26],[-31,-4],[16,-104],[31,4],[5,-26],[31,3],[8,-52],[-31,-4],[-4,26],[-31,-3],[-4,26],[-31,-3],[-25,156],[31,3],[-5,26],[31,4],[-4,26],[31,3],[4,-26],[94,11],[4,-26],[62,7],[4,-26]],[[6767,3819],[-62,-7],[-17,104],[31,4],[13,-78],[31,3],[4,-26]],[[6740,4187],[31,4],[8,-52],[-155,-18],[-4,26],[124,14],[-4,26]],[[5782,9592],[-4,26],[31,4],[-4,26],[93,10],[4,-26],[-31,-3],[4,-27],[31,4],[4,-26],[-93,-11],[-4,27],[-31,-4]],[[8124,286],[21,-130],[-31,-3],[-21,130],[31,3]],[[8124,286],[-17,105],[-31,-4],[-4,26],[31,4],[-21,130],[-31,-4],[-8,52],[31,4],[4,-26],[31,3],[46,-286],[-31,-4]],[[7513,1331],[4,-26],[63,7],[4,-26],[-93,-10],[-5,26],[-31,-4],[-4,26],[62,7]],[[7496,3212],[8,-52],[-62,-7],[-12,78],[31,4],[4,-26],[31,3]],[[7262,3292],[13,-78],[-187,-21],[-4,26],[-62,-7],[-4,26]],[[7018,3238],[93,10],[4,-26],[124,14],[-8,52],[31,4]],[[7262,3292],[-17,104],[-31,-4],[-12,79],[31,3],[8,-52],[31,3],[21,-130],[-31,-3]],[[7468,3978],[4,-26],[-186,-21],[-4,26],[186,21]],[[7141,4445],[-9,52],[31,3],[13,-78],[-31,-3],[4,-26],[-62,-7],[-4,26],[31,3],[-4,26],[31,4]],[[6712,6331],[-4,26],[31,4],[-4,26],[31,3],[13,-78],[-62,-7],[4,-26],[-31,-3],[-4,26],[-31,-4],[-5,26],[62,7]],[[8398,7237],[-5,26],[62,8],[4,-27],[31,4],[9,-52],[-31,-4],[-4,26],[-31,-3],[-4,26],[-31,-4]],[[8164,9676],[4,-26],[-62,-7],[-8,52],[93,10],[4,-26],[-31,-3]],[[9968,6302],[-4,26],[-31,-3],[-9,52],[62,7],[13,-78],[-31,-4]],[[9691,6456],[-9,52],[31,4],[4,-26],[62,7],[5,-26],[62,7],[4,-26],[-93,-11],[-4,26],[-62,-7]],[[9368,6499],[-4,26],[31,4],[-4,26],[31,3],[4,-26],[31,4],[4,-26],[-31,-4],[4,-26],[-31,-3],[-4,26],[-31,-4]],[[9025,6672],[-4,26],[31,4],[12,-78],[-31,-4],[4,-26],[-62,-7],[-8,52],[31,4],[-4,26],[31,3]],[[9155,6846],[4,-26],[-31,-3],[4,-26],[31,3],[4,-26],[-62,-7],[-12,78],[62,7]],[[9324,9913],[8,-52],[-31,-3],[4,-26],[-31,-4],[-4,26],[-31,-3],[-8,52],[93,10]],[[8484,9844],[-9,52],[-31,-3],[-4,26],[93,10],[-4,26],[31,4],[-4,26],[31,3],[4,-26],[31,4],[-4,26],[62,7],[4,-26],[31,3],[4,-26],[-62,-7],[4,-26],[-93,-10],[4,-26],[-30,-4],[4,-26],[-62,-7]]],"transform":{"scale":[0.00004227470759590233,0.00004109438908799187],"translate":[148.7676325457309,-35.584686860633624]},"objects":{"ACT-water_observed":{"type":"GeometryCollection","geometries":[{"arcs":[[[0]],[[1]],[[2]],[[3]],[[4]],[[5,6]],[[7]],[[8]],[[9]],[[10]],[[11]],[[12]],[[13]],[[14]],[[15]],[[16]],[[17]],[[18]],[[19]],[[20]],[[21]],[[22]],[[23]],[[24]],[[25]],[[26]],[[27]],[[28]],[[29]],[[30]],[[31]],[[32]],[[33]],[[34]],[[35]],[[36]],[[37]],[[38]],[[39]],[[40]],[[41]],[[42]],[[43]],[[44]],[[45]],[[46]],[[47]],[[48]],[[49]],[[50,51]],[[52]],[[53]],[[54]],[[55]],[[56]],[[57]],[[58]],[[59]],[[60]],[[61]],[[62]],[[63]],[[64]]],"type":"MultiPolygon","properties":{"layer":"water_observed"}}]}},"properties":{"layer":"water_observed","state":"ACT","source":"DEA Water Observations Statistics 1987– (Geoscience Australia)","licence":"CC-BY-4.0","asOf":"2026-09-08","simplify":"100%"}}