{"type":"Topology","arcs":[[[3792,352],[71,-131],[-23,0],[8,-26],[28,-36],[77,-85],[-83,84],[-27,39],[-20,46],[-14,-8],[-40,108],[5,14],[43,1],[-25,-6]],[[3526,566],[55,-44],[83,-5],[33,-34],[-23,-27],[55,-44],[-2,-33],[-45,60],[-66,2],[-112,69],[-20,40],[42,16]],[[3621,743],[26,-78],[-2,22],[24,-2],[-8,-18],[46,8],[-35,-12],[-6,-48],[202,-5],[-427,-47],[-39,59],[168,17],[26,39],[-15,13],[29,18],[-22,12],[33,22]],[[3297,777],[-19,-28],[36,-39],[17,-105],[32,-25],[16,29],[39,-57],[-35,17],[-70,-38],[17,-14],[-53,17],[-41,51],[29,-22],[40,12],[-25,64],[-62,9],[5,30],[-39,-17],[31,37],[21,-10],[-3,30],[29,17],[-31,-14],[-24,23],[-8,50],[82,16],[16,-33]],[[3175,1449],[-20,-56],[25,-70],[-51,-54],[23,-34],[31,-17],[20,-5],[3,-3],[-35,-34],[22,2],[5,-35],[-54,11],[-59,-67],[85,-30],[-20,-54],[69,-109],[-4,-82],[-23,-11],[-50,56],[-43,7],[2,43],[-78,108],[-49,-10],[-41,26],[9,31],[-66,-10],[-20,26],[52,85],[92,-2],[-3,55],[31,3],[-6,79],[45,-5],[35,56],[5,82],[-15,-11],[-17,19],[-1,41],[19,4],[32,-41],[29,7],[41,27],[76,28],[49,52],[109,56],[-149,-109],[-91,-38],[1,-1],[-7,-10],[-8,-6]],[[2989,1633],[107,-125],[-30,-21],[-77,146]],[[3553,1708],[136,57],[67,14],[-323,-157],[117,76],[-11,31],[5,-7],[16,6],[-7,-20]],[[2845,1755],[65,-38],[82,-73],[-34,-4],[-114,93],[-62,143],[58,-74],[5,-47]],[[2450,3747],[47,-68],[3,-67],[-44,67],[-50,-61],[29,119],[15,10]],[[2384,3973],[72,-16],[-54,-32],[82,-71],[-36,2],[-22,-38],[-8,-82],[-11,60],[25,82],[-39,46],[-9,49]],[[3247,5023],[-34,-184],[41,6],[51,-50],[18,-101],[54,-33],[10,-76],[-3,-28],[23,-14],[-5,-1],[11,-29],[8,9],[10,-40],[-19,2],[-23,53],[-26,19],[0,44],[-2,2],[-1,-11],[-4,0],[-10,15],[-2,19],[5,2],[-3,3],[-14,4],[-13,-13],[-8,8],[-10,90],[-18,-13],[-73,87],[-63,-98],[-93,-70],[17,-16],[-51,-1],[-123,-73],[-3,-50],[-26,-12],[-39,90],[42,30],[-43,32],[109,-6],[78,44],[-19,20],[71,12],[-31,29],[59,-5],[52,138],[-31,65],[26,-9],[-11,96],[51,42],[65,-28]],[[1596,5369],[-78,26],[3,42],[-85,117],[-15,71],[53,109],[-5,43],[-82,11],[-205,-71],[-94,26],[-41,75],[30,130],[-9,79],[-167,14],[5,-20],[-47,29],[3,36],[189,-8],[58,-40],[22,-130],[-33,-111],[35,-22],[86,-9],[177,68],[80,-10],[40,-37],[24,17],[-58,-197],[14,-56],[103,-132],[77,17],[-9,92],[36,49],[80,40],[63,2],[79,-35],[68,-74],[30,13],[31,-7],[-50,-19],[41,-186],[278,-221],[186,-66],[-42,-94],[-273,-61],[-280,-93],[-43,-44],[19,-29],[51,1],[186,50],[128,-43],[50,-71],[-75,-115],[9,-101],[64,-35],[270,47],[183,126],[66,-4],[10,-46],[-36,-23],[10,-20],[-40,20],[-66,-23],[14,-52],[-38,29],[-69,-39],[-96,-13],[-99,-77],[-32,-64],[31,-93],[-25,-34],[4,-70],[-64,44],[-90,-17],[60,55],[95,10],[-23,120],[44,82],[-175,-29],[-48,14],[-26,166],[64,119],[-7,68],[-92,47],[-178,-96],[-43,-8],[18,23],[-65,0],[-73,30],[42,34],[-5,55],[35,24],[338,125],[224,48],[23,32],[-169,66],[-237,174],[-74,105],[-27,157],[-85,64],[-83,-4],[-40,-58],[-5,-87],[-162,-76],[34,29]],[[2493,8090],[-23,-45],[16,-30],[-39,5],[-103,-54],[-190,43],[-31,36],[47,33],[42,-21],[-2,-47],[104,-18],[66,31],[88,95],[79,21],[39,-45],[-93,-4]],[[1923,8164],[135,-56],[52,1],[16,-26],[-20,-25],[-89,21],[-94,85]],[[1860,8283],[31,-98],[94,-98],[-120,104],[-34,102],[29,-10]],[[1776,8313],[21,11],[29,-43],[-30,9],[-37,-20],[-9,-50],[-111,16],[-193,-69],[70,-44],[-15,-49],[-155,31],[-73,-32],[56,57],[141,-37],[-51,89],[305,102],[27,32],[-19,51],[44,-54]],[[946,8297],[18,-46],[205,-117],[-13,-14],[-105,10],[-11,32],[-102,33],[-51,105],[59,-3]],[[697,8987],[-5,-24],[17,-18],[0,-34],[41,-59],[-44,-118],[83,-66],[144,-212],[22,-96],[-22,-48],[-28,3],[1,110],[-64,97],[-62,35],[-119,144],[-303,-59],[-3,-114],[-113,-54],[1,-53],[-35,4],[24,-20],[-27,13],[3,10],[13,4],[-22,33],[-58,11],[-141,135],[83,45],[56,-94],[93,-41],[71,18],[31,30],[-17,90],[111,19],[82,40],[20,-21],[73,18],[68,39],[-6,83],[11,24],[-6,14],[5,10],[0,-12],[15,-3],[-13,109],[20,8]],[[4429,487],[192,-109],[154,-54],[70,-121],[-80,111],[-72,26],[25,-43],[43,-2],[-34,-6],[-29,20],[-13,32],[-84,31],[-172,115]],[[4393,609],[-55,-9],[85,-111],[-13,-46],[-6,45],[-49,49],[-5,34],[-24,16],[-198,-14],[262,52],[3,-16]],[[3965,682],[122,-66],[-93,42],[-64,-7],[-53,-36],[-21,31],[109,36]],[[4805,799],[31,2],[-148,-57],[38,2],[9,-15],[-122,-3],[-122,-74],[79,71],[266,97],[-31,-23]],[[4086,763],[43,-14],[-189,-12],[-56,-75],[-32,-4],[9,48],[52,47],[45,16],[13,-5],[32,6],[83,-7]],[[3725,1074],[162,67],[121,35],[7,28],[0,-27],[30,-2],[-167,-49],[-102,-82],[-37,14],[-7,9],[-5,4],[-2,3]],[[4016,1901],[-115,-76],[-81,-35],[-46,-8],[226,109],[37,68],[-21,-58]],[[4161,2511],[-43,25],[-15,6],[-29,39],[10,0],[-2,24],[-41,-1],[1,-69],[-13,-42],[3,203],[18,8],[-17,0],[4,3],[23,0],[-4,-8],[14,1],[-5,-54],[36,-11],[-5,-30],[18,0],[-6,-9],[0,-8],[18,-9],[39,-37],[18,-35],[-22,4]],[[4063,3541],[160,-92],[-36,3],[22,-15],[-11,-9],[46,0],[20,-74],[20,-153],[-42,207],[-30,14],[-24,-4],[15,16],[-23,4],[-18,26],[26,-11],[3,8],[-128,80]],[[3752,4084],[-41,-246],[29,-77],[-37,72],[0,82],[49,169]],[[3622,4459],[-13,-20],[112,-18],[76,-41],[58,-60],[-33,-153],[-63,-67],[54,67],[35,151],[-137,96],[-118,8],[8,40],[21,-3]],[[2961,7854],[151,-14],[-40,-31],[52,-66],[-38,-21],[24,-27],[-51,-66],[70,-42],[45,-106],[81,50],[10,53],[73,12],[12,23],[76,-45],[-8,-25],[9,5],[11,1],[-13,-34],[-101,-14],[-62,-46],[-8,-70],[23,-3],[15,-13],[-39,-133],[-46,12],[-16,65],[-54,42],[-66,18],[-87,-14],[-10,26],[31,20],[-64,9],[9,82],[-25,13],[33,38],[-8,36],[-35,17],[-75,-19],[-14,49],[57,13],[23,33],[-67,90],[64,4],[-36,67],[84,-26],[10,37]],[[2808,8042],[190,-36],[65,-50],[49,-82],[-130,0],[5,98],[-203,44],[24,26]],[[2628,8100],[129,-53],[23,-26],[-205,54],[53,25]],[[4908,151],[165,-12],[92,-35],[43,-33],[16,-34],[-46,50],[-74,34],[-138,13],[25,-28],[27,-106],[-40,117],[-70,34]],[[4818,5530],[12,-18],[17,-83],[82,-53],[-1,-1],[9,-7],[8,-12],[11,-30],[32,-37],[102,-56],[42,10],[40,58],[-117,62],[5,109],[35,27],[119,28],[105,-47],[33,-144],[-16,-92],[-75,-15],[-43,-74],[-46,-6],[-56,-45],[-35,16],[-19,-18],[66,-40],[13,-24],[4,-13],[-4,-2],[-56,17],[-41,-33],[-7,32],[-40,15],[4,41],[-86,-26],[-48,49],[-32,3],[-47,-28],[-10,28],[-188,61],[-67,-100],[-52,-15],[-88,15],[-13,-94],[-32,0],[-35,31],[-1,72],[-42,2],[-38,-31],[-81,25],[26,42],[-65,136],[-59,24],[3,19],[61,14],[40,66],[21,87],[-71,19],[-74,-64],[1,-25],[-50,3],[-31,-38],[-35,7],[-37,-24],[-44,-81],[8,-29],[-36,-5],[0,-104],[75,-11],[16,-14],[-84,-15],[-65,13],[-61,-20],[-58,-36],[-7,-1],[25,-109],[-27,-16],[-83,23],[27,56],[-74,-8],[-119,44],[-16,69],[-76,-77],[-97,38],[0,32],[48,6],[-8,39],[93,11],[129,107],[44,1],[-30,-51],[38,-83],[71,-17],[69,23],[63,84],[8,110],[57,50],[-45,27],[79,84],[77,-13],[-47,59],[12,24],[30,9],[71,-35],[198,28],[137,-6],[25,-51],[-33,-111],[24,-45],[-56,-18],[52,-72],[77,-22],[37,105],[-33,104],[61,128],[75,33],[183,-3],[23,22],[-14,22],[12,0],[51,52],[93,28],[60,59],[94,-9],[55,79],[186,89],[-40,-45],[-47,-3],[-107,-55],[-44,-72],[-94,-10],[-152,-87],[-53,-81],[72,-36],[30,-19],[12,-11]],[[4774,5364],[21,32],[-97,29],[-33,-11],[27,-44],[82,-6]],[[5252,6135],[51,-127],[-8,-28],[-44,-26],[41,62],[-44,32],[-17,86],[21,1]],[[5396,6604],[26,-17],[-26,-22],[9,-84],[-18,-3],[-4,6],[-29,-42],[-55,-29],[-21,-71],[-41,-46],[14,-19],[-2,-20],[41,-52],[3,-46],[-43,-18],[-16,24],[24,-4],[25,38],[-54,78],[1,44],[44,36],[-35,-10],[15,24],[-18,-1],[-24,25],[0,56],[6,-61],[54,-15],[19,47],[54,30],[3,5],[-34,33],[18,2],[-36,10],[6,36],[35,12],[13,8],[5,50],[41,-4]],[[3704,7954],[-34,-124],[-25,-7],[-6,-38],[-7,-9],[-23,-13],[22,-55],[-100,10],[-93,-133],[-55,39],[1,48],[68,52],[27,97],[88,7],[-27,115],[27,46],[131,76],[44,-35],[-50,-42],[15,-21],[-3,-13]],[[3984,8167],[44,-59],[109,-50],[68,-74],[-185,108],[-78,71],[42,4]],[[3878,8168],[58,5],[-92,-80],[-76,-24],[3,-30],[-67,30],[97,99],[1,49],[76,-49]],[[3671,8203],[-54,-8],[14,-16],[-7,-19],[-20,-30],[53,-42],[96,81],[-54,37],[60,-38],[-52,-66],[-98,-53],[-44,57],[61,64],[-19,52],[36,-11],[39,21],[-11,-29]],[[3681,8200],[11,55],[6,3],[23,-4],[-44,37],[44,-7],[-86,57],[38,41],[-10,19],[3,22],[58,43],[7,-3],[-9,-14],[15,10],[5,-5],[2,-44],[37,8],[27,61],[-36,29],[45,60],[17,-5],[46,53],[17,-10],[51,16],[49,44],[34,-21],[-160,-117],[-3,-117],[-85,-137],[9,-70],[-35,-12],[-48,19],[-28,-11]],[[4270,8724],[138,77],[51,82],[54,36],[7,-13],[-45,-70],[-185,-131],[-24,-52],[-111,-19],[-82,14],[175,25],[22,51]],[[4691,9263],[93,-30],[43,24],[-35,-40],[22,-23],[-40,-14],[-4,-11],[1,-3],[56,12],[59,-15],[-29,34],[35,3],[0,24],[11,-30],[17,-5],[23,13],[-37,17],[55,-21],[-10,28],[37,-18],[-36,-43],[-46,5],[5,-18],[-96,-37],[-21,10],[-26,-48],[-44,-8],[-36,-124],[40,-26],[-131,2],[-3,-44],[-72,64],[-5,97],[106,88],[95,42],[1,39],[33,-7],[8,14],[-69,49]],[[4573,9434],[35,-21],[115,-132],[-37,-6],[-45,87],[-101,80],[6,4],[27,-12]],[[5658,5143],[-148,83],[-157,16],[17,93],[58,39],[120,-18],[73,34],[5,20],[-48,16],[14,31],[140,-32],[-92,-19],[-3,-16],[129,-23],[200,-127],[36,-62],[-24,-84],[15,-46],[-49,-54],[-87,-31],[-71,109],[-104,57],[-2,2],[-22,12]],[[5590,6723],[-49,-70],[1,-4],[13,-1],[10,-7],[-24,4],[-15,-18],[-36,19],[-67,-46],[-10,17],[77,82],[100,24]],[[5503,6925],[-43,-106],[-78,-74],[52,-94],[-22,-25],[-14,9],[-32,101],[81,81],[10,71],[46,37]],[[5676,7177],[-99,-33],[-26,-63],[-83,1],[-6,-48],[32,-77],[50,45],[-3,-34],[-22,-29],[-80,13],[24,55],[-12,103],[70,-1],[-14,-18],[24,13],[1,-14],[49,79],[74,5],[27,35],[-6,-32]],[[5230,9322],[56,80],[5,-19],[-49,-78],[-109,-21],[-46,-67],[-46,-1],[-1,-16],[-98,50],[25,30],[10,-33],[42,11],[35,-16],[24,-3],[-26,13],[44,31],[47,24],[87,15]],[[5055,9636],[-89,-82],[12,-75],[-33,-77],[21,-19],[-36,-13],[4,33],[-106,-138],[86,155],[30,17],[-6,111],[35,75],[82,13]],[[5127,9904],[15,-25],[-25,-27],[-28,-14],[-113,-12],[8,-68],[87,-44],[14,-46],[-23,-26],[-45,90],[-48,22],[0,72],[124,30],[24,81],[56,62],[-46,-95]],[[7092,1982],[-54,19],[2,27],[51,-2],[-41,79],[63,-92],[-21,-31]],[[6542,4007],[129,-63],[36,-214],[25,-24],[-38,-14],[-64,-1],[-16,24],[-22,-25],[-22,10],[16,7],[39,100],[30,27],[-25,15],[3,64],[-91,94]],[[6673,4937],[28,-18],[5,-11],[136,-26],[145,7],[51,28],[44,-42],[-71,-75],[57,4],[-16,-24],[-21,11],[-9,0],[6,-2],[2,-2],[0,-4],[3,0],[-1,-11],[-15,-9],[27,-2],[-12,-59],[-42,-87],[-7,4],[-12,3],[32,-30],[-4,-79],[-31,4],[26,38],[-193,-1],[-21,-25],[-29,17],[19,11],[-78,12],[13,-3],[-4,-6],[13,-7],[-14,-1],[-99,49],[-87,-17],[61,-73],[104,-7],[-38,35],[51,-22],[45,10],[39,-29],[-55,-130],[59,-18],[22,-55],[-49,9],[-28,-74],[-4,18],[-58,-11],[17,-21],[-24,16],[22,119],[-2,51],[-9,7],[-18,-214],[126,-83],[-20,-37],[-14,0],[-8,4],[-6,1],[16,-8],[0,-10],[-95,-25],[17,-67],[-49,20],[14,137],[-26,19],[22,43],[-117,81],[117,-63],[-36,190],[22,89],[-91,-1],[-68,71],[-170,12],[-1,13],[-11,4],[-31,-12],[-22,50],[-55,-92],[-57,92],[25,-17],[60,19],[-4,33],[-29,18],[-71,-8],[-4,-8],[-64,18],[-145,75],[20,138],[-30,61],[88,31],[185,8],[132,-122],[81,-8],[0,30],[209,79],[70,-6],[25,-23],[19,-4]],[[6331,4700],[-5,6],[-3,23],[19,16],[13,-3],[6,5],[-19,4],[5,36],[10,0],[-4,5],[17,13],[-3,6],[22,27],[32,22],[-34,7],[-115,-171],[-17,-17],[-29,-21],[94,-55],[14,39],[-10,3],[-14,27],[11,-16],[14,4],[-11,4],[21,12],[-9,2],[9,4],[-12,13],[-2,5]],[[6621,4674],[-34,9],[-42,-4],[40,-4],[-43,-12],[-56,-36],[92,2],[10,48],[33,-3]],[[6433,4871],[17,5],[31,0],[7,6],[71,-14],[-30,12],[30,5],[6,8],[52,-1],[-115,17],[-57,-10],[-59,-25],[53,18],[-17,-31],[7,-2],[4,12]],[[6202,6850],[71,13],[-9,-18],[47,4],[94,-6],[49,-13],[178,-100],[12,-18],[-3,-18],[-23,-23],[-2,0],[24,31],[-9,23],[-220,115],[-184,-1],[-21,-66],[-29,6],[-9,42],[41,16],[-75,-10],[-199,-5],[-67,-30],[31,-16],[-10,-22],[-23,33],[8,17],[13,11],[52,10],[184,7],[8,4],[26,-1],[55,7],[11,-1],[10,1],[-42,3],[1,1],[0,0],[11,0],[-1,4]],[[6017,7827],[-17,-170],[-41,16],[51,147],[-61,81],[68,-74]],[[5419,9388],[-50,7],[-93,99],[115,4],[46,78],[81,-13],[50,41],[120,5],[26,-35],[-150,-73],[-74,-3],[35,-46],[-28,-23],[-67,-6],[-11,-35]],[[5796,9685],[55,-119],[-127,11],[-28,41],[99,31],[1,36]],[[7427,2118],[-52,-74],[9,-57],[-45,0],[4,-28],[-48,-22],[3,38],[-48,-13],[41,18],[-62,50],[198,88]],[[6751,3715],[145,-21],[61,-50],[14,-47],[-74,-9],[-3,39],[-51,38],[-86,0],[-6,50]],[[6116,7853],[61,18],[32,-5],[-129,-48],[9,-24],[-28,-17],[18,-36],[-29,-30],[34,0],[-54,-17],[19,24],[-15,44],[25,29],[25,7],[-29,28],[11,43],[50,-16]],[[7012,3552],[22,-99],[72,-39],[-33,-31],[40,-49],[-28,-29],[35,-19],[-26,-37],[29,-76],[59,24],[115,-97],[51,3],[7,-173],[-91,-156],[45,-28],[11,-152],[212,38],[230,-40],[88,-33],[-315,59],[-96,-13],[-86,-55],[45,-63],[-77,-106],[-14,-133],[50,-15],[37,-109],[-157,-79],[-65,2],[-45,-47],[-10,27],[31,37],[55,10],[12,14],[-49,5],[-26,22],[-32,-18],[-10,3],[-16,-6],[-3,-18],[-14,32],[40,9],[12,19],[40,-9],[17,-29],[61,21],[16,95],[-24,82],[-58,33],[32,5],[-17,46],[29,47],[77,33],[-22,139],[-41,-10],[37,60],[-35,106],[-24,27],[-34,-1],[-12,-20],[-3,5],[100,139],[-1,82],[-40,25],[31,-80],[-39,-14],[-106,91],[-121,11],[93,20],[-33,106],[-50,30],[-42,-30],[-7,-30],[-24,-27],[-60,-8],[79,30],[24,85],[-58,44],[-46,-7],[-28,-29],[-14,0],[48,42],[52,20],[4,25],[-61,86],[-21,-24],[-30,6],[-1,38],[35,28],[-31,41],[9,2],[6,9],[-6,34],[58,50],[92,11],[44,-20]],[[7170,4963],[-47,-41],[-7,-7],[-33,-5],[13,-13],[-53,27],[51,30],[76,9]],[[7397,5072],[-7,-94],[-25,-18],[60,-16],[-84,12],[45,124],[10,-2],[1,-6]],[[6320,7966],[15,13],[-10,12],[2,2],[9,-11],[23,-2],[9,30],[50,25],[48,5],[-12,36],[33,42],[26,5],[34,-7],[147,59],[71,8],[-158,-57],[-61,-16],[-52,3],[-34,-32],[8,-42],[-51,-8],[-48,-59],[-24,-1],[-15,-14],[-24,-6],[-11,-19],[-21,-4],[-32,-23],[-22,-5],[53,40],[14,-7],[-2,15],[15,0],[-7,4],[8,11],[19,3]],[[6626,8252],[73,19],[-3,42],[38,76],[17,6],[-14,-29],[35,46],[90,34],[-144,-95],[-19,-87],[-72,-28],[2,-18],[-74,-25],[-28,-5],[-11,4],[-14,-26],[-30,5],[-26,-56],[-46,-23],[-14,9],[-3,-9],[11,-6],[-1,-19],[-18,-12],[-33,-12],[39,19],[1,39],[58,13],[28,58],[31,-4],[15,25],[110,27],[2,32]],[[7397,5124],[57,14],[-1,20],[10,-23],[75,-12],[17,53],[21,-28],[27,7],[-10,47],[-79,70],[60,-19],[3,42],[-15,-13],[-6,27],[-42,31],[13,17],[30,-4],[4,-6],[-17,-14],[18,-14],[57,43],[-74,37],[82,199],[113,488],[178,7],[32,36],[3,53],[30,12],[-13,89],[43,29],[37,-6],[-39,55],[-95,15],[-28,25],[-10,60],[-52,19],[1,52],[12,7],[-37,4],[22,17],[-22,59],[8,44],[-54,108],[59,73],[-15,32],[15,42],[11,-65],[52,80],[-3,36],[36,95],[1,-29],[68,96],[52,17],[-7,36],[8,14],[-11,-7],[22,36],[-12,17],[-6,-1],[-1,14],[-11,9],[3,23],[48,-49],[-16,-24],[30,-35],[-32,-41],[37,21],[43,73],[30,19],[-9,4],[6,19],[19,26],[26,88],[-22,34],[5,16],[-46,33],[13,29],[-43,42],[31,45],[-38,35],[20,52],[-20,19],[-21,1],[30,15],[-24,68],[40,-93],[-7,-75],[36,-6],[-26,-49],[34,-50],[-13,-34],[37,-26],[19,-50],[0,-63],[-40,-62],[18,-5],[-17,-4],[1,-13],[-37,-20],[-43,-87],[-87,-8],[-6,-30],[17,19],[0,-4],[-29,-65],[-24,-2],[-21,-18],[-20,-36],[-30,-20],[27,-39],[49,71],[57,22],[-10,25],[20,38],[80,20],[-88,-52],[1,-37],[-57,-21],[-19,-54],[-52,-31],[1,-61],[-28,-11],[-27,-70],[51,-70],[27,-57],[-14,-13],[11,-28],[3,19],[8,0],[-8,-46],[27,-24],[27,-101],[66,-32],[32,-49],[51,92],[11,-7],[-67,-116],[20,-13],[24,17],[20,86],[5,-22],[3,22],[15,0],[-19,-32],[27,16],[15,-13],[-42,-26],[25,-16],[-69,-35],[7,-35],[-12,10],[-16,-9],[-15,26],[2,-36],[-55,-6],[11,-86],[51,17],[12,36],[-5,-37],[-65,-21],[-29,-34],[82,-7],[-59,-11],[12,-10],[-16,-37],[14,5],[8,11],[31,-7],[-60,-18],[-42,-44],[-99,-17],[55,-8],[71,32],[68,3],[-17,-55],[-11,-2],[0,16],[-8,-18],[17,-3],[-4,-5],[-8,-50],[-7,51],[-50,-25],[53,-46],[-67,3],[0,-25],[-33,-20],[-41,10],[-17,-16],[40,6],[33,-5],[-51,0],[-7,-17],[-66,20],[-28,-67],[-36,1],[25,-17],[-25,-27],[-7,48],[-16,-1],[7,-82],[-44,-40],[16,-4],[19,-46],[-32,-13],[-13,-54],[69,-3],[73,-60],[88,101],[60,1],[-15,-48],[-133,-71],[-20,-61],[19,-97],[-63,-38],[53,-27],[-41,3],[-3,-15],[-48,20],[-61,-57],[-4,-34],[-33,13],[38,-39],[-20,-45],[29,3],[-26,-20],[-78,17],[-50,-13],[54,-11],[-19,-7],[-16,-2],[-23,3],[-23,26],[-83,-14],[-1,10],[12,25]],[[7623,5257],[125,46],[13,86],[-19,7],[-54,-76],[-67,0],[2,-63]],[[7718,5375],[2,123],[-31,13],[-23,-72],[-59,-11],[111,-53]],[[8041,6361],[-82,66],[-63,98],[-17,64],[25,-10],[1,47],[-31,14],[-17,72],[-55,44],[11,75],[-23,-44],[56,-247],[-9,-54],[43,-22],[41,-84],[60,-1],[33,-13],[22,-21],[5,16]],[[7566,4291],[-222,23],[-50,35],[-7,24],[-25,12],[-78,2],[-145,42],[-2,90],[-3,13],[-3,-4],[-3,2],[-8,33],[18,107],[35,62],[42,-18],[13,46],[5,-49],[13,-5],[5,125],[20,29],[19,-3],[29,99],[72,-33],[70,16],[-53,-39],[28,-60],[-34,-62],[14,-16],[51,9],[-38,-20],[19,-76],[-43,11],[1,-23],[62,-10],[23,-18],[-12,-29],[-16,1],[18,-10],[1,-46],[11,-11],[-1,-2],[3,-3],[-1,-2],[5,-9],[2,-8],[0,20],[146,-78],[-32,-29],[-28,11],[23,-10],[-15,-24],[-23,3],[3,-3],[1,1],[3,-1],[4,-1],[1,0],[2,-1],[-12,1],[-2,-4],[2,2],[3,-1],[16,-4],[-2,-6],[-7,-5],[-4,-2],[-110,26],[245,-83],[161,-4],[26,-20],[-18,-24],[21,-43],[51,-34],[3,-54],[56,-77],[-2,-29],[-19,5],[69,-83],[11,-84],[-6,-102],[-82,-97],[12,-81],[314,-35],[19,32],[59,54],[112,38],[66,49],[178,5],[16,30],[34,-8],[112,46],[130,99],[167,-47],[70,-85],[31,-1],[20,39],[-9,-51],[-50,-13],[-4,-47],[-41,-26],[1,-17],[60,-1],[18,-24],[162,84],[60,-14],[36,31],[29,12],[77,-41],[86,2],[44,48],[41,-4],[171,58],[62,69],[30,-15],[-97,-103],[-58,-1],[-23,-38],[-54,-3],[-47,-41],[-87,-26],[-101,14],[-1,-67],[-37,-9],[-13,59],[-85,15],[-176,-100],[-132,-10],[-38,86],[39,148],[-108,49],[-78,-18],[-50,-43],[9,-29],[-73,-12],[-89,-74],[-21,-2],[-80,25],[-144,-36],[-72,-31],[27,-59],[-91,22],[-43,-50],[-61,-25],[-140,-2],[-240,61],[-29,32],[1,113],[-108,13],[16,34],[133,19],[50,148],[-67,124],[-62,-10],[-37,36],[-2,60],[-63,28],[-101,126]],[[7328,4600],[-48,23],[-30,30],[-9,2],[-19,24],[-24,9],[-9,-46],[24,-9],[51,-76],[8,-60],[-25,-37],[12,-37],[89,128],[-20,49]],[[7917,8197],[70,-35],[36,-86],[-9,52],[1,-3],[42,-93],[-9,-13],[11,-4],[8,-7],[30,-95],[-13,-38],[8,44],[-48,102],[-10,53],[-14,-3],[-67,42],[26,36],[-33,9],[-27,27],[-10,4],[9,-8],[-61,2],[-17,7],[77,7]]],"transform":{"scale":[0.00002552975387305766,0.000027544156864527013],"translate":[148.99024898502023,-35.43872298223097]},"objects":{"ACT-flood_planning":{"type":"GeometryCollection","geometries":[{"arcs":[[[0]],[[1]],[[2]],[[3]],[[4]],[[5]],[[6]],[[7]],[[8]],[[9]],[[10]],[[11]],[[12]],[[13]],[[14]],[[15]],[[16]],[[17]],[[18]],[[19]],[[20]],[[21]],[[22]],[[23]],[[24]],[[25]],[[26]],[[27]],[[28]],[[29]],[[30]],[[31]],[[32]],[[33],[34]],[[35]],[[36]],[[37]],[[38]],[[39]],[[40]],[[41]],[[42]],[[43]],[[44]],[[45]],[[46]],[[47]],[[48]],[[49]],[[50]],[[51]],[[52]],[[53]],[[54],[55],[56],[57]],[[58]],[[59]],[[60]],[[61]],[[62]],[[63]],[[64]],[[65]],[[66]],[[67]],[[68]],[[69]],[[70],[71],[72],[73]],[[74],[75]],[[76]]],"type":"MultiPolygon","properties":{"layer":"flood_planning"}}]}},"properties":{"layer":"flood_planning","state":"ACT","source":"ACT Flood Extent Model, 1% AEP (ACT Government) — a modelled extent","licence":"CC-BY-4.0","asOf":"2026-09-23","simplify":"100%"}}