{"type":"Topology","arcs":[[[6223,7],[1,0],[0,2],[1,1],[0,-1],[1,-3],[1,-1],[1,2],[4,2],[0,-2],[1,-1],[1,-4],[0,-1],[2,3],[1,0],[1,0],[2,-1],[1,2],[2,2],[1,-1],[1,-3],[2,0],[0,-1],[-1,-1],[0,1],[-1,0],[-3,3],[-2,-2],[-1,0],[-1,1],[0,0],[-1,-1],[-1,1],[-1,-4],[-1,2],[-1,3],[-1,1],[0,2],[-1,-1],[-3,0],[-1,-2],[-1,1],[0,0],[-1,4],[-1,-2],[-1,-1],[-1,1],[0,1],[-4,0],[0,1],[-1,1],[-1,-1],[-2,0],[3,1],[1,-2],[4,0],[1,-2]],[[7781,1207],[2,1],[-1,3],[0,1],[0,0],[1,1],[0,3],[-1,1],[-3,-1],[0,2],[1,-1],[3,2],[1,-2],[1,3],[0,-3],[-1,0],[0,-4],[0,-1],[3,-1],[1,2],[-1,3],[1,5],[2,0],[1,3],[1,1],[1,0],[0,3],[-5,1],[-1,-2],[-2,2],[0,-1],[0,0],[0,-1],[-1,1],[-1,-1],[-3,2],[-1,-3],[-2,1],[-1,-1],[-1,2],[-1,-4],[-2,-2],[-1,0],[1,2],[1,0],[-1,1],[0,-1],[-2,0],[-1,-1],[-1,2],[-1,1],[-1,-1],[1,-2],[-2,-2],[0,-2],[0,-1],[-1,0],[0,-1],[-1,-2],[1,-1],[-1,-2],[0,-1],[-1,-1],[-1,0],[-3,-2],[-2,1],[-1,2],[0,-2],[-1,1],[-1,-2],[-2,-1],[0,2],[2,-1],[0,2],[2,1],[1,0],[2,-1],[0,0],[1,0],[3,1],[1,4],[0,1],[1,0],[0,2],[1,1],[0,2],[-1,1],[-2,0],[-1,-2],[0,1],[-1,-1],[-1,-1],[-1,-2],[-2,0],[-1,-2],[0,1],[3,2],[1,1],[-4,-3],[-2,1],[0,1],[3,-1],[3,3],[-1,1],[1,0],[1,0],[1,1],[0,-1],[0,2],[1,-1],[1,1],[2,-1],[1,2],[-1,0],[-1,1],[1,0],[0,0],[-1,1],[1,0],[1,1],[1,-1],[0,1],[0,0],[1,0],[1,-2],[3,0],[0,1],[1,-1],[1,4],[2,0],[0,1],[-2,0],[0,2],[1,0],[0,-2],[1,1],[-2,2],[-1,3],[0,-1],[-3,-1],[2,1],[0,1],[-2,2],[-1,0],[0,-1],[-2,-2],[1,3],[0,1],[1,-1],[-1,1],[0,0],[-2,2],[-1,0],[0,1],[0,0],[-1,-2],[-1,0],[-1,1],[2,3],[0,-1],[3,-1],[0,-2],[2,1],[0,-2],[1,1],[0,-1],[0,1],[0,-1],[2,1],[0,-2],[0,-1],[1,1],[2,-3],[0,-1],[2,-1],[0,2],[-1,-1],[0,1],[-2,3],[0,6],[-2,-2],[2,-2],[0,-1],[-2,3],[0,2],[-2,2],[-1,-1],[-2,0],[0,1],[-2,-1],[-1,2],[0,2],[2,-2],[1,1],[1,-2],[1,1],[1,0],[0,-1],[2,0],[-1,2],[-1,0],[-2,3],[0,2],[2,-2],[0,1],[0,-2],[2,-1],[0,-4],[2,1],[1,-1],[-1,-1],[1,-2],[1,-2],[1,1],[1,-1],[1,-3],[-1,-1],[1,-2],[1,2],[1,0],[0,-2],[-1,-1],[0,-2],[3,-2],[1,1],[3,0],[-1,1],[3,2],[3,0],[4,4],[0,1],[-2,-2],[-1,1],[-1,0],[-4,5],[-3,-2],[-1,2],[-3,0],[2,2],[2,-2],[2,2],[0,0],[1,0],[0,-1],[1,1],[1,7],[-3,4],[2,1],[-1,1],[0,0],[0,1],[2,-1],[0,-1],[0,1],[0,2],[1,0],[-1,-3],[1,1],[1,-3],[1,1],[-1,2],[0,2],[1,0],[1,-2],[-1,0],[0,-1],[1,-1],[1,1],[0,1],[-2,2],[3,-1],[0,-1],[0,-2],[1,0],[1,-4],[3,0],[0,-2],[0,0],[1,2],[2,1],[1,-1],[0,-3],[4,1],[0,-1],[1,2],[5,2],[0,0],[-2,-1],[-5,-7],[-4,-4],[-11,-19],[0,1],[-2,-2],[0,-3],[-1,1],[0,-2],[-2,-4],[1,-2],[0,-1],[-1,-4],[0,0],[1,-1],[-2,0],[0,-2],[0,-1],[0,0],[-1,-2],[0,1],[-2,0],[0,-4],[0,0],[-1,2],[1,1],[-1,1],[-1,0],[-1,2],[1,0],[0,0],[1,-1],[1,2],[1,-1],[0,2],[1,-1],[1,1],[-1,-1],[-1,1],[0,-1],[-1,0],[-1,-1],[-1,0],[-1,0],[1,-2],[1,0],[0,-2],[1,-2],[-1,-2],[0,-2],[-1,-1],[0,1],[-1,0],[0,-2],[-3,-2],[0,-2],[-1,1],[0,-1],[-2,0],[-1,-2],[0,1],[0,1],[-1,-2],[0,2],[-3,0],[0,0],[-2,-2],[-1,-4],[-1,-2],[-1,-1],[0,1],[-2,-1],[0,1],[1,0],[0,1],[-1,1],[0,-1],[-1,1],[-1,-2],[-2,2],[0,-1],[-2,1],[-2,0],[0,2],[1,0],[2,-2],[0,2],[2,-1],[0,2],[2,0],[-2,2],[-1,-1],[-1,-2],[-1,1],[0,0],[-2,4],[0,1],[2,-3],[1,0],[1,2],[0,0],[1,-2],[1,0],[1,-3],[1,1],[1,-2],[1,1],[0,1],[1,-2],[1,2],[-1,2],[0,-1],[-2,2],[3,0],[0,-1],[1,-2],[0,1],[1,1],[-1,0],[0,0],[2,2],[2,0],[1,-1],[1,2],[-1,-1],[-1,2],[0,-1],[0,1],[-2,1],[-1,2],[4,0],[2,-2],[2,2],[1,1],[0,1],[0,0],[0,1],[0,0],[0,1],[0,1],[0,-1],[1,0],[0,-1],[1,6],[-1,1],[-1,2],[-1,0],[3,-4],[-2,-4],[-3,0],[0,3],[0,2],[-7,-3],[-1,-2],[-2,-1],[-2,-7],[1,4],[0,1],[-1,0],[-1,-3],[-1,0],[2,4],[-1,2],[-4,-2],[-4,2],[-3,-3],[0,2],[1,1],[3,1],[1,-1],[1,1],[0,3],[7,-2],[-8,2],[1,2],[4,0],[0,0],[2,1],[1,0],[0,-4],[1,5],[2,0],[-2,0],[4,-1],[0,2],[5,1],[3,-2],[2,4],[2,-1]],[[7766,1182],[-2,-1],[-2,1],[0,-2],[1,0],[1,0],[0,-1],[0,-1],[1,1],[0,-2],[1,1],[0,2],[0,1],[0,1]],[[7794,1239],[1,3],[2,-3],[1,1],[-2,2],[1,2],[-4,4],[0,3],[-1,0],[-1,1],[0,1],[-1,1],[0,1],[1,-5],[-1,-5],[1,0],[-1,-2],[1,-3],[3,-1]],[[7416,1129],[3,-1],[0,-2],[2,1],[0,-2],[0,-1],[2,-5],[5,-2],[1,-1],[-1,-4],[1,3],[1,-7],[2,-5],[-1,-2],[0,-5],[1,-2],[1,-2],[-1,2],[0,-2],[0,2],[-1,0],[0,2],[0,6],[-1,4],[0,5],[-2,1],[-1,-6],[-1,0],[1,2],[-1,1],[1,0],[0,2],[1,2],[-1,3],[-4,2],[-1,-1],[0,3],[-2,5],[-2,2],[-2,1],[0,0],[-1,1],[-2,-1],[-1,-2],[0,1],[1,3],[1,1],[1,-1],[1,-1]],[[7420,1113],[1,3],[1,1],[-1,-5],[-1,1]],[[7779,1218],[-1,-3],[0,0],[-1,0],[-2,1],[1,0],[1,1],[1,0],[1,1]],[[7766,1235],[5,-1],[-1,-3],[-1,2],[-2,-1],[0,-1],[-1,2],[-2,-3],[-2,-1],[-1,0],[3,1],[-1,1],[-1,-1],[-2,1],[0,1],[2,-1],[4,3],[-2,0],[1,1],[1,-1],[0,1]],[[7465,1226],[-2,-6],[1,2],[2,0],[-1,-3],[2,-3],[0,-2],[0,2],[-1,0],[-1,1],[-1,0],[0,-2],[-1,-1],[-1,2],[-1,0],[-1,-1],[1,0],[0,0],[-2,0],[1,-2],[-3,1],[-2,-2],[1,0],[-2,-1],[-1,-2],[-3,0],[0,3],[0,2],[1,0],[1,1],[2,1],[2,-1],[1,1],[3,9],[1,5],[3,2],[1,3],[0,1],[-1,0],[2,2],[1,4],[2,2],[1,1],[0,2],[0,0],[0,3],[1,0],[0,3],[0,0],[0,-1],[0,-4],[0,2],[1,-5],[0,0],[0,0],[2,-3],[0,-2],[2,-3],[2,-11],[0,-1],[2,-1],[2,1],[1,-1],[0,2],[3,2],[1,1],[1,0],[3,2],[0,0],[0,1],[1,0],[-2,-5],[-2,0],[0,-1],[-3,-1],[0,-4],[3,0],[0,-1],[0,0],[0,0],[0,0],[0,-2],[-1,0],[-1,3],[-1,-2],[-3,1],[0,-1],[-1,0],[-1,0],[-1,1],[-1,2],[-2,6],[-1,-1],[0,1],[0,4],[1,0],[-2,3],[0,2],[-1,0],[1,1],[-2,1],[0,2],[-1,1],[-1,0],[0,-2],[1,-1],[-1,-1],[-1,1],[0,0],[1,3],[1,1],[0,2],[0,0],[0,1],[0,1],[0,-2],[0,-1],[0,2],[0,3],[0,1],[0,-3],[-1,-3],[0,-3],[-3,-6],[-1,-3],[-1,-5],[-2,0],[0,-2],[1,0],[1,1]],[[7462,1224],[1,-1],[-2,-4],[-1,-1],[0,4],[1,0],[1,1],[0,1],[-1,-2],[0,1],[-1,-1],[0,0],[0,-1],[0,-3],[-1,0],[0,1],[0,-1],[1,0],[1,0],[0,0],[0,0],[1,1],[2,5],[-2,0]],[[7454,1214],[0,-1],[-1,0],[1,-1],[2,1],[0,1],[-1,-1],[0,1],[-1,-1],[0,1]],[[7399,1213],[1,2],[-1,3],[2,2],[1,-2],[2,-2],[0,-7],[-1,-1],[0,6],[-2,2],[-2,-4],[-4,0],[-1,-2],[-1,1],[1,3],[-1,2],[2,4],[-2,5],[-1,-1],[0,4],[2,0],[2,5],[2,-2],[0,-2],[-2,-1],[0,-2],[0,-4],[2,-5],[-2,-2],[2,-2],[1,0]],[[6708,2877],[0,-2],[-4,1],[0,1],[-1,1],[-2,2],[0,2],[1,0],[1,-1],[1,-1],[6,10],[1,-1],[-3,-5],[0,-7]],[[6741,2965],[1,0],[-2,-6],[-1,2],[2,4]],[[6768,3038],[3,-9],[2,-2],[2,0],[0,-1],[1,-1],[-1,-1],[1,-1],[0,-3],[2,-6],[2,-7],[0,-2],[-2,-3],[-1,-4],[-1,-5],[-3,-1],[-1,-3],[2,-5],[2,-4],[0,-1],[1,-3],[3,-3],[3,-2],[1,-2],[0,-2],[0,-3],[-2,-2],[-1,-5],[1,-4],[-1,-6],[-3,-4],[-5,0],[-3,-2],[-2,-5],[-2,2],[6,12],[2,1],[3,11],[-2,9],[-2,4],[-4,1],[-3,3],[-2,-1],[-2,3],[-1,3],[1,6],[-2,6],[3,2],[1,4],[1,5],[-1,1],[1,0],[-1,7],[0,4],[0,7],[-1,2],[-3,2],[-1,-1],[0,1],[0,-4],[0,-2],[-2,-4],[-1,-3],[1,-1],[1,-3],[-1,-11],[1,-5],[-1,-3],[-1,-1],[-1,1],[0,-2],[0,-3],[-4,-13],[-3,-4],[-2,-5],[0,2],[-1,-2],[0,-8],[-1,-4],[0,-3],[1,-2],[-2,1],[-1,-2],[-2,-1],[0,-2],[0,-5],[1,-2],[-2,1],[0,-4],[0,-2],[-1,-2],[-2,-2],[-6,-2],[-2,-3],[-1,1],[-1,0],[-3,-3],[-2,-7],[-3,3],[2,7],[1,0],[0,0],[-1,-2],[0,0],[2,3],[1,0],[0,0],[1,4],[5,6],[2,0],[2,-1],[2,3],[1,9],[2,1],[1,3],[4,13],[2,5],[0,2],[3,11],[2,5],[0,2],[0,12],[1,2],[0,5],[1,1],[1,4],[-1,2],[-2,0],[2,1],[0,8],[2,2],[1,7],[2,3],[11,1]],[[6732,2930],[0,2],[-1,1],[-2,-2],[1,-1],[2,0]],[[6744,2974],[2,8],[2,1],[-3,-10],[-1,1]],[[273,2059],[0,-4],[0,0],[1,-2],[-1,-2],[-1,1],[-1,0],[1,-6],[-1,-2],[2,0],[1,2],[2,2],[1,-4],[2,-4],[1,-1],[-1,-2],[1,0],[0,-3],[1,-1],[-1,0],[1,-1],[-1,1],[-1,-1],[1,0],[0,-1],[-1,-1],[4,0],[3,-3],[6,-9],[2,-4],[4,-8],[2,-9],[1,-6],[0,-10],[-2,-8],[-4,-4],[-2,-1],[0,-1],[-1,1],[-1,0],[-4,2],[-2,3],[-3,7],[0,0],[0,0],[-1,0],[0,5],[-4,7],[0,1],[-3,3],[-6,-8],[-3,-6],[2,-4],[0,-7],[-1,-2],[0,-4],[-2,-4],[1,0],[0,-1],[0,-1],[-1,-9],[-5,-17],[-1,-3],[1,-1],[-1,0],[-1,-4],[0,-2],[0,-1],[0,-8],[-1,-5],[0,-1],[2,0],[0,0],[0,-2],[1,-2],[1,-2],[2,-1],[0,-5],[2,-5],[0,-1],[1,-2],[-2,-7],[-4,-5],[4,5],[3,7],[0,-1],[1,0],[2,-2],[1,1],[1,4],[3,4],[5,1],[7,-1],[3,-2],[2,-4],[1,-3],[2,-3],[3,-6],[0,-3],[1,-3],[8,-10],[1,-5],[0,-5],[1,-2],[5,-5],[4,-6],[5,-4],[2,0],[1,-2],[2,4],[11,3],[4,0],[2,1],[2,-1],[4,-5],[5,-10],[2,-9],[0,-2],[0,0],[3,-6],[1,-2],[2,1],[1,-1],[0,3],[2,4],[3,2],[3,-2],[8,-2],[4,-4],[6,-2],[4,-6],[2,-1],[1,2],[0,8],[3,2],[2,0],[3,-2],[1,-3],[2,-1],[0,0],[1,1],[3,-5],[0,-2],[1,0],[0,-1],[0,-7],[-2,-12],[0,0],[1,-7],[1,-6],[1,-3],[-1,-2],[1,2],[1,0],[6,-5],[5,0],[2,-2],[5,-2],[1,2],[3,-1],[1,-1],[-1,-3],[3,-2],[-1,-1],[2,-2],[5,3],[4,-3],[1,1],[2,-1],[1,4],[2,1],[2,3],[1,1],[1,-1],[2,1],[4,10],[3,1],[-1,7],[3,10],[0,8],[1,5],[-1,7],[5,3],[4,-1],[8,-6],[5,-10],[3,-10],[1,-11],[-1,-6],[-2,-11],[-2,-4],[-11,-5],[-10,6],[-3,8],[0,3],[1,3],[-2,3],[-1,-1],[-4,-10],[-2,-1],[-1,1],[-1,0],[-2,-4],[-2,-1],[-1,-3],[2,-2],[-1,-1],[-1,-2],[0,-3],[5,-10],[6,-16],[-9,-8],[0,27],[-8,15],[-2,1],[2,-2],[-3,1],[-4,-2],[-7,-2],[-7,2],[-8,8],[0,1],[-2,3],[-2,-2],[0,-5],[-4,-8],[-9,3],[-2,10],[3,7],[0,2],[-1,1],[-3,-2],[-2,1],[0,7],[1,5],[5,16],[-1,4],[-2,2],[-3,0],[-9,5],[-3,-1],[-3,-5],[-1,-5],[-2,-8],[-1,-1],[-9,4],[-4,3],[-2,0],[-2,-7],[2,-24],[-5,-1],[-9,-4],[-5,6],[-4,3],[-3,0],[-4,-3],[-6,26],[-3,5],[-4,2],[-2,2],[-1,2],[1,14],[6,3],[1,3],[1,7],[1,1],[-3,9],[-11,8],[-11,0],[-13,-6],[-1,1],[-3,5],[3,21],[8,13],[0,4],[-4,6],[-2,0],[-1,-3],[-11,-9],[-5,5],[-2,-2],[0,-4],[2,-3],[0,-7],[1,-7],[-3,-14],[-2,3],[-2,1],[-4,3],[-4,5],[-2,0],[-7,6],[-3,4],[-5,1],[-5,-4],[-3,-4],[-1,-5],[0,-4],[0,-6],[2,-13],[-1,-4],[-2,-1],[-3,1],[-11,19],[-2,6],[-2,2],[-3,0],[-1,-2],[-3,-7],[-1,-7],[1,-9],[-1,-4],[-9,3],[0,1],[0,3],[3,9],[1,2],[-7,20],[-3,0],[-1,-2],[-4,0],[-9,7],[-3,0],[-3,-2],[-10,-4],[0,-4],[1,-3],[2,-10],[-1,-3],[-4,-4],[-2,-3],[-7,2],[-2,3],[-3,0],[-4,-1],[-7,2],[0,4],[-2,2],[-2,-2],[-1,-3],[-3,-7],[-2,-2],[-4,3],[-4,2],[-5,3],[-8,11],[-2,1],[-4,1],[-5,4],[-1,3],[-2,2],[-4,-1],[-6,4],[0,1],[-2,1],[-2,0],[-1,-3],[-6,-1],[0,4],[4,12],[0,3],[-2,2],[-3,-1],[-7,-8],[-4,-6],[-6,9],[5,4],[2,4],[0,3],[-2,4],[-1,0],[-2,-1],[-3,-8],[-3,-2],[-3,0],[-2,3],[-7,14],[-3,3],[-4,0],[-3,-4],[0,-5],[1,-4],[2,-5],[1,-7],[-1,-2],[-9,-13],[-2,1],[-2,5],[-1,4],[0,16],[-2,4],[-2,2],[-2,1],[-6,-4],[0,11],[1,0],[3,-4],[2,-1],[3,2],[7,1],[0,1],[2,1],[-5,-2],[3,2],[-4,0],[-1,1],[5,1],[5,3],[-12,3],[0,0],[1,0],[4,1],[1,-1],[3,1],[4,-1],[1,1],[0,2],[-3,1],[4,0],[-1,0],[0,-2],[1,2],[2,-1],[1,1],[-1,0],[-6,0],[5,1],[0,1],[-3,1],[1,2],[3,0],[-2,2],[-5,2],[0,0],[1,0],[0,1],[0,3],[1,0],[2,-1],[1,1],[-2,3],[0,-1],[-3,0],[0,1],[0,1],[3,1],[2,-1],[0,-1],[1,1],[-1,1],[3,2],[-1,2],[3,3],[0,-1],[1,2],[6,5],[10,0],[3,1],[0,1],[-2,0],[2,1],[7,-1],[2,0],[0,-1],[0,-1],[-1,-1],[3,-1],[2,1],[0,-1],[0,-1],[1,3],[0,1],[0,1],[1,-2],[1,3],[-1,1],[0,2],[1,0],[0,1],[-1,1],[-1,-1],[-1,1],[0,0],[0,-1],[-1,0],[0,2],[4,0],[0,1],[0,0],[0,-1],[1,2],[4,0],[1,3],[0,3],[-1,0],[0,0],[1,0],[0,4],[-1,1],[1,0],[0,2],[3,0],[1,-3],[0,1],[0,2],[6,0],[2,-5],[1,0],[1,-3],[1,-4],[-2,-7],[1,-1],[-1,0],[-1,-4],[-1,-4],[-4,-4],[0,0],[0,-1],[-3,1],[-2,2],[1,-1],[-1,-1],[0,1],[-1,-2],[-4,0],[-1,-1],[1,-1],[-1,0],[0,-2],[1,-4],[0,-1],[1,-2],[3,-5],[2,0],[1,-2],[3,-2],[7,4],[6,0],[3,3],[2,-1],[0,3],[4,3],[0,1],[0,0],[0,0],[1,2],[0,-1],[0,1],[1,0],[-1,1],[1,0],[-3,11],[1,8],[2,6],[4,3],[5,1],[5,-4],[2,1],[2,-1],[4,5],[0,2],[0,0],[0,0],[1,1],[0,4],[3,0],[0,-2],[2,1],[1,-1],[-3,-5],[1,1],[0,-4],[2,2],[1,5],[1,0],[-1,2],[0,-1],[-1,2],[5,0],[-1,-4],[1,4],[27,0],[0,-13],[5,2],[1,1],[0,3],[-2,3],[1,3],[1,1],[6,1],[1,0],[2,-3],[2,1],[1,2],[1,5],[0,5],[-2,2],[-3,0],[-2,4],[0,4],[1,6],[3,5],[5,2],[0,2],[-1,2],[-3,1],[-3,2],[-2,5],[-2,11],[-3,10],[0,6],[2,5],[2,0],[-2,8],[1,-2],[3,2],[0,-6],[0,-4],[1,-2],[1,0],[6,6],[6,-1],[1,1],[-1,4],[-3,4],[-1,2],[0,3],[3,1],[1,1],[3,0],[0,-3],[2,-2],[-1,5],[1,0],[0,-2],[2,-4],[-1,-1],[-5,4],[-4,0],[0,-1],[1,-2],[3,-4],[1,-3],[0,-3],[-1,-1],[-6,0],[-6,-5],[-1,-2],[0,1],[-3,2],[0,2],[1,4],[-1,3],[0,1],[-1,1],[-1,-2],[1,-5],[0,-1],[-3,-5],[5,-25],[2,-4],[2,-2],[5,-2],[0,-3],[0,-3],[-2,-2],[-2,1],[-1,-1],[-3,-5],[-2,-5],[1,-4],[1,-3],[3,0],[3,-2],[0,-6],[-1,-6],[-3,-3],[-2,0],[-1,3],[-6,-1],[-2,-1],[0,-2],[1,-2],[0,-4],[-1,-2],[-5,-2],[1,-11],[1,-2],[3,1],[2,-2],[4,0],[2,-2],[0,-4],[-2,-6],[1,-2],[5,0],[4,4],[1,0],[5,-3],[6,5],[26,-4],[23,47],[2,2],[-1,1],[2,3],[0,1],[9,21],[2,0],[0,1],[-1,1],[2,1],[0,1],[-1,-1],[8,17],[-5,9],[1,4],[-1,1],[-2,0],[-1,3],[2,2],[-1,2],[2,3],[0,2],[0,1],[8,10],[1,-1],[0,2],[2,2],[0,0]],[[164,1904],[13,9],[4,-12],[0,0],[-4,12],[12,9],[-5,3],[-4,-5],[-5,1],[-1,1],[-1,2],[2,6],[0,4],[-1,1],[-5,0],[-1,2],[-3,-1],[-1,1],[0,-7],[-2,2],[2,-2],[0,-26]],[[327,1794],[1,-1],[-1,5],[-1,-2],[1,-2]],[[138,1954],[-3,6],[-1,-2],[-1,2],[1,-4],[1,1],[3,-3]],[[32,1932],[-2,3],[0,-2],[1,-2],[1,1]],[[33,1926],[-2,1],[0,-1],[1,-3],[1,3]],[[131,1952],[-1,1],[-1,-3],[1,0],[1,2]],[[69,1935],[2,1],[0,1],[1,-1],[-1,2],[-1,-1],[-1,-2]],[[128,1877],[-1,2],[-1,0],[0,-3],[2,1]],[[95,1909],[1,1],[-1,2],[-1,-2],[0,-1],[1,0]],[[258,1885],[0,-2],[2,1],[0,2],[-1,0],[-1,-1]],[[349,1788],[1,2],[1,4],[-3,-6],[1,0]],[[74,1946],[1,3],[1,3],[-2,-4],[0,-2]],[[37,1935],[3,0],[-2,2],[-4,-1],[3,-1]],[[205,1910],[1,-2],[1,3],[-2,1],[0,-2]],[[151,1878],[-2,0],[2,0],[0,-1],[-1,0],[-1,-2],[3,2],[0,0],[0,3],[0,-1],[0,1],[1,0],[0,-1],[0,0],[0,1],[-1,0],[-1,-2]],[[132,1944],[1,4],[-1,1],[-1,0],[1,-3],[-1,-1],[1,-1]],[[256,1881],[0,1],[-1,2],[-2,2],[1,-4],[2,-1]],[[193,1862],[2,3],[1,1],[0,-1],[1,0],[4,1],[-4,-1],[-2,2],[0,-1],[-1,-1],[-2,1],[-1,-4],[2,0]],[[71,1944],[1,2],[0,1],[-4,-1],[3,-2]],[[151,1856],[0,-2],[1,-1],[0,2],[1,0],[0,-2],[-1,-1],[0,0],[0,-1],[-1,0],[0,-2],[2,1],[1,3],[-3,5],[0,-2]],[[134,1886],[0,-3],[1,-2],[-1,-1],[1,-3],[1,4],[-1,2],[1,4],[-1,0],[0,-1],[-1,0]],[[259,1998],[-1,-1],[-1,0],[0,-3],[0,0],[1,1],[2,-1],[0,1],[1,1],[0,1],[0,2],[0,1],[-2,0],[0,-2]],[[49,1920],[1,1],[0,4],[-1,2],[-2,-4],[0,0],[-1,-2],[1,-1],[2,0]],[[106,1902],[-1,2],[-3,0],[0,-2],[0,-2],[3,-2],[1,4]],[[76,1944],[1,2],[0,1],[1,-1],[1,1],[0,4],[-2,2],[1,1],[0,2],[-1,-3],[0,-4],[-2,-4],[1,-1]],[[111,1889],[1,5],[-2,4],[-2,0],[0,-2],[2,-3],[0,-5],[1,1]],[[231,1929],[0,-7],[1,0],[-1,-1],[3,1],[2,0],[-3,0],[2,1],[-1,0],[0,4],[-1,1],[-1,3],[-1,-2]],[[125,1882],[1,0],[-1,2],[0,3],[0,0],[-1,0],[1,3],[-1,3],[-2,-3],[0,-3],[1,-3],[0,1],[0,-2],[1,-1],[0,-2],[0,-1],[1,3]],[[269,2033],[-1,-6],[1,1],[1,1],[0,7],[1,1],[0,1],[0,2],[0,0],[0,2],[-1,2],[-1,1],[0,-1],[0,-11]],[[258,1979],[-2,-11],[2,-1],[1,1],[1,2],[0,1],[0,2],[0,3],[0,2],[0,3],[-2,-2]],[[248,1940],[1,2],[-1,4],[-2,2],[2,1],[-2,2],[-3,-5],[0,-5],[3,-2],[2,1]],[[118,1858],[2,-7],[0,-5],[1,0],[0,-1],[0,-1],[2,1],[0,0],[0,-2],[1,1],[0,-1],[1,-1],[-1,0],[0,-1],[0,0],[0,-2],[1,2],[0,1],[0,3],[-2,10],[-2,5],[-1,1],[-2,-3]],[[198,1871],[-3,9],[-3,1],[-2,-1],[2,-11],[2,-1],[4,2],[0,1]],[[273,2024],[-2,-8],[0,-1],[0,-4],[-1,0],[1,0],[-1,1],[-1,-2],[-2,0],[5,-7],[2,3],[2,5],[-1,0],[0,1],[-1,-2],[0,7],[0,-2],[1,-1],[0,-1],[-1,5],[1,5],[-2,2],[0,-1],[0,0]],[[255,1966],[0,-3],[0,-2],[0,-1],[0,-1],[-2,3],[0,1],[0,5],[1,5],[0,3],[1,2],[-1,1],[-4,-10],[2,-12],[2,-4],[-1,2],[1,0],[2,-2],[2,1],[-3,10],[1,3],[0,1],[-1,-2]],[[146,1874],[2,2],[1,4],[-1,1],[0,-1],[-1,0],[1,1],[-3,2],[-3,6],[-1,1],[-2,4],[-2,-1],[-1,-3],[2,0],[0,1],[1,-2],[1,0],[-1,-5],[-1,1],[1,-5],[1,-2],[-1,1],[0,-2],[1,-1],[-1,0],[2,-1],[1,-1],[-1,0],[1,-1],[1,1],[1,0],[-1,-1],[3,1]],[[59,1935],[1,-1],[1,2],[0,-1],[1,2],[-1,-1],[-2,1],[0,-1],[0,-1],[0,0],[0,-1],[-3,2],[-5,0],[-3,-1],[-1,-2],[2,-4],[2,-8],[-2,7],[1,-2],[7,-6],[0,4],[2,7],[0,2],[0,1],[0,0],[0,1]],[[37,1912],[4,0],[2,1],[-1,2],[2,7],[-1,1],[1,4],[0,0],[0,1],[-1,-1],[0,2],[0,2],[1,0],[1,-3],[1,1],[0,1],[1,1],[-2,2],[0,1],[1,0],[0,1],[-6,-2],[1,-2],[-4,-4],[-1,-5],[0,1],[-1,-2],[0,-1],[2,2],[0,0],[1,2],[3,-2],[-1,-2],[-1,-2],[0,1],[-2,-3],[-2,1],[-1,-1],[1,-3],[2,-1]],[[180,1863],[8,-2],[2,2],[1,5],[-2,10],[-1,11],[-1,2],[-2,1],[-1,2],[1,-2],[0,-1],[1,-8],[-3,-10],[-5,0],[0,-5],[0,-3],[2,-2]],[[230,1913],[-6,-7],[-1,-4],[0,-7],[-1,-6],[-4,-3],[-3,0],[-3,-2],[-2,-5],[-4,-5],[1,-4],[-1,-18],[3,-2],[2,1],[0,2],[1,0],[4,-5],[2,-4],[7,-6],[4,3],[2,12],[1,0],[0,-3],[0,-2],[3,11],[4,3],[3,1],[4,0],[2,-2],[2,-3],[0,1],[1,-3],[1,-3],[4,-1],[3,0],[1,3],[0,4],[-2,8],[-2,7],[2,1],[-2,-1],[-2,5],[-2,1],[-1,2],[-1,3],[2,3],[-3,10],[-2,8],[-2,5],[-1,-2],[1,1],[0,-1],[-1,0],[1,-3],[-1,-2],[-1,2],[0,-1],[0,2],[-2,0],[0,2],[0,-1],[0,-3],[0,-2],[3,-2],[2,0],[1,-1],[-3,1],[2,-2],[0,-4],[-1,0],[-1,-1],[-1,4],[-3,5],[0,2],[0,4],[3,3],[0,1],[2,-1],[-4,5],[-5,2],[-7,0],[1,-6]],[[6772,3042],[0,-2],[2,0],[-6,-2],[-10,-1],[-3,-1],[-1,3],[0,2],[1,4],[3,7],[-1,2],[-1,2],[-1,5],[-2,-3],[1,2],[-2,1],[-1,-1],[-1,0],[0,1],[-1,1],[0,3],[-2,2],[0,2],[0,1],[-1,0],[0,1],[-1,1],[-2,3],[-3,2],[-2,6],[-2,1],[0,3],[-1,-3],[-2,1],[0,2],[0,3],[0,3],[1,2],[2,-1],[-1,2],[1,1],[-2,0],[1,2],[-2,1],[-3,-1],[-1,-2],[-1,-1],[-4,7],[0,2],[0,-2],[-3,0],[-2,-3],[-4,-1],[-1,12],[8,-5],[2,1],[1,3],[0,3],[1,3],[-1,2],[1,-1],[0,2],[1,-3],[0,-3],[2,1],[3,-2],[1,1],[1,3],[2,2],[2,0],[1,-2],[1,2],[4,-1],[2,-3],[0,-1],[0,0],[0,0],[1,0],[0,-1],[3,-1],[1,-7],[-1,-1],[1,0],[0,0],[-1,0],[1,-2],[2,0],[0,-3],[1,-1],[1,-7],[1,-3],[1,-6],[4,-2],[3,-5],[2,1],[-1,-1],[2,-2],[1,-4],[-1,-1],[1,0],[0,-1],[0,-6],[2,-9],[0,-3],[2,-5],[0,-1],[0,0]],[[6760,3046],[5,-1],[0,0],[-4,1],[0,1],[2,2],[-1,0],[0,1],[0,0],[0,-2],[-1,-1],[0,1],[-1,-2]],[[5428,3102],[-2,-26],[-5,-27],[0,6],[0,1],[-1,0],[-1,4],[0,-5],[1,-1],[1,-11],[-2,-3],[-4,-3],[-1,5],[-1,12],[-1,0],[-3,-1],[-3,-3],[-2,3],[-3,1],[0,-4],[-2,-3],[-2,3],[-4,0],[-1,0],[-1,2],[0,3],[-1,3],[1,5],[-2,12],[1,3],[0,3],[-6,9],[-2,-2],[-5,3],[0,-4],[-1,-1],[-2,4],[-1,1],[-1,-1],[-5,0],[-1,-1],[-2,-4],[0,-4],[-2,-9],[1,3],[1,-1],[2,-1],[1,-3],[-4,-2],[-2,-4],[0,-4],[-1,-1],[-5,6],[0,1],[1,3],[2,0],[1,2],[-4,1],[-1,1],[0,2],[0,3],[-1,2],[0,3],[3,5],[1,4],[6,6],[4,6],[12,15],[2,1],[0,-1],[-2,-4],[0,-2],[4,-4],[13,6],[0,-5],[1,-1],[0,-2],[1,0],[1,3],[3,-3],[6,4],[-1,10],[3,1],[0,5],[2,0],[3,-3],[4,-2],[0,4],[2,4],[8,-22],[-1,-6]],[[5406,3078],[7,1],[0,7],[-4,6],[-4,0],[-1,-3],[1,-8],[1,-3]],[[5401,3088],[-7,-3],[0,0],[-4,-4],[11,7],[5,11],[0,5],[-1,0],[-1,-2],[1,-5],[-3,-6],[-1,-3]],[[5399,3079],[0,1],[0,2],[-1,0],[1,3],[-2,0],[-1,-3],[-1,-3],[3,-1],[1,1]],[[6849,3624],[2,-1],[1,-5],[-2,4],[-7,0],[0,2],[0,5],[0,0],[0,-6],[6,1]],[[7082,4096],[-2,2],[-1,-1],[-1,0],[1,1],[2,2],[0,4],[6,10],[2,6],[1,-3],[3,0],[0,-2],[-2,0],[-1,-5],[0,4],[-2,0],[-5,-11],[0,-4],[1,-2],[1,0],[0,-2],[1,-1],[-1,-6],[-1,0],[-1,6],[-1,2]],[[6799,4395],[-4,4],[-3,5],[-1,8],[-1,4],[0,6],[-1,-1],[-1,2],[-1,5],[-1,0],[0,-6],[-2,-4],[-2,3],[0,3],[-1,-1],[0,3],[-1,1],[1,1],[-3,5],[-1,1],[-2,-1],[0,1],[-2,2],[-1,4],[-1,6],[-1,0],[-2,-5],[-1,-3],[-2,-2],[0,-3],[-1,0],[0,-2],[0,-2],[-3,-3],[0,0],[-3,-5],[-1,-1],[-1,-4],[-2,1],[0,-3],[-1,-3],[-1,-1],[-3,-4],[0,0],[4,6],[0,3],[0,2],[2,0],[2,3],[1,1],[0,2],[2,2],[1,2],[2,2],[1,4],[0,0],[1,2],[2,5],[3,6],[1,1],[-1,3],[-6,4],[-1,5],[-3,3],[-4,-2],[-2,1],[-1,2],[-5,3],[-5,8],[-3,3],[1,5],[0,33],[-1,5],[-2,7],[1,5],[0,13],[2,6],[6,-1],[1,-4],[0,-10],[4,-26],[-1,-19],[-2,-4],[-2,-3],[0,-3],[0,-1],[-1,-2],[1,-2],[1,-1],[1,1],[4,7],[1,0],[1,-2],[7,1],[3,-6],[2,-1],[2,-4],[3,-2],[3,-1],[8,15],[3,1],[5,-1],[8,-6],[6,-8],[6,-10],[6,-7],[2,-5],[-1,-1],[-2,5],[-2,4],[-5,2],[-10,4],[-6,1],[-2,0],[-2,-3],[-1,-7],[0,-9],[1,-1],[6,2],[2,-3],[1,-3],[0,-7],[1,-3],[0,-5],[2,-10],[3,-5],[-5,-13]],[[7765,2023],[2,-3],[3,-1],[1,1],[1,-1],[2,1],[1,0],[0,-1],[1,-1],[3,-3],[4,-3],[0,-3],[0,0],[0,3],[-4,1],[-2,3],[0,-3],[2,-5],[-1,-5],[0,4],[0,0],[-2,10],[-1,1],[-4,0],[0,-7],[0,-1],[0,5],[-1,3],[-2,-1],[-4,3],[0,0],[1,4],[0,-1]],[[7766,2033],[2,-3],[-2,0],[-3,2],[-1,1],[-1,1],[0,0],[-3,2],[0,-2],[0,-2],[1,-2],[1,-2],[1,-2],[1,0],[2,-4],[-1,-1],[-2,2],[-2,2],[0,0],[0,-3],[0,-3],[-1,0],[0,1],[1,1],[-1,3],[1,0],[-1,2],[-2,2],[0,3],[-1,6],[0,4],[1,1],[0,1],[-2,-1],[0,1],[-2,-1],[-1,1],[2,0],[1,0],[2,4],[0,2],[2,2],[0,7],[1,3],[0,4],[-1,2],[0,3],[0,-2],[1,2],[-1,5],[0,0],[0,3],[0,3],[-5,-4],[-2,-4],[1,0],[-1,-5],[0,-6],[-1,-1],[-1,-3],[-1,-1],[1,1],[2,4],[0,6],[0,5],[0,-1],[-1,0],[0,0],[-3,-1],[0,-1],[-1,0],[0,-2],[-3,-4],[-1,-1],[-1,0],[-1,-3],[-2,-1],[-1,0],[3,1],[1,3],[1,0],[0,0],[1,1],[1,2],[2,2],[0,2],[4,2],[1,0],[2,5],[5,5],[-1,2],[0,15],[1,0],[-2,4],[1,1],[-1,4],[0,5],[-2,2],[-1,4],[1,3],[0,1],[1,2],[0,2],[-1,3],[1,4],[0,5],[-1,1],[1,5],[-1,7],[0,1],[1,0],[-2,0],[2,3],[-1,3],[1,2],[1,6],[2,2],[-1,1],[1,10],[-1,3],[1,2],[-1,4],[0,3],[-2,-1],[-1,-2],[-1,1],[-1,-1],[-2,-5],[0,-2],[-1,-1],[-1,-4],[-2,-1],[0,-3],[-2,1],[-1,-2],[0,-2],[-1,0],[-1,1],[-1,-2],[-2,-1],[-1,-2],[-1,-1],[0,1],[1,0],[1,3],[3,1],[-1,1],[1,0],[2,1],[0,3],[2,1],[0,1],[2,1],[1,2],[1,2],[-1,1],[1,0],[1,1],[-1,2],[-1,-1],[2,4],[0,0],[0,1],[1,0],[2,3],[2,-1],[3,1],[0,2],[-1,2],[1,5],[0,2],[2,2],[1,7],[2,2],[0,3],[1,2],[0,6],[2,2],[1,3],[0,9],[-1,5],[0,1],[1,1],[0,8],[0,1],[1,4],[1,5],[-1,1],[0,1],[-1,1],[1,0],[0,-1],[1,-1],[0,0],[0,1],[2,5],[1,3],[-1,1],[-2,4],[0,1],[0,0],[1,2],[0,2],[-1,1],[-1,-1],[-1,2],[0,3],[0,4],[0,2],[-2,-1],[0,-2],[0,0],[-1,-1],[2,3],[0,3],[-1,1],[1,1],[0,1],[-1,1],[-1,-2],[-1,0],[0,-2],[-1,-1],[-1,-3],[-4,-4],[1,-2],[0,-2],[-1,-1],[0,2],[1,2],[-1,-2],[0,-2],[0,-3],[0,-1],[4,-1],[0,2],[2,0],[-2,0],[0,-3],[-3,1],[-1,1],[0,0],[0,0],[0,-4],[-1,-1],[0,0],[0,-1],[0,0],[0,1],[1,0],[1,-3],[0,2],[0,-2],[1,0],[3,-5],[-4,5],[-1,-1],[1,0],[0,-4],[-4,1],[1,1],[1,0],[0,1],[-1,1],[0,0],[0,1],[0,1],[1,0],[0,1],[-1,-2],[0,0],[-1,0],[-2,-2],[-1,1],[0,-2],[-6,1],[1,0],[0,1],[1,-1],[2,1],[-1,3],[-2,1],[0,0],[-1,2],[1,0],[1,-2],[0,1],[1,-1],[0,0],[0,-1],[1,-2],[2,0],[1,-1],[3,1],[0,2],[-1,1],[1,6],[-1,-1],[-1,0],[0,-2],[-1,0],[-1,3],[3,-1],[1,5],[0,0],[-2,1],[0,-1],[-1,0],[-1,0],[-1,1],[2,0],[0,2],[1,0],[0,-1],[0,-1],[2,0],[0,-1],[1,1],[0,2],[0,1],[-1,0],[-1,3],[2,-3],[2,2],[1,3],[0,0],[1,2],[0,4],[1,0],[1,0],[-1,3],[2,2],[2,1],[0,0],[0,-5],[3,2],[-1,6],[0,-1],[1,4],[1,6],[-1,2],[1,1],[1,-1],[-1,1],[1,2],[-1,3],[1,2],[0,3],[-2,1],[-1,0],[0,1],[1,5],[0,5],[5,1],[1,-2],[-1,-1],[0,-1],[-1,0],[0,0],[0,0],[0,0],[0,-1],[-1,-1],[-1,-1],[-1,-1],[0,-1],[0,-1],[0,0],[0,-1],[0,1],[0,0],[0,0],[0,-1],[0,0],[0,0],[0,-1],[2,-2],[1,-1],[2,-1],[3,1],[-1,0],[1,-1],[-2,-1],[-1,-1],[2,-2],[-1,-1],[1,-1],[0,-4],[0,-1],[-1,1],[0,-3],[1,-1],[0,-1],[0,0],[0,0],[0,0],[-1,-2],[0,1],[0,0],[-1,0],[1,0],[-1,0],[0,0],[0,-1],[-1,-1],[0,-2],[1,-3],[1,0],[1,-1],[0,-1],[0,0],[0,0],[0,0],[0,1],[-2,1],[-1,4],[1,2],[3,-3],[0,-1],[2,-2],[1,-4],[1,0],[0,2],[0,0],[0,0],[1,0],[1,-2],[1,0],[1,3],[0,-2],[1,1],[-1,-2],[-1,-1],[0,-1],[0,0],[0,0],[0,0],[0,0],[1,0],[1,3],[0,-1],[-2,-2],[1,-1],[-1,0],[1,0],[0,0],[2,0],[-1,-1],[0,-1],[0,-1],[1,0],[0,1],[0,-1],[-1,-1],[1,-1],[1,-1],[0,-1],[0,0],[1,0],[-1,0],[-1,-1],[1,-2],[1,0],[2,-8],[0,0],[-1,-2],[1,-1],[-1,-2],[1,1],[-1,-1],[0,0],[2,0],[-1,0],[1,-1],[1,-3],[1,0],[0,-1],[1,0],[-1,0],[1,0],[0,0],[0,0],[1,-3],[0,-1],[1,-2],[-1,-3],[0,-6],[-1,0],[1,0],[-2,0],[-2,5],[1,-1],[0,0],[1,0],[0,0],[0,1],[0,0],[-1,-1],[-1,2],[1,4],[0,0],[1,0],[0,0],[0,0],[-1,1],[0,-1],[-1,-1],[0,-2],[0,0],[0,4],[0,2],[0,0],[0,-2],[0,2],[-1,1],[-1,1],[0,2],[-2,2],[0,4],[-2,4],[-2,10],[-1,-1],[-1,2],[-1,2],[0,0],[0,0],[-1,-1],[0,1],[0,1],[-1,-1],[0,2],[0,-1],[-1,1],[0,0],[0,0],[0,0],[0,0],[0,0],[0,-1],[0,0],[-1,0],[0,0],[0,0],[0,0],[-1,2],[0,0],[-2,2],[0,1],[0,0],[-1,0],[0,-1],[-1,0],[0,0],[-1,-1],[0,-3],[1,-1],[-1,-6],[1,-1],[1,-1],[0,0],[0,-1],[1,-6],[1,-4],[0,0],[1,0],[0,-1],[1,-5],[0,-2],[-1,-2],[-1,0],[0,-1],[1,1],[1,-1],[-1,1],[-1,-2],[0,-2],[2,-1],[-8,2],[1,-3],[-1,-1],[-1,-3],[0,-1],[1,1],[1,-1],[-1,-4],[-1,-1],[2,-3],[-1,-1],[-1,1],[0,0],[-1,-2],[1,0],[0,-2],[1,-2],[1,2],[1,1],[1,-2],[0,-3],[1,-2],[-1,-2],[0,-1],[0,-2],[-2,0],[2,-4],[-1,-2],[-1,0],[0,-2],[-2,1],[-1,-4],[-2,-1],[0,-3],[1,-2],[-1,-2],[0,-3],[-1,-1],[-1,2],[0,0],[0,1],[-1,0],[-1,-2],[0,0],[0,-1],[0,-2],[-2,-2],[0,-2],[-1,0],[1,-2],[0,-3],[5,-1],[-1,-4],[0,-7],[-2,-11],[0,-7],[-1,-1],[-1,1],[-1,-1],[0,-2],[-2,-3],[-1,-2],[2,-4],[-1,-2],[0,-1],[1,-2],[3,-2],[0,-2],[-4,4],[4,-3],[0,-3],[1,-3],[-1,-6],[1,-4],[1,-2],[1,-3],[-1,-4],[1,-3],[1,-4],[0,-4],[1,-1],[-1,-1],[3,-5],[0,-5],[1,-4],[1,-2],[0,-1],[3,-8],[0,-3],[-1,0],[2,-3],[0,-2],[0,-1],[0,-1],[2,-1],[3,-2],[2,-3],[2,-1],[1,1],[1,-2],[0,-3],[1,0],[2,-1],[0,-3],[-2,3],[-1,0],[0,-3],[1,0],[-2,-4],[1,4],[-2,7],[-9,8],[-1,-2],[0,2],[-1,0],[0,5],[-2,-1],[0,2],[1,2],[-3,6],[-2,15],[-1,3],[-2,10],[-2,7],[0,2],[0,1],[-1,0],[-2,-6],[1,-5],[0,-6],[2,-9],[0,-9],[0,-1],[-1,-1],[0,1],[-1,-2],[1,-3],[1,-4],[0,-3],[1,-2],[-1,-3],[-1,-2],[0,-4],[0,-1],[0,-2],[1,-3],[-1,-1],[0,-3],[-1,-3],[0,-4],[0,-1],[-1,-1],[0,-1],[-1,-2],[1,-8],[0,-1],[0,0],[1,0],[2,-1],[2,-3],[1,-1],[2,-1],[0,1],[1,0]],[[7716,2036],[3,1],[0,-3],[1,-1],[-1,-2],[1,-4],[-1,1],[0,1],[-2,2],[0,3],[-5,8],[1,3],[1,4],[0,-10],[2,-3]],[[7758,2261],[-1,-1],[0,-2],[0,-3],[0,-3],[1,-1],[0,-1],[-2,1],[0,-2],[1,-1],[0,-1],[-1,-1],[1,-1],[-2,-3],[-1,-3],[-1,-3],[-1,-2],[0,1],[-1,-1],[0,-1],[-1,-4],[-1,-5],[0,3],[-5,-4],[1,1],[-1,1],[0,1],[0,-1],[2,1],[1,7],[3,1],[4,5],[0,3],[2,3],[0,1],[1,2],[-2,3],[2,3],[-1,0],[0,7],[2,2],[-1,5],[1,-1],[0,-6]],[[7700,2263],[-3,-3],[-1,0],[-1,2],[0,1],[2,-3],[2,2],[0,1],[1,0]],[[7743,2284],[1,-3],[-2,1],[0,2],[1,0]],[[7701,2281],[1,-1],[-1,-1],[0,1],[-2,-2],[1,-1],[0,-1],[0,1],[1,-2],[2,1],[-1,-1],[-2,1],[-1,2],[-2,1],[0,-2],[1,-2],[-1,-2],[1,0],[1,-2],[1,-3],[-1,2],[0,1],[-1,1],[1,-4],[-1,0],[0,1],[-1,2],[0,4],[0,1],[0,3],[-1,0],[3,0],[2,1],[-1,1],[1,0]],[[7703,2289],[1,-1],[0,1],[0,0],[3,2],[-3,-3],[2,-3],[0,0],[0,-1],[0,-4],[-1,3],[0,3],[-1,2],[-2,-1],[-2,-2],[-1,1],[1,3],[3,-1],[0,1],[0,3],[0,1],[1,0],[-1,-4]],[[7750,2318],[-3,-6],[0,-2],[0,-2],[-1,-1],[0,-2],[-1,0],[-1,-4],[1,-3],[-2,3],[-1,-5],[2,-3],[0,-3],[1,0],[0,-1],[1,-1],[1,1],[-1,-4],[-1,3],[-2,-1],[0,1],[0,2],[0,0],[1,3],[-2,3],[1,7],[-2,-3],[0,0],[0,-1],[-1,0],[-1,-5],[-1,1],[0,-2],[-1,-1],[0,-1],[0,1],[-1,-1],[1,-1],[0,-2],[1,0],[1,-10],[2,-1],[-1,-3],[0,2],[-1,0],[1,2],[-1,0],[0,1],[-1,4],[-2,1],[0,2],[2,1],[-1,1],[0,2],[-1,1],[0,-2],[-1,0],[1,-1],[-2,-2],[-2,-4],[-1,-1],[1,3],[-2,-2],[-1,-7],[0,0],[0,3],[-2,-1],[0,0],[-1,0],[-2,1],[-2,5],[-2,-1],[-1,2],[1,0],[-5,2],[0,1],[0,-1],[-2,-1],[-1,1],[-1,0],[-1,1],[3,-1],[1,0],[1,1],[-1,4],[-2,0],[2,1],[0,-2],[1,-3],[1,-1],[5,-1],[0,-2],[1,1],[0,-1],[1,3],[-1,0],[0,2],[-3,2],[-1,1],[0,3],[1,-3],[1,-1],[2,-1],[0,-2],[1,1],[-1,1],[1,-1],[1,2],[-1,-2],[0,-2],[0,-4],[1,-1],[0,-2],[4,0],[1,3],[0,-2],[-1,0],[3,3],[1,2],[-2,0],[2,0],[-1,1],[1,-1],[0,-1],[0,1],[2,4],[0,1],[-1,-2],[0,1],[0,1],[1,0],[3,4],[0,1],[-3,3],[-2,-4],[-1,1],[-1,-1],[-1,0],[-1,1],[-1,-1],[-1,0],[-1,1],[1,1],[1,-2],[1,1],[3,-1],[1,2],[0,0],[1,0],[0,2],[3,-1],[1,1],[2,0],[-1,0],[2,3],[0,0],[4,5],[-1,0],[1,2],[-1,0],[-1,1],[0,1],[1,-1],[0,-1],[1,0],[-1,-2],[1,0],[2,5],[0,-1],[0,1],[0,0],[0,-1],[0,-1],[0,0],[0,1],[0,0],[0,0],[0,0],[0,1],[1,2],[0,1],[0,2],[1,0],[0,0],[1,3],[0,1],[3,1],[1,0],[2,2],[0,-2],[-1,-2],[0,1],[-2,0],[0,-1],[-2,-1],[0,0]],[[7738,2304],[1,-1],[0,-2],[-1,0],[0,4],[-1,1],[-1,2],[1,-1],[0,-1],[1,0],[0,-2]],[[7756,2320],[-3,-4],[-2,-4],[1,-1],[-3,-1],[0,-1],[0,0],[0,-6],[1,-1],[0,-1],[-1,-4],[-1,3],[0,1],[2,0],[-1,2],[0,5],[0,1],[0,2],[2,1],[0,4],[0,-1],[2,3],[2,1],[0,1],[1,0]],[[7744,2336],[0,-1],[0,-1],[0,0],[0,-3],[2,0],[-2,0],[0,3],[0,2],[0,0],[0,1],[-2,-1],[0,-3],[-3,-2],[-1,-1],[-1,-1],[0,-2],[-2,-1],[-1,-3],[-3,-3],[0,-3],[1,-2],[0,0],[0,-1],[-1,3],[-1,0],[-1,-3],[-1,-1],[0,-1],[0,-2],[1,-2],[0,-1],[-1,-2],[0,-1],[-1,0],[2,5],[-1,1],[0,2],[-2,-3],[0,-1],[0,-1],[0,-1],[0,-3],[-1,-1],[1,1],[-1,3],[1,0],[0,1],[0,2],[2,3],[0,2],[1,0],[1,2],[-1,0],[1,1],[0,2],[0,-1],[-1,2],[-1,-1],[-1,0],[-1,-3],[0,0],[-1,0],[1,0],[-2,-2],[0,-2],[-2,-3],[0,-1],[-1,-2],[0,-4],[-1,-3],[0,-1],[1,4],[-1,2],[0,-1],[0,1],[1,1],[0,3],[1,0],[0,1],[1,2],[0,2],[1,0],[0,1],[1,2],[1,2],[0,2],[-1,-2],[-2,0],[1,1],[0,0],[0,1],[0,2],[0,-1],[3,1],[-1,2],[0,1],[0,1],[0,1],[1,-5],[4,0],[1,1],[2,6],[4,6],[-2,1],[-1,-1],[0,0],[-2,0],[-1,1],[0,0],[-2,0],[0,-2],[-2,-1],[1,1],[0,2],[1,-2],[0,2],[3,0],[2,-1],[1,1],[2,-1],[0,2],[-1,1],[-1,-1],[-2,0],[8,2],[0,-1],[0,-1],[1,1],[-1,0],[1,1],[2,0],[-1,-3]],[[7741,2338],[-1,-1],[0,-1],[-2,1],[3,-2],[1,-1],[0,1],[-1,0],[0,1],[-1,0],[1,1],[0,1],[0,0]],[[7742,2330],[3,-1],[0,-2],[-3,-4],[-1,-5],[-1,0],[3,7],[-1,5]],[[7757,2340],[2,-1],[0,-1],[1,2],[-2,-3],[0,1],[-2,-1],[-2,0],[3,1],[0,2],[-1,2],[1,-2]],[[7789,2129],[1,-4],[-1,-6],[0,-10],[-1,-4],[0,-9],[0,-2],[-1,7],[1,9],[-1,5],[1,3],[1,6],[0,3],[-2,6],[0,3],[-1,1],[0,4],[-1,1],[2,-1],[1,3],[-1,5],[-1,10],[-1,3],[0,8],[2,4],[3,12],[1,2],[1,6],[1,2],[0,3],[1,3],[-1,8],[0,4],[4,5],[1,5],[-2,10],[2,2],[-1,3],[1,1],[0,2],[4,-1],[0,1],[-1,0],[1,0],[2,-2],[1,12],[1,0],[0,-1],[1,-1],[0,0],[1,0],[3,-3],[1,0],[0,2],[1,2],[-1,-2],[0,-2],[-1,-1],[-2,0],[-2,2],[-2,0],[0,-2],[-1,-4],[2,-6],[5,1],[3,4],[0,3],[1,3],[-1,-2],[1,-3],[-2,-6],[0,-2],[-2,1],[-3,-1],[0,-7],[0,-1],[2,-1],[2,2],[-4,-3],[0,-4],[1,-2],[7,-16],[0,-4],[1,-5],[0,-2],[1,-3],[1,-5],[-1,0],[0,2],[0,3],[-1,2],[0,3],[0,1],[-2,5],[0,2],[-2,7],[-1,0],[0,1],[-1,2],[-3,5],[0,-4],[-1,-2],[0,-4],[1,-4],[-1,-2],[-1,9],[2,7],[-1,2],[-1,13],[-1,1],[-4,3],[-2,-1],[0,-5],[-1,-2],[0,-1],[0,-2],[1,-4],[0,-4],[-1,-2],[-1,-1],[1,0],[-1,-5],[0,-5],[-1,-10],[1,-2],[0,-1],[2,0],[-1,0],[0,-1],[3,-1],[0,-1],[-1,-1],[1,0],[1,-4],[0,0],[1,0],[-1,0],[1,-1],[0,-2],[2,-1],[1,-1],[2,-5],[1,0],[1,-2],[4,0],[-3,-1],[2,-5],[-5,8],[-3,2],[0,2],[-1,0],[-2,2],[-3,8],[-1,2],[-3,0],[-1,-1],[0,-3],[0,-2],[2,-2],[1,-4],[-1,-1],[1,-1],[0,-1],[2,-1],[2,-3],[0,-2],[0,0],[1,-3],[0,-4],[2,-3],[-1,-3],[4,-9],[2,-2],[0,-3],[2,-2],[0,-5],[3,-7],[0,-4],[1,-2],[0,1],[0,1],[0,-2],[-1,-1],[1,1],[0,-3],[1,-8],[-2,-5],[-1,-3],[0,-2],[-3,-6],[1,-2],[0,-3],[0,-1],[1,1],[0,2],[0,1],[0,1],[1,2],[1,1],[-2,-4],[1,-2],[-1,0],[0,-2],[-1,0],[1,-3],[-1,-1],[2,-5],[0,-3],[1,-2],[-1,1],[-1,-1],[0,-1],[0,-1],[0,3],[0,4],[-1,2],[-1,5],[-2,0],[-2,-5],[1,-3],[-1,-2],[2,-3],[-1,0],[-1,1],[0,0],[2,-5],[-2,4],[-1,1],[0,2],[0,-1],[-1,2],[0,-1],[-1,3],[1,1],[0,5],[-1,2],[2,0],[2,3],[3,9],[-3,3],[1,1],[2,-2],[2,0],[-1,1],[1,0],[0,6],[2,3],[-2,1],[-2,-1],[1,1],[2,1],[1,-2],[1,3],[-1,3],[0,1],[-1,7],[-3,5],[-2,9],[-1,3],[-1,0],[0,4],[-1,1],[-1,0],[-2,4],[-1,0],[-1,-2],[0,-1],[1,-1],[-1,-6],[0,-3],[-1,-3],[0,-1],[1,0],[-1,-3],[1,0],[-1,-2],[1,-1],[-1,-2],[1,-5],[4,-6],[-6,6],[1,2],[-1,0],[0,8],[0,5],[1,0],[-1,1],[1,2],[-1,6],[1,7],[1,1],[0,2],[1,-1],[0,1],[0,1],[0,2],[-1,-1],[0,2],[-1,0],[1,1],[-3,4],[0,3],[-1,1],[-1,6],[-3,5],[-1,-1],[-2,0],[-1,-2],[0,-1],[-1,-3],[0,-2],[-1,-3],[1,-2],[1,-7],[0,-8],[1,-14],[1,-3],[-1,-3]],[[7809,2088],[-4,-6],[-1,-5],[1,-2],[1,1],[0,4],[0,1],[1,1],[1,3],[2,0],[0,3],[-1,0]],[[7814,2107],[-1,0],[-1,-1],[2,-1],[1,2],[-1,1],[0,-1]],[[7798,2107],[1,0],[-1,-1],[0,-2],[1,0],[-1,-2],[1,-1],[0,-3],[1,-2],[0,-2],[0,-2],[0,-1],[0,-1],[-1,-1],[1,-1],[-1,-1],[-1,-1],[0,1],[2,6],[-1,0],[1,1],[-2,0],[1,0],[1,2],[-1,0],[0,4],[-1,1],[0,2],[0,0],[0,4],[1,3],[-1,3],[1,1],[-1,2],[0,4],[2,-2],[-1,-2],[0,-4],[1,-2],[0,-1],[-1,0],[0,-1],[0,0],[0,0],[-1,0],[0,-2],[0,0],[0,1]],[[7844,2089],[7,1],[2,2],[0,2],[1,-1],[0,-3],[-1,-1],[-7,0],[-4,-2],[2,2]],[[7853,2097],[-2,-1],[-4,-1],[0,0],[6,2],[1,2],[-1,-2],[0,0]],[[7855,2103],[0,3],[-1,0],[-3,0],[-2,-2],[1,2],[3,2],[3,1],[3,3],[1,5],[1,-1],[-2,-7],[-3,-5],[-1,-1]],[[7847,2111],[-3,-6],[-1,-1],[2,6],[2,1]],[[7818,2122],[0,-4],[1,-1],[0,-1],[0,0],[0,0],[-2,-9],[-1,-2],[0,-3],[0,-4],[1,-1],[-1,0],[1,0],[0,0],[0,-1],[-2,-3],[2,3],[-2,0],[1,1],[0,1],[-1,-1],[0,-1],[-1,-1],[0,0],[2,2],[-1,1],[0,1],[1,-1],[0,4],[0,3],[3,10],[-1,4],[0,3],[0,0]],[[7832,2133],[-1,0],[0,-1],[0,1],[-2,-1],[-2,0],[1,0],[1,2],[1,0],[0,1],[2,0],[0,-2]],[[7797,2278],[2,-2],[2,2],[0,-1],[1,1],[0,0],[1,0],[0,0],[-1,-3],[-3,1],[-2,-1],[-1,0],[-2,-3],[0,1],[0,1],[-1,0],[1,1],[0,-1],[0,2],[0,-1],[2,2],[0,3],[1,0],[0,-2]],[[7836,2519],[0,5],[-2,23],[1,4],[-1,4],[0,3],[2,3],[-1,4],[0,0],[1,6],[1,4],[0,4],[2,4],[-1,2],[-3,1],[1,1],[-1,0],[2,0],[1,2],[0,1],[0,1],[1,2],[0,4],[-2,5],[-2,1],[-1,-1],[1,5],[-2,0],[1,3],[-1,3],[0,3],[-1,1],[1,1],[0,1],[-1,0],[-1,-2],[-1,-1],[-1,-1],[0,-1],[0,2],[-2,-2],[-1,0],[0,-2],[0,-2],[-2,2],[1,-4],[3,-1],[0,-2],[0,-3],[-2,4],[-2,-2],[-2,2],[0,-2],[-2,0],[0,-1],[-1,-2],[1,-3],[2,-3],[-2,0],[-1,1],[-1,-2],[0,-3],[0,-4],[2,-2],[-1,0],[0,-1],[1,-3],[-1,2],[-2,2],[-2,7],[0,4],[-3,-3],[4,-6],[1,-4],[1,0],[-2,-6],[0,4],[1,0],[0,2],[0,1],[-4,8],[0,-1],[-1,-2],[0,-1],[-2,0],[0,0],[2,-1],[0,0],[-1,-1],[0,0],[-1,1],[-2,0],[-1,-5],[0,2],[-1,1],[-1,-3],[0,-4],[0,1],[0,3],[1,7],[0,1],[0,1],[-1,0],[1,1],[-1,-1],[-2,1],[-1,-2],[0,-2],[1,-1],[0,-3],[0,1],[1,0],[-1,-1],[-1,0],[-1,-6],[0,-5],[0,0],[0,-1],[1,1],[1,-5],[4,1],[-2,-2],[-2,0],[1,-3],[3,-4],[0,0],[1,-2],[1,0],[1,1],[0,-1],[0,-1],[0,0],[3,-4],[1,-2],[-1,1],[-1,2],[-7,5],[0,1],[-2,2],[1,-3],[0,1],[-2,9],[-2,2],[-1,-1],[-2,-4],[0,-3],[1,1],[1,-2],[2,-7],[-2,1],[-1,5],[-2,2],[-1,-2],[-1,-4],[-2,0],[1,12],[1,3],[1,1],[0,4],[0,2],[0,0],[-3,-4],[-1,-1],[0,-2],[0,-1],[0,1],[-2,-6],[-1,1],[-3,-5],[-1,-2],[-1,0],[0,-3],[0,2],[0,-1],[-3,-7],[0,-1],[0,0],[-1,-5],[0,-1],[0,0],[-1,-3],[1,-5],[-1,1],[0,3],[0,6],[-1,1],[-3,-1],[-2,0],[-2,2],[0,1],[1,2],[-2,3],[0,-2],[-1,0],[1,-10],[0,-6],[0,-2],[1,0],[-3,1],[2,7],[-2,11],[1,2],[1,0],[3,6],[1,1],[3,-5],[3,4],[0,3],[0,2],[0,5],[2,3],[3,2],[0,3],[3,2],[2,3],[0,1],[-1,2],[0,0],[4,4],[1,8],[3,8],[1,1],[1,-1],[2,-1],[0,2],[0,0],[2,-5],[3,-2],[2,2],[1,-1],[4,2],[1,4],[-4,2],[-1,2],[0,5],[0,3],[3,9],[2,2],[5,3],[2,3],[4,1],[2,-2],[6,6],[0,4],[0,6],[1,1],[0,1],[1,0],[1,1],[-4,2],[-1,4],[-2,1],[1,6],[-3,2],[2,2],[2,-1],[1,1],[1,-1],[-1,-2],[0,-1],[0,-1],[-1,-5],[1,-3],[2,-2],[3,-1],[0,-2],[1,-1],[0,-4],[-1,1],[-1,2],[-1,0],[-1,-1],[0,-4],[0,-3],[1,0],[-2,-3],[0,-5],[-1,-1],[1,-1],[1,-3],[5,3],[1,-2],[2,-2],[0,-1],[1,-2],[0,1],[2,0],[0,-2],[-1,-1],[-1,1],[1,-4],[-2,-1],[0,-1],[2,-1],[0,-3],[2,1],[0,1],[-1,0],[0,2],[1,-4],[1,-1],[0,-5],[2,0],[1,0],[-1,-1],[0,-3],[2,-2],[-2,-2],[1,-4],[1,-1],[1,-5],[1,-1],[-1,-1],[-1,1],[1,-3],[0,-2],[0,-2],[1,0],[1,-2],[-1,-2],[1,-7],[3,-1],[-1,-2],[2,-4],[0,0],[-2,2],[-2,3],[-1,2],[-1,-1],[0,-3],[0,0],[0,-4],[1,-5],[-1,-1],[1,0],[1,-3],[1,0],[3,-2],[0,1],[3,-1],[0,-1],[-1,0],[-1,0],[-2,1],[-1,1],[-2,0],[3,-9],[3,1],[1,3],[1,0],[-2,-3],[0,0],[0,-1],[0,0],[-1,0],[2,0],[0,-1],[1,0],[0,0],[0,0],[-1,-2],[0,1],[0,-1],[-1,-1],[0,0],[0,0],[0,-2],[1,-3],[1,0],[2,0],[0,0],[1,-2],[-1,-1],[1,1],[0,0],[0,0],[0,-1],[-1,0],[0,-1],[3,-4],[2,-5],[-1,-3],[-1,-1],[0,2],[-1,1],[-3,1],[0,0],[0,0],[-1,1],[-1,0],[0,-1],[0,0],[0,1],[-1,1],[-1,0],[-1,-1],[0,0],[0,-1],[1,-1],[-1,-2],[1,0],[1,-1],[-1,-1],[1,-1],[0,-3],[2,-1],[-1,-2],[0,1],[0,-1],[0,0],[0,0],[0,-1],[0,-2],[0,0],[1,0],[-1,-1],[-2,1],[0,0],[0,0],[0,0],[-3,1],[-1,0],[1,1],[-1,0],[0,0],[0,1],[0,0],[0,-1],[-1,1],[0,6],[-2,15],[-1,1],[1,7],[-4,9],[0,2],[-2,3],[0,7],[-1,2],[0,7],[-1,2],[0,4],[-1,1],[-2,-3],[-2,-7],[-1,-23],[1,-21],[0,-5],[-2,0]],[[7858,2532],[-1,1],[-1,-2],[1,0],[0,-1],[-1,0],[1,-1],[1,-1],[1,-1],[2,-1],[1,0],[1,2],[-1,0],[0,0],[0,0],[0,0],[0,0],[0,0],[-1,0],[0,0],[-2,4],[-1,0]],[[7863,2527],[0,-3],[3,-1],[0,0],[-1,0],[0,2],[-2,2]],[[7828,2564],[-2,-6],[1,0],[-1,-1],[0,-1],[1,0],[-1,-4],[-1,0],[0,1],[-1,0],[0,-1],[-2,0],[3,2],[0,3],[-1,0],[0,0],[1,1],[1,1],[0,4],[2,1]],[[7820,2577],[0,-3],[0,0],[1,-1],[0,-1],[-1,0],[0,-2],[-2,-3],[-1,1],[0,-3],[-1,-1],[0,4],[1,1],[1,1],[-1,1],[1,1],[-3,-3],[-1,0],[0,2],[2,2],[1,0],[0,1],[1,1],[0,0],[1,4],[1,-2]],[[7861,2561],[5,-1],[0,-1],[0,0],[1,0],[-5,1],[0,-3],[0,3],[-1,-1],[0,2]],[[7857,2568],[2,-2],[2,0],[2,0],[-2,0],[-1,-1],[0,-2],[1,-2],[-1,0],[0,2],[-2,2],[-1,3]],[[7857,2571],[-1,0],[0,2],[5,-1],[2,1],[-1,1],[1,2],[-1,-2],[1,-2],[1,1],[1,1],[1,1],[-1,-2],[1,-3],[-1,2],[-2,0],[0,1],[-2,-2],[-3,1],[-1,0],[0,0],[0,0],[0,-1]],[[7852,2584],[3,3],[2,-1],[1,-1],[-3,1],[0,1],[0,-1],[-2,-3],[1,-2],[0,0],[0,-1],[1,1],[1,0],[1,-1],[-2,1],[0,-1],[-1,0],[-2,4]],[[7860,2604],[1,0],[0,1],[1,1],[-1,-2],[-2,-1],[0,1],[1,1],[0,-1]],[[7853,2628],[4,5],[0,0],[0,-1],[-3,-3],[-1,-4],[0,-1],[1,2],[-1,2]],[[7858,2640],[1,-1],[0,-3],[-1,1],[0,0],[0,-1],[0,-2],[0,1],[-1,-2],[0,-1],[0,0],[1,4],[0,4]],[[7845,2651],[-1,3],[1,0],[0,-1],[0,-1],[0,1],[1,-2],[0,-1],[0,0],[0,-1],[0,-1],[-1,-3],[-1,-1],[0,1],[1,1],[-1,0],[1,3],[0,-1],[0,2],[1,0],[-1,0],[1,0],[0,1],[-1,0]],[[7874,2558],[0,-4],[0,-2],[0,0],[0,2],[0,0],[0,1],[-1,1],[0,2],[1,0]],[[7869,2584],[0,5],[1,0],[0,-2],[0,1],[-1,0],[1,0],[0,-2],[0,-2],[-1,0]],[[7868,2601],[2,-3],[4,2],[-4,-4],[1,-3],[2,-2],[3,1],[-2,-2],[-1,0],[-1,2],[0,-2],[2,-5],[4,-2],[0,-2],[-1,0],[-1,-1],[1,-7],[1,-1],[3,0],[-3,-1],[-2,0],[0,0],[0,-1],[1,0],[-1,-3],[0,-3],[-1,1],[1,0],[-1,0],[0,-1],[-1,-2],[0,-1],[0,0],[0,0],[0,0],[-1,-2],[1,-1],[-1,0],[0,1],[1,4],[1,1],[-1,2],[2,4],[0,4],[-1,4],[0,1],[-1,3],[-1,0],[0,0],[1,0],[0,1],[-1,-1],[0,1],[0,0],[0,0],[1,0],[-1,2],[-1,1],[-3,7],[-1,5],[-1,1],[-1,7],[-1,0],[0,2],[-1,0],[-1,-1],[1,1],[-1,1],[1,2],[-1,2],[1,2],[-1,2],[1,4],[-1,1],[1,4],[0,2],[0,0],[0,1],[0,0],[0,1],[0,1],[-1,0],[1,1],[-1,0],[0,0],[3,0],[0,-4],[-2,-6],[0,-6],[0,-1],[1,1],[0,-1],[-1,-1],[0,-2],[2,-2],[2,0],[4,-5],[-3,3],[-1,0],[-1,-2],[1,-2],[0,-3]],[[7845,2672],[4,-6],[2,-6],[2,-2],[1,0],[1,-3],[2,-1],[2,2],[-1,-2],[0,0],[-1,0],[0,-1],[0,0],[-1,-2],[5,-4],[1,2],[0,-1],[-1,-2],[2,-3],[2,1],[1,-1],[2,3],[1,7],[-3,3],[1,3],[1,-4],[2,1],[1,-4],[2,1],[4,4],[1,2],[0,3],[0,3],[-2,1],[0,2],[0,0],[1,-1],[2,-4],[2,-2],[0,1],[3,-1],[-4,-1],[-1,-3],[-2,-1],[0,-1],[0,0],[1,-2],[1,0],[2,-2],[-1,1],[-1,-1],[0,-1],[-1,-2],[0,-1],[1,-1],[1,-1],[-1,1],[-1,0],[1,-1],[1,-1],[0,1],[2,0],[1,-2],[2,0],[1,-1],[0,0],[-2,0],[-3,2],[-2,0],[-4,7],[-4,-3],[-1,-3],[0,-1],[2,0],[2,-5],[5,-2],[1,-1],[4,-4],[2,-1],[2,-1],[3,-1],[0,-3],[-2,3],[-4,1],[-2,-7],[1,0],[0,0],[0,-1],[-1,-1],[1,-3],[1,-1],[3,-4],[0,0],[1,-2],[-2,0],[-1,3],[-1,1],[-3,7],[0,3],[-3,1],[2,2],[0,1],[0,3],[-2,4],[-3,0],[-1,-3],[1,-2],[-1,-1],[1,1],[-1,1],[0,2],[-2,3],[-1,-2],[1,1],[0,-1],[-1,0],[1,-1],[-2,-2],[1,4],[-2,4],[-1,0],[-1,0],[0,-1],[1,-2],[0,-4],[-1,2],[-2,0],[0,-2],[-3,0],[-1,2],[0,0],[0,2],[-1,1],[0,2],[0,0],[-1,2],[0,-1],[0,2],[-2,-2],[-1,3],[-1,0],[0,-1],[-1,2],[-1,0],[-1,5],[-2,1],[-1,4],[-3,2],[0,0],[-3,1],[0,-4],[-2,2],[1,7],[-1,1],[-1,0],[0,1],[-1,2],[-1,2],[-3,0],[1,-4],[0,-2],[-2,5],[-1,0],[-1,-3],[0,0],[1,3],[-1,2],[2,-1],[1,4],[0,2],[0,2],[-1,1],[3,2],[4,-2],[0,-2],[2,-1],[1,-3]],[[7865,2661],[1,-2],[0,-1],[1,0],[-2,-2],[0,0],[0,1],[-1,0],[1,2],[-1,2],[1,0]],[[7878,2556],[-2,2],[1,0],[-1,0],[0,0],[-1,1],[1,1],[-1,0],[0,-1],[0,0],[0,1],[-1,0],[1,0],[0,0],[-1,0],[1,2],[0,0],[0,-1],[0,0],[0,0],[0,0],[0,0],[0,0],[1,-1],[0,0],[0,-1],[0,0],[0,0],[0,0],[0,0],[0,0],[0,0],[0,0],[0,0],[0,0],[0,0],[0,0],[0,0],[0,0],[0,0],[0,0],[0,0],[0,0],[0,0],[0,0],[0,0],[0,0],[0,0],[-1,0],[0,0],[1,0],[0,0],[0,0],[0,0],[0,0],[0,0],[0,0],[0,0],[0,0],[1,0],[1,-2],[0,0],[0,-1]],[[7937,2591],[2,-5],[1,-1],[0,-5],[1,-5],[0,1],[-1,0],[-1,-1],[-1,-2],[0,1],[0,0],[1,1],[1,1],[0,1],[-1,2],[0,0],[0,0],[-1,-1],[-1,0],[0,0],[0,0],[0,0],[2,0],[0,1],[-1,1],[0,0],[1,0],[1,3],[-3,6],[0,0],[-2,-3],[-3,-2],[0,1],[0,0],[-1,1],[0,0],[1,0],[0,-2],[2,1],[3,6]],[[7893,2602],[1,-4],[-2,-6],[0,-2],[1,0],[-2,-7],[0,-6],[-1,0],[1,-1],[-2,-1],[1,7],[0,5],[1,1],[0,4],[2,10]],[[7911,2633],[3,-3],[0,-4],[2,-3],[2,-3],[4,-1],[0,-5],[2,-5],[2,0],[1,-3],[3,-1],[1,-2],[2,0],[1,-3],[1,-1],[0,-4],[2,-2],[0,-2],[-2,3],[-2,-2],[0,0],[0,0],[-1,0],[2,1],[0,2],[0,-1],[1,0],[0,4],[-2,2],[0,-1],[0,0],[-1,0],[0,0],[0,1],[1,0],[0,1],[-1,1],[-1,0],[0,2],[-2,1],[-1,-4],[0,-2],[0,-1],[0,0],[0,0],[-1,-1],[0,-2],[1,-3],[-1,3],[-1,-3],[1,2],[-1,0],[0,0],[1,1],[0,2],[1,3],[-1,1],[1,0],[0,0],[-1,0],[0,1],[0,0],[0,0],[1,-1],[0,0],[0,3],[-2,4],[-1,0],[-1,-5],[1,-1],[-1,1],[-2,-3],[0,-2],[0,-1],[0,2],[-1,0],[1,0],[0,1],[1,2],[-1,0],[-1,0],[2,0],[1,2],[-1,1],[0,0],[1,-1],[0,3],[-1,2],[0,-1],[0,1],[0,0],[0,0],[-1,0],[0,0],[0,0],[1,1],[0,1],[-1,2],[0,-1],[-1,0],[0,0],[1,1],[0,5],[-3,1],[0,-4],[0,2],[0,2],[-2,1],[0,-1],[0,0],[0,-1],[0,0],[0,3],[-2,3],[-1,-1],[1,2],[-1,1],[-1,3],[-2,2],[-2,-7],[1,-3],[1,1],[-1,-2],[0,0],[3,-3],[1,1],[-2,-3],[1,-2],[2,-1],[1,0],[1,0],[0,0],[1,1],[0,-1],[0,0],[-2,0],[-2,0],[-1,1],[0,-2],[3,-3],[1,0],[0,0],[0,-1],[2,1],[-1,-1],[0,-1],[-4,4],[-2,2],[-1,0],[0,-1],[1,-1],[-1,-1],[0,-3],[2,-2],[1,1],[-1,-1],[0,0],[0,-2],[2,0],[2,0],[-4,-1],[0,-2],[3,0],[-2,-1],[0,0],[-1,1],[0,-2],[4,-5],[1,0],[-1,2],[1,-1],[0,1],[0,-2],[1,2],[-2,-3],[2,-5],[1,1],[0,2],[0,-2],[2,1],[-2,-2],[1,-3],[4,0],[2,2],[0,1],[0,-1],[-1,-2],[-2,-1],[1,0],[2,-1],[-4,1],[-2,0],[1,-6],[2,-2],[2,1],[-2,-2],[1,-3],[0,0],[1,1],[1,1],[-2,-2],[2,-3],[0,-2],[2,-2],[-2,2],[-3,6],[-2,4],[-1,7],[-1,1],[-3,8],[-4,5],[-1,9],[-1,2],[-1,4],[2,3],[0,4],[-3,1],[0,6],[1,4],[1,4]],[[8041,2948],[10,-13],[7,0],[0,-2],[-2,-3],[-1,0],[0,3],[-5,1],[0,1],[-5,4],[-1,4],[-3,3],[-1,3],[-1,1],[1,3],[-1,3],[-1,5],[-1,2],[1,3],[-2,8],[0,5],[1,-1],[4,-30]],[[8083,2949],[-2,0],[0,-2],[-2,2],[-1,2],[-1,0],[-1,5],[-1,0],[-4,-4],[0,2],[-1,1],[-4,-3],[-1,-2],[-1,-2],[2,8],[10,8],[7,-15]],[[8022,2989],[1,-7],[1,-3],[5,-9],[4,5],[2,5],[0,-7],[-4,-7],[-2,-5],[2,-6],[0,-2],[-4,7],[-3,2],[-3,3],[0,0],[-2,-5],[-2,-2],[-1,-6],[-2,0],[1,2],[1,5],[2,2],[1,6],[-6,4],[-2,2],[-3,-3],[2,5],[4,-2],[5,-2],[1,1],[0,-2],[3,-1],[2,-3],[2,0],[2,2],[0,1],[-4,2],[-1,2],[-3,6],[-1,9],[-1,2],[1,5],[-2,2],[0,6],[0,1],[-1,0],[-4,-3],[-4,0],[-1,-1],[-1,2],[-2,-1],[-3,-5],[-1,6],[-2,1],[-1,2],[-2,0],[-2,3],[0,2],[0,0],[3,-3],[4,-1],[3,0],[2,1],[0,0],[-1,4],[-3,6],[0,3],[0,3],[1,0],[0,1],[-1,-1],[-3,2],[-2,-1],[-6,4],[-1,5],[-2,5],[1,1],[0,2],[-4,5],[1,2],[2,-1],[2,1],[3,4],[0,5],[-4,4],[-3,7],[-1,2],[-1,-1],[-1,3],[-1,0],[-3,-2],[-1,-4],[-1,1],[0,4],[-1,1],[-2,-1],[-1,1],[-1,-3],[-4,4],[-2,-1],[-1,2],[-3,1],[-3,-1],[0,-3],[-1,2],[3,7],[-2,4],[-1,7],[0,2],[-1,3],[0,3],[-1,4],[2,4],[-1,4],[1,1],[3,-8],[1,-22],[1,-4],[3,-3],[3,-1],[13,3],[4,-1],[4,-2],[5,-6],[2,-8],[-3,-20],[1,-9],[1,-2],[3,-2],[4,0],[2,-1],[2,-4],[3,-11],[2,-4],[2,-1],[7,-1],[1,-1],[1,-7],[-1,-8]],[[8075,6391],[1,0],[1,2],[1,-2],[-1,1],[0,-2],[-1,-6],[0,-2],[0,7],[-3,0],[2,0],[0,2]],[[8095,6667],[4,0],[2,-10],[-1,-7],[-1,3],[-2,-2],[-1,1],[-2,3],[-2,0],[1,9],[2,0],[0,3]],[[7846,7100],[-2,6],[0,4],[-2,3],[3,-1],[0,-5],[2,-6],[3,-5],[4,-8],[1,-2],[5,-2],[3,3],[5,-2],[2,-6],[-1,-3],[1,-2],[1,-1],[2,0],[4,-3],[1,-7],[3,-3],[-1,-4],[0,-1],[5,-5],[3,-6],[6,-1],[2,-5],[1,1],[1,-3],[1,1],[4,-8],[3,-13],[2,-4],[4,-5],[1,-4],[3,0],[5,-5],[2,-3],[2,-2],[0,-1],[1,0],[2,-4],[1,-2],[0,-2],[-1,-2],[2,-4],[3,-1],[1,-1],[0,-1],[-1,1],[2,-4],[5,-2],[2,-4],[3,-3],[3,-1],[3,-2],[7,1],[5,8],[-1,0],[2,1],[-1,4],[2,4],[-1,3],[2,3],[2,6],[1,1],[1,6],[2,4],[0,3],[1,3],[1,1],[3,4],[2,0],[2,-2],[5,-1],[-1,-1],[-2,0],[-1,-1],[-3,-5],[-1,-7],[-1,-3],[-3,-1],[-2,-4],[-3,-2],[0,-3],[1,-5],[-1,-9],[0,-1],[-3,-4],[2,0],[2,-7],[-3,-1],[-2,2],[-2,1],[-2,-4],[-2,-14],[-8,5],[-13,0],[-1,3],[-1,6],[-1,-5],[-2,2],[0,-1],[-4,2],[-5,5],[-3,7],[0,2],[-1,5],[-2,3],[-8,1],[0,-5],[4,-14],[0,-9],[1,-8],[-1,-15],[1,-5],[3,-9],[0,-4],[-1,-4],[-3,-2],[-2,-1],[-5,1],[-1,-1],[-1,-3],[1,-8],[2,-14],[0,-16],[-4,0],[1,13],[-1,12],[-4,17],[0,3],[2,3],[3,1],[5,0],[1,2],[1,2],[-2,24],[-2,9],[0,14],[-3,6],[-1,0],[1,11],[-1,7],[1,4],[-1,3],[0,4],[-1,3],[1,9],[-1,2],[0,4],[-2,7],[-1,3],[-2,2],[0,1],[-2,4],[-4,5],[-2,0],[-8,0],[0,-6],[0,-2],[-1,-6],[-3,0],[-1,-1],[-2,1],[-2,-5],[-1,-5],[2,-7],[-2,-12],[0,-6],[0,-2],[0,-3],[-2,-3],[-1,1],[-1,-2],[-1,3],[0,-1],[0,-1],[-1,-1],[1,-1],[-1,-3],[-1,-1],[1,-4],[-1,-1],[1,-4],[-1,0],[1,0],[0,-2],[-1,-6],[-2,-2],[3,8],[-1,2],[0,3],[0,2],[0,4],[1,4],[0,1],[1,1],[0,1],[0,1],[1,-1],[2,2],[0,2],[1,4],[-1,4],[-2,4],[-1,4],[2,3],[1,1],[-1,1],[-2,0],[0,2],[1,16],[-2,6],[-5,11],[-6,9],[-2,5],[-5,11],[-2,7],[-5,26],[5,5]],[[8023,7121],[3,11],[-1,4],[-3,6],[1,-1],[0,1],[1,-1],[1,1],[0,3],[1,2],[0,6],[1,5],[0,3],[-2,3],[0,3],[-2,0],[-2,6],[0,0],[0,1],[1,4],[0,-1],[0,-4],[2,-4],[2,-1],[0,-4],[2,-2],[0,-5],[1,3],[1,1],[-1,3],[2,1],[1,5],[2,0],[2,5],[0,2],[1,0],[0,-2],[-3,-6],[-1,-1],[-1,1],[-1,-4],[-1,-1],[0,-3],[0,-2],[0,1],[1,-1],[2,0],[1,-2],[0,0],[-2,1],[-1,-1],[-1,1],[-3,-5],[1,-2],[-2,-7],[-1,-3],[-1,-2],[3,-6],[1,-3],[-2,0],[-3,-9]],[[8098,7370],[2,1],[0,2],[0,12],[1,1],[2,0],[-1,-3],[1,-1],[-1,-5],[0,0],[-1,-19],[-1,4],[-1,0],[1,4],[0,4],[-2,0]],[[7729,7587],[-1,-1],[0,5],[-3,1],[0,8],[-1,7],[1,5],[2,2],[6,-2],[7,3],[-8,-4],[-4,-1],[0,-2],[-1,0],[1,-9],[1,-5],[-1,-6],[1,-1]],[[7635,8248],[0,-1],[0,-8],[2,-1],[-2,-20],[2,-1],[0,2],[1,-2],[0,-1],[0,1],[-2,0],[-2,1],[-2,6],[0,2],[1,1],[1,0],[0,2],[2,5],[0,3],[-1,1],[-1,3],[0,3],[-1,1],[-1,-2],[1,2],[1,0],[1,3]],[[7631,8241],[-2,-4],[0,-3],[-3,0],[3,1],[2,6],[0,0]],[[9685,8761],[-1,-1],[-1,0],[-1,-1],[1,-2],[-3,-3],[0,-5],[-2,-3],[-1,-2],[-2,1],[0,4],[-1,0],[-1,3],[-1,1],[-1,-1],[-1,5],[-1,2],[-1,1],[0,0],[0,-3],[-1,-2],[-2,5],[1,0],[-1,9],[1,1],[0,2],[-1,4],[-1,1],[-2,-2],[-1,-5],[-1,-2],[-2,5],[-1,2],[-1,4],[0,3],[5,4],[0,3],[1,1],[1,3],[1,5],[-5,1],[-2,3],[-2,0],[-1,-1],[-1,-4],[0,1],[0,-2],[0,-2],[-2,6],[2,4],[0,1],[-7,-3],[-2,-1],[0,1],[-1,1],[0,3],[2,0],[0,1],[-1,1],[0,1],[1,-1],[0,1],[1,-1],[0,1],[1,-2],[3,1],[1,1],[4,-1],[0,1],[1,-2],[2,1],[0,-1],[4,1],[0,1],[2,1],[2,2],[2,-1],[3,7],[2,2],[-1,1],[4,7],[0,2],[1,5],[0,2],[-2,0],[0,1],[0,2],[-1,6],[-2,2],[-2,0],[1,2],[1,2],[0,2],[1,4],[0,6],[-1,2],[1,1],[-2,6],[3,1],[0,-1],[0,0],[2,-11],[-1,-3],[2,-7],[0,-5],[3,-10],[1,-1],[0,-1],[-1,-2],[1,-2],[-1,-3],[-2,-2],[1,-1],[-1,-5],[0,1],[0,-2],[-1,0],[-1,-5],[-1,-4],[0,-1],[-1,-1],[-1,-3],[0,-1],[0,2],[-2,-3],[-2,-8],[0,-6],[-1,0],[-1,2],[-1,-3],[-1,-3],[1,-2],[2,0],[0,-1],[-1,-1],[3,-3],[1,-1],[0,-1],[2,-3],[-1,-3],[2,-6],[1,0],[2,1],[0,-1],[2,0],[1,-1],[2,1],[3,-3]],[[9917,9154],[-1,-1],[1,-1],[0,-1],[-1,0],[0,-1],[0,0],[-3,-8],[0,-1],[1,2],[0,-3],[0,-1],[0,1],[-2,-5],[1,1],[0,2],[-3,-19],[-1,-3],[1,-1],[-1,-4],[0,-1],[-1,-1],[1,-1],[-1,-1],[1,-2],[-1,0],[0,-1],[0,-1],[0,-4],[0,-17],[1,-4],[1,0],[1,-5],[0,-4],[-4,-1],[-2,5],[1,15],[-1,15],[0,10],[-1,4],[0,2],[-1,0],[0,3],[-1,-2],[0,-2],[-1,-1],[0,-7],[0,-5],[1,-4],[0,-2],[0,-1],[-1,-6],[0,-1],[-1,3],[1,4],[-2,2],[-1,-1],[-1,-4],[-3,1],[-1,16],[-2,9],[-10,3],[1,14],[3,9],[-2,1],[-1,3],[-1,8],[9,1],[5,-1],[5,-6],[4,1],[0,-2],[1,-1],[4,1],[1,2],[5,1],[2,-1]],[[9846,9848],[0,3],[1,-2],[1,1],[0,3],[-1,1],[0,3],[0,1],[0,6],[0,1],[1,3],[-1,2],[4,8],[0,0],[1,0],[0,-1],[0,-1],[2,3],[1,-1],[2,3],[2,6],[-1,3],[1,2],[1,0],[0,1],[3,6],[-1,1],[1,1],[-2,2],[1,1],[-2,3],[0,2],[-1,-1],[-3,0],[-1,-1],[-1,0],[2,5],[2,-2],[1,1],[0,0],[1,1],[-1,1],[2,3],[-2,2],[-1,-3],[-1,1],[-1,-2],[-3,5],[0,0],[0,1],[-1,2],[0,1],[-1,0],[0,2],[-1,2],[1,1],[-1,1],[-1,-1],[-1,0],[-1,-1],[-1,0],[-2,-5],[0,1],[0,1],[0,1],[0,3],[-3,6],[-2,-2],[-1,1],[1,2],[0,2],[-2,0],[-3,3],[0,1],[0,0],[-1,1],[0,1],[-1,4],[0,2],[-1,1],[0,0],[-1,1],[0,0],[-2,3],[0,1],[0,0],[-1,1],[0,1],[1,-1],[1,2],[2,-5],[1,1],[2,-4],[1,3],[1,-3],[0,2],[1,1],[0,-1],[0,0],[1,-2],[-2,-1],[1,-1],[-2,-2],[2,-3],[0,1],[2,-1],[0,1],[1,-1],[0,3],[2,-1],[0,0],[2,-2],[1,1],[0,-2],[1,0],[1,-2],[-1,-1],[1,-3],[1,3],[0,-1],[2,4],[0,1],[1,1],[-1,1],[2,5],[1,-2],[0,-1],[-1,-1],[1,-4],[-2,-4],[1,0],[2,-4],[-1,-1],[1,-2],[-1,0],[3,-3],[0,1],[2,0],[2,4],[0,-1],[-1,-1],[1,-3],[0,-2],[1,-1],[-1,-1],[1,0],[1,1],[0,1],[1,0],[0,3],[1,0],[0,1],[0,1],[1,3],[2,1],[-1,1],[2,4],[0,3],[1,2],[-1,1],[1,2],[0,2],[2,3],[-1,0],[1,2],[0,4],[3,3],[1,-1],[1,2],[-1,0],[3,6],[0,-1],[1,1],[-1,1],[1,2],[0,2],[1,3],[0,-3],[1,2],[1,-1],[0,1],[-1,1],[3,2],[-1,0],[1,2],[0,2],[0,1],[0,1],[-1,3],[-1,0],[1,1],[-1,1],[1,1],[0,-1],[1,-1],[1,1],[0,1],[1,1],[0,2],[0,2],[1,0],[0,2],[0,1],[1,-1],[0,-4],[-2,-2],[1,-2],[-2,-1],[0,-2],[0,-1],[0,-6],[0,-1],[1,2],[0,0],[1,4],[1,-2],[2,1],[0,-2],[0,1],[1,-2],[1,1],[1,-4],[1,0],[0,0],[0,-2],[2,-3],[1,2],[2,0],[1,1],[1,-1],[0,1],[1,-1],[1,0],[1,-2],[1,2],[1,-1],[1,1],[1,-1],[0,1],[1,-1],[2,1],[1,-1],[2,0],[0,-1],[1,1],[0,0],[1,0],[1,-1],[1,1],[0,-1],[1,0],[1,-1],[0,1],[2,-4],[0,1],[3,-4],[-1,-1],[1,-1],[1,0],[1,-1],[2,1],[2,-2],[3,1],[0,-1],[1,1],[1,0],[1,1],[1,-1],[2,2],[0,0],[2,2],[0,-1],[0,2],[1,-1],[1,2],[0,2],[1,2],[0,1],[2,3],[-1,2],[2,1],[-1,2],[1,1],[-1,2],[1,1],[0,3],[3,-3],[0,1],[5,-1],[1,2],[3,-1],[0,1],[8,0],[2,1],[1,-2],[-1,-2],[1,0],[0,-1],[1,-1],[-1,0],[0,-2],[1,0],[1,3],[0,-1],[1,1],[2,-5],[-1,-1],[0,1],[-1,-1],[-4,1],[0,-2],[-1,1],[-1,-1],[-1,3],[0,1],[-1,0],[-2,2],[-1,-1],[-2,2],[-1,-2],[1,-4],[0,1],[1,-2],[1,1],[1,-2],[1,-3],[1,1],[1,-1],[-1,-1],[1,-1],[0,1],[1,-1],[1,3],[1,-1],[1,1],[0,0],[1,1],[0,-1],[3,3],[2,-1],[0,2],[2,-3],[0,-2],[1,1],[0,-1],[0,-2],[0,-1],[1,2],[1,-3],[-1,0],[0,-1],[2,1],[1,-2],[-1,-1],[0,-1],[2,1],[1,-3],[-1,-2],[0,-1],[1,1],[0,-1],[1,1],[1,-1],[-1,-2],[0,1],[-1,-1],[1,-2],[-2,-6],[-1,2],[0,-2],[-1,1],[-1,-1],[0,1],[-1,-3],[0,0],[3,0],[1,-1],[0,2],[0,1],[1,-2],[0,1],[1,-2],[1,1],[-1,-2],[1,-1],[-1,-1],[1,-2],[-2,-3],[-1,0],[0,-1],[0,-1],[1,-1],[-1,-4],[1,-1],[0,-1],[-1,-2],[-1,0],[0,-1],[-1,1],[0,-3],[-1,0],[-1,-1],[1,-2],[-2,-2],[0,0],[0,-1],[-1,-2],[0,1],[-1,-2],[0,-2],[1,-2],[0,-1],[0,-1],[2,1],[1,-1],[-1,-2],[0,-3],[-1,0],[-1,1],[0,-1],[0,-1],[-1,-1],[1,-2],[-1,2],[-1,-1],[0,-4],[2,-3],[-1,-1],[1,0],[3,-5],[0,1],[1,-1],[1,-2],[-1,-1],[2,-2],[0,-1],[1,-2],[-1,-4],[0,0],[1,-2],[0,0],[1,-2],[0,0],[-1,1],[0,-2],[-1,1],[-1,0],[1,0],[1,-3],[1,1],[0,-2],[1,-2],[1,1],[1,-2],[0,1],[2,1],[7,-7],[-6,-3],[1,-6],[-2,0],[-1,3],[-1,-4],[-1,1],[0,-1],[0,0],[1,-1],[-1,-2],[0,-1],[1,2],[0,-1],[-1,-3],[-1,1],[0,-1],[0,-2],[-1,1],[0,-1],[-1,2],[-1,-2],[-2,0],[0,2],[-1,0],[1,-2],[0,0],[2,-3],[0,1],[1,-2],[1,1],[0,-1],[3,-5],[-1,-1],[1,-1],[-3,-4],[-1,1],[1,2],[-1,0],[-1,2],[-1,-2],[1,-1],[-1,-2],[-1,1],[1,2],[-1,0],[-1,3],[-1,-2],[0,-1],[0,1],[2,-2],[-3,-3],[1,-1],[1,1],[1,-1],[-1,-1],[1,-1],[-1,-1],[-2,2],[0,-1],[1,-1],[0,-1],[1,-2],[0,-1],[0,0],[2,-3],[0,-2],[1,-1],[1,0],[-1,-1],[0,-1],[1,2],[2,-2],[-1,-1],[1,-3],[-2,-4],[-1,1],[0,-1],[-1,2],[-1,-2],[-1,2],[-1,-1],[0,-3],[-1,-2],[0,-1],[0,-1],[0,-2],[0,-1],[0,-1],[0,-2],[0,-2],[0,-1],[0,-4],[0,-3],[0,-1],[0,-1],[-2,-2],[1,-1],[-1,-1],[0,-1],[-1,-2],[-1,0],[0,-1],[-1,1],[0,-1],[-2,3],[0,-1],[0,-1],[0,-1],[0,-1],[-1,-2],[1,-3],[0,-1],[1,0],[0,-1],[0,-1],[0,-1],[-1,0],[-1,-1],[1,-1],[-1,-2],[0,-1],[0,-1],[0,1],[-1,-1],[-1,1],[-1,-1],[0,1],[0,-2],[-1,0],[-1,1],[1,1],[-2,1],[0,-1],[-1,4],[-1,-1],[1,1],[-2,2],[1,1],[-1,1],[0,1],[-1,-2],[0,-1],[1,-2],[0,-1],[0,-2],[-1,1],[-1,-3],[1,-1],[0,-3],[1,-3],[0,-3],[1,-1],[-1,-2],[1,-1],[0,-2],[-1,-2],[0,0],[-1,-4],[-1,1],[0,-1],[0,-1],[0,-2],[-1,1],[-1,-2],[0,1],[-1,-1],[0,3],[-1,-1],[0,1],[-1,3],[-2,-5],[-1,1],[-1,-1],[0,2],[-1,-2],[0,0],[0,-2],[2,-2],[1,-3],[0,-4],[0,0],[0,-4],[0,-3],[-1,-4],[0,-1],[-2,-4],[-1,0],[-1,-1],[-1,1],[0,0],[1,-3],[0,-3],[-1,-4],[-2,-3],[1,-1],[0,-3],[-3,-4],[0,1],[-2,-3],[-1,1],[0,-1],[-2,1],[-2,-1],[0,1],[-2,0],[0,1],[-1,0],[1,-4],[0,0],[2,-2],[0,-2],[-1,-1],[1,-1],[-2,-3],[-1,1],[0,-1],[-1,1],[0,-1],[1,-3],[1,0],[2,-4],[0,-1],[-1,2],[0,-2],[-1,0],[0,-2],[-1,1],[-1,-3],[0,1],[-2,-3],[-1,1],[1,1],[0,1],[-1,-1],[-1,2],[-1,-2],[-1,1],[0,-1],[0,-1],[0,-2],[-1,1],[-1,-1],[-1,1],[1,1],[-2,2],[0,-3],[-1,-1],[1,0],[0,-2],[-1,1],[-2,-1],[-1,2],[0,-1],[-1,2],[0,-1],[0,3],[-1,-1],[-1,1],[0,2],[-1,3],[0,1],[0,3],[-1,-1],[-1,1],[-1,-2],[0,4],[-1,-2],[-1,2],[-1,-3],[-1,3],[2,1],[-3,4],[0,2],[-2,2],[0,0],[-1,1],[0,-1],[0,2],[-1,-1],[-2,5],[-1,-1],[0,2],[-1,1],[-3,6],[0,1],[-1,1],[0,2],[2,2],[0,4],[0,0],[1,0],[0,1],[-1,2],[2,4],[-1,1],[0,1],[-1,2],[0,1],[-1,1],[1,2],[-1,2],[2,3],[0,-1],[1,2],[-2,5],[0,3],[1,1],[-1,1],[0,-1],[-1,1],[1,3],[-2,0],[1,2],[-1,1],[0,1],[-1,3],[1,2],[0,2],[1,3],[-1,1],[3,4],[-1,1],[0,2],[0,2],[0,0],[-1,2],[1,2],[-1,1],[-1,-1],[-1,1],[-1,-1],[0,1],[-2,4],[1,2],[-1,0],[-1,3],[0,1],[1,1],[0,1],[0,2],[0,1],[-1,2],[0,0],[0,1],[1,2],[-1,1],[-1,-3],[-1,3],[1,1],[1,-1],[3,8],[1,-1],[-1,-1],[0,-1],[5,9],[1,-1],[0,1],[1,-1],[3,5],[0,0],[0,0],[-2,2],[0,1],[-1,2],[1,1],[-1,1],[0,1],[-1,5],[0,0],[0,4],[0,1],[0,1],[2,5],[-1,1],[1,1],[-1,2],[-3,-1],[-3,5],[0,2],[-1,2],[1,1],[-1,1],[0,1],[-1,3],[-1,-1],[-1,1],[-1,-1],[0,-1],[1,0],[2,-3],[0,-2],[-1,-2],[0,0],[0,-2],[1,-2],[-1,0],[-1,1],[-1,-3],[-2,2],[-1,-2],[2,-3],[1,1],[1,-3],[-2,-3],[1,0],[1,-3],[-1,-2],[0,-1],[0,1],[-1,-1],[-1,2],[-1,-1],[1,-2],[-1,-1],[0,-3],[0,0],[1,1],[2,-1],[0,0],[2,-2],[0,-1],[0,0],[1,-1],[0,-3],[-4,-6],[-2,2],[1,0],[-1,1],[0,3],[-1,-1],[-1,1],[0,-4],[1,-3],[-2,-4],[-2,0],[-1,-1],[1,-2],[-1,-2],[0,1],[-2,-1],[-1,3],[1,1],[-1,2],[1,3],[0,1],[0,1],[-1,-1],[-1,3],[-1,-2],[-1,1],[-1,0],[-1,2],[0,0],[-3,5],[1,3],[-1,1],[1,2],[0,6],[0,1],[-1,1],[1,2],[-1,1],[0,2],[1,1],[-1,1],[1,4],[-1,2],[-1,1],[-1,-1],[-1,-5],[-2,-1],[1,-4],[0,-2],[-1,-1],[-2,0],[-3,1],[0,-2],[-2,-1],[-1,-5],[-1,-1],[-2,2],[-1,-5],[-1,-1],[0,-1],[-2,-1],[0,-1],[-1,-1],[1,-1],[0,-5],[1,-2],[1,1],[2,-4],[1,-3],[1,0],[0,0],[0,-6],[2,3],[0,-2],[1,1],[-1,1],[3,3],[-1,1],[1,1],[0,0],[1,1],[1,0],[1,2],[0,0],[1,0],[0,-1],[1,1],[1,-1],[0,1],[4,-6],[0,1],[0,-2],[2,-2],[-1,-1],[1,-1],[0,-1],[1,-1],[-1,-4],[1,-1],[-1,-2],[1,-2],[-2,-2],[-1,0],[-1,1],[-2,-3],[0,-3],[-1,-2],[1,-3],[0,-1],[2,-2],[-1,-1],[1,-1],[0,-1],[0,-3],[-1,-2],[1,0],[-1,-2],[0,0],[0,-1],[0,1],[-2,-3],[-1,1],[1,1],[0,1],[0,0],[-1,2],[-2,-1],[-2,1],[-1,-1],[0,1],[-1,-1],[0,0],[-1,0],[-3,3],[0,-1],[-1,1],[-1,0],[0,0],[-1,0],[0,-2],[4,-6],[0,-1],[-1,1],[-1,-2],[-1,1],[-1,-2],[4,-6],[0,0],[1,-1],[0,-2],[0,-3],[-2,3],[-1,0],[-1,0],[-1,-1],[-1,0],[0,-2],[-1,1],[-2,0],[0,-1],[0,-2],[-2,-2],[3,-3],[-1,-1],[-1,1],[-1,-1],[0,-2],[1,-1],[0,-1],[0,-1],[0,0],[1,-2],[-2,-1],[2,-1],[-1,-2],[1,-2],[0,1],[1,-1],[2,0],[-2,-3],[1,-2],[1,0],[1,2],[1,0],[0,1],[1,1],[0,-3],[0,-1],[0,-2],[2,1],[0,-1],[0,2],[2,-1],[1,2],[0,-1],[1,3],[1,-1],[0,-1],[1,-2],[0,2],[0,0],[2,3],[1,-1],[1,1],[1,-1],[1,2],[-1,1],[1,1],[0,1],[1,1],[1,0],[1,2],[0,-1],[1,2],[2,-4],[0,-1],[-1,-3],[1,-3],[1,2],[4,-1],[1,1],[0,0],[2,0],[1,-1],[-1,-1],[-2,0],[-1,-2],[0,-2],[0,-2],[1,-2],[1,1],[0,-1],[1,2],[0,-6],[-1,-3],[-1,0],[0,-3],[0,-1],[-1,0],[-1,0],[0,1],[-4,7],[0,1],[-1,-1],[0,1],[-2,2],[0,-2],[0,-1],[-1,-2],[2,1],[1,-2],[0,1],[2,-3],[0,-1],[2,-6],[0,-2],[-1,2],[-2,-4],[1,0],[-1,-2],[1,-3],[0,-1],[-1,1],[-1,-3],[-1,1],[0,-1],[0,0],[-1,-2],[0,-1],[-1,-2],[1,-1],[-1,-2],[-1,1],[-1,0],[1,1],[-1,4],[-1,-2],[-1,2],[-1,1],[0,-1],[-1,2],[-2,-1],[0,-2],[3,-4],[-1,-2],[-2,1],[0,-1],[0,-1],[1,0],[3,-5],[0,-1],[0,-2],[-1,-1],[-1,1],[0,0],[0,0],[-1,-1],[-2,3],[0,0],[-1,1],[0,-1],[0,-2],[0,-1],[0,1],[-2,-4],[0,0],[-1,-4],[0,-2],[-2,-3],[0,-2],[1,-2],[1,1],[2,-1],[1,2],[0,-1],[2,1],[0,-1],[-1,-1],[-1,0],[0,-2],[-1,1],[-1,-1],[-1,0],[-1,-2],[0,-1],[2,-3],[-1,-1],[-2,1],[-1,-2],[-2,-2],[2,-4],[-1,0],[0,0],[-1,-1],[0,-1],[0,-2],[1,-1],[-1,-1],[2,-1],[0,-2],[-2,-3],[-1,1],[-1,-1],[-1,1],[-2,-5],[0,-4],[0,-1],[0,-2],[0,0],[1,0],[0,2],[2,4],[0,-1],[3,5],[-1,0],[1,2],[1,-1],[1,1],[1,-1],[4,9],[1,-1],[0,1],[1,-2],[-1,-2],[1,-1],[-1,-3],[0,-2],[0,-1],[0,-2],[-1,-2],[1,-4],[-2,-5],[0,-3],[0,-1],[0,-4],[-1,-2],[2,-3],[0,-1],[0,-2],[-5,-9],[-1,1],[-1,-4],[0,1],[-1,-1],[0,0],[1,2],[-2,3],[-1,-2],[-1,1],[-1,-2],[0,1],[-1,-1],[1,-4],[-1,-3],[0,-3],[-1,1],[0,3],[-1,1],[0,-1],[-1,2],[-1,-2],[-2,3],[1,2],[0,1],[1,-1],[2,4],[-1,1],[-1,1],[0,0],[-3,4],[0,-2],[-1,1],[-1,-2],[-1,1],[0,-2],[-2,-1],[-1,3],[1,1],[-4,7],[1,2],[-1,2],[-1,-1],[-1,3],[0,0],[-1,1],[0,-1],[-2,2],[1,1],[0,2],[-1,1],[0,-1],[0,2],[-2,4],[-1,-1],[0,1],[0,2],[1,1],[0,0],[-1,2],[0,2],[1,0],[0,1],[1,1],[-1,1],[0,2],[-1,1],[1,1],[-1,0],[0,1],[-1,2],[-1,-1],[0,2],[-1,2],[1,2],[0,7],[0,1],[-1,1],[2,3],[-1,2],[0,2],[-1,2],[1,3],[-1,5],[2,5],[-1,-1],[-1,3],[-1,-1],[-2,3],[1,1],[-1,1],[0,1],[-1,0],[0,0],[-1,-1],[-1,0],[0,-7],[-2,-4],[0,-2],[-1,-2],[0,-1],[-2,-4],[1,-1],[-2,-2],[1,-1],[-2,-5],[0,0],[-1,-1],[1,-1],[0,-1],[-2,2],[-1,-3],[-3,1],[-2,-4],[0,1],[-1,-1],[-1,-3],[-1,0],[0,2],[-1,1],[-1,-1],[0,1],[-1,-2],[0,-1],[-1,-4],[0,-1],[1,1],[3,-6],[1,0],[0,-2],[-1,-1],[1,-2],[-1,-1],[1,-1],[-1,-2],[0,-2],[-1,-2],[0,-2],[0,-2],[-1,1],[-2,-1],[1,0],[-1,-2],[0,-2],[1,-2],[-1,0],[-1,-2],[1,-3],[0,1],[1,-1],[1,0],[1,0],[1,2],[0,-2],[-2,-2],[0,-2],[1,-1],[0,0],[-2,3],[-1,-1],[-1,1],[-1,-3],[-1,2],[1,1],[-1,2],[-2,-2],[0,4],[-1,2],[0,-3],[-2,-2],[1,-1],[-1,-1],[1,-2],[0,-2],[1,-2],[-1,-2],[0,-3],[1,-1],[-1,-5],[2,-1],[0,-2],[0,1],[0,-1],[1,2],[1,-1],[-2,-5],[4,-8],[-1,-3],[1,-2],[2,4],[0,3],[-1,3],[2,2],[1,-2],[0,0],[0,-2],[0,-3],[0,-1],[0,-1],[1,-3],[-1,-1],[0,-1],[0,-1],[-2,-2],[0,0],[-3,-5],[4,0],[1,1],[0,0],[1,0],[0,-1],[1,-1],[-3,-4],[3,-4],[0,-1],[0,0],[1,-2],[0,-1],[-2,-3],[1,-2],[-2,-5],[-1,1],[1,1],[-1,3],[0,0],[-1,0],[-1,2],[0,1],[-1,1],[0,1],[0,1],[0,-1],[-1,-2],[0,-1],[0,-1],[0,-2],[0,-1],[0,-7],[1,-1],[-1,-2],[1,1],[1,-2],[0,-1],[0,-1],[2,1],[1,-1],[-1,-4],[1,-2],[1,1],[1,-3],[0,-2],[1,-1],[-1,-2],[1,-1],[-1,-2],[2,-4],[1,0],[1,-1],[7,1],[0,-1],[1,1],[2,-1],[1,1],[3,-1],[0,2],[2,-1],[0,1],[1,-2],[1,0],[0,-2],[-1,0],[1,-2],[-2,-1],[-2,1],[-1,-2],[-1,1],[0,-3],[0,-1],[0,-1],[-2,5],[-1,-1],[-3,3],[-1,0],[-1,1],[-1,-2],[-2,1],[0,-1],[-1,1],[0,0],[-1,1],[0,-1],[-2,2],[-1,-3],[-1,0],[-1,1],[1,2],[-3,4],[-2,-3],[1,-2],[0,-1],[0,-1],[0,-1],[1,-1],[-1,-1],[-1,1],[-1,-1],[-2,7],[-1,-2],[-1,1],[0,0],[-2,2],[-1,0],[0,-2],[1,0],[1,-1],[0,-1],[0,-1],[1,1],[0,-1],[0,-1],[1,-1],[0,0],[2,-4],[0,-1],[0,-1],[0,-2],[1,-1],[-1,-2],[0,-2],[0,0],[1,-2],[-1,0],[0,0],[-1,-1],[2,-5],[0,-2],[0,-1],[0,-1],[1,-2],[1,0],[2,4],[1,-1],[-1,-2],[-1,0],[0,-1],[2,-3],[0,-2],[-2,2],[0,0],[0,0],[-1,-1],[-2,0],[-2,3],[-1,0],[0,-3],[1,-1],[0,-4],[1,-2],[-1,-3],[1,-5],[-1,0],[-1,2],[-1,-2],[0,0],[-1,-3],[0,-2],[1,-1],[0,-1],[1,-2],[1,0],[-1,-1],[3,-5],[0,1],[1,-1],[1,3],[0,-2],[1,-1],[0,-2],[3,-5],[1,1],[0,-1],[2,2],[1,-1],[2,2],[1,-1],[0,1],[1,-2],[-1,-1],[-1,1],[-1,-1],[0,-1],[1,-2],[-1,0],[-1,2],[-1,-2],[-1,0],[-1,2],[-1,-2],[0,2],[-1,-1],[-2,4],[0,-1],[-1,1],[0,1],[-1,2],[-1,-2],[-1,1],[0,0],[-2,2],[-1,-1],[0,2],[-1,1],[0,1],[-2,3],[1,1],[-2,3],[0,1],[1,1],[0,4],[0,1],[0,3],[1,2],[0,2],[-1,0],[-1,2],[2,3],[0,0],[0,3],[-1,1],[-2,-1],[0,1],[-2,-2],[-1,1],[2,3],[0,2],[2,-2],[2,4],[-2,3],[0,-1],[-1,2],[0,1],[-1,1],[0,3],[2,3],[0,3],[1,2],[-2,1],[0,-1],[-2,1],[-1,-2],[0,-2],[-1,-2],[0,-1],[-3,-6],[-1,0],[1,1],[-1,1],[0,3],[-1,4],[0,4],[-1,2],[0,-1],[0,-2],[-1,-1],[1,-1],[-2,-3],[-1,0],[0,-1],[0,-1],[1,1],[4,-4],[-1,-6],[1,-2],[0,1],[1,-1],[-1,0],[1,-2],[0,-2],[1,-1],[0,-3],[1,-1],[-1,-1],[1,-1],[1,1],[1,-2],[0,-1],[0,-1],[0,-1],[1,-1],[0,-3],[1,-1],[-1,0],[2,-3],[0,-1],[-2,-4],[1,-2],[1,1],[0,-3],[-1,-2],[2,-3],[0,-2],[0,-1],[0,-3],[-1,-2],[0,-2],[1,-1],[0,-1],[-1,1],[-2,-4],[0,0],[0,-1],[-2,-4],[1,-3],[1,0],[-2,-4],[1,-2],[-1,-3],[0,-1],[1,0],[1,0],[1,1],[0,0],[-1,-3],[0,-2],[-1,-3],[-1,1],[-1,-1],[0,1],[-1,-1],[-1,3],[-1,-1],[0,-1],[-1,-3],[-1,1],[0,-1],[-1,-1],[1,-1],[-1,-2],[1,-1],[1,1],[0,-2],[1,1],[1,-3],[1,1],[3,0],[-2,-3],[-1,0],[-1,-1],[0,0],[-1,-1],[1,-2],[0,0],[2,-3],[-1,0],[3,-5],[0,-1],[2,-3],[0,-1],[-1,-2],[-2,-2],[1,-1],[0,0],[-1,1],[-1,-1],[-1,1],[0,1],[-1,2],[0,1],[-1,4],[0,0],[-1,2],[0,1],[-1,0],[-1,-2],[0,-1],[-1,-5],[-1,2],[0,2],[-1,1],[0,-1],[-1,2],[0,-1],[-1,1],[-1,-3],[0,-5],[-2,-3],[1,-1],[0,-2],[1,-2],[-1,-3],[0,1],[-1,-1],[-1,2],[-1,-2],[-1,1],[-1,-1],[-2,1],[-11,-1],[-1,2],[0,4],[-1,2],[-1,0],[-1,3],[0,2],[2,-1],[0,2],[-1,5],[0,2],[-1,1],[1,7],[-2,2],[1,1],[0,-1],[1,2],[1,-1],[1,1],[0,-1],[0,2],[1,1],[0,1],[0,1],[0,1],[1,0],[0,1],[0,1],[1,3],[-1,2],[-1,-1],[-1,2],[2,2],[-1,3],[1,1],[0,-1],[1,1],[0,1],[-1,-1],[-1,2],[1,1],[1,-1],[1,2],[0,3],[-1,1],[1,2],[0,1],[0,1],[-2,-3],[-1,0],[1,0],[-3,-6],[0,0],[-1,0],[0,1],[-3,4],[0,-1],[1,-1],[0,-3],[-1,0],[-1,0],[0,-1],[0,-1],[0,-1],[2,-4],[0,-1],[-3,0],[-1,-1],[-1,1],[0,2],[0,-1],[0,1],[0,1],[-1,-1],[-2,2],[1,1],[-1,4],[1,2],[0,2],[0,1],[-1,2],[-1,-1],[0,1],[-3,-4],[-1,2],[1,3],[-1,1],[0,2],[1,1],[-1,1],[-2,-5],[0,-2],[-2,-1],[2,-4],[0,-1],[-2,-2],[2,-3],[-1,-2],[0,-1],[0,-3],[0,0],[-1,-2],[2,-2],[-1,-1],[0,-2],[1,-2],[-1,-2],[2,-3],[-1,-2],[1,-2],[-1,-1],[0,-1],[-1,-1],[0,-2],[2,-2],[-2,-3],[1,-2],[-1,-1],[2,-3],[-1,-1],[1,-3],[-1,-1],[1,-3],[0,0],[-1,1],[-1,0],[0,1],[0,3],[0,0],[-2,6],[0,0],[-1,1],[1,1],[-3,4],[1,-4],[-1,-1],[1,-4],[-2,0],[-1,-3],[0,-1],[-1,-1],[0,-2],[1,-2],[0,0],[0,-2],[-1,-2],[0,0],[-2,-2],[0,-2],[0,-3],[1,-2],[-1,0],[-1,2],[-2,-1],[0,2],[-1,2],[0,0],[-1,1],[-1,-1],[-7,12],[2,4],[0,0],[2,1],[1,-1],[0,1],[1,-1],[1,0],[0,3],[0,1],[0,1],[-2,5],[-1,-2],[-1,1],[0,-1],[-1,-2],[0,0],[-2,-2],[-2,3],[-1,0],[0,0],[-1,-1],[0,-1],[-1,-2],[-1,1],[2,3],[-1,1],[3,4],[1,0],[1,1],[1,2],[-1,2],[0,1],[1,1],[1,-1],[1,3],[0,1],[1,3],[0,1],[1,1],[0,-1],[2,3],[-1,3],[-1,-1],[-1,0],[1,4],[-1,1],[1,4],[-1,4],[0,0],[1,-1],[1,1],[0,0],[1,0],[-2,2],[1,5],[-1,1],[1,1],[-1,1],[1,3],[-1,2],[0,1],[-1,1],[1,0],[1,2],[0,0],[3,0],[-1,4],[1,0],[1,2],[-2,4],[-1,-1],[-1,2],[1,2],[0,-1],[1,1],[1,0],[1,1],[0,0],[4,7],[0,-1],[2,2],[0,1],[-1,-1],[-2,3],[1,2],[0,0],[0,1],[0,-1],[3,4],[-1,4],[-1,-2],[0,0],[-1,-2],[-1,1],[-2,-2],[0,1],[-1,-1],[0,-3],[0,-1],[-1,1],[-1,-2],[-3,2],[0,1],[1,2],[0,1],[-2,-5],[1,-2],[0,-2],[-1,-3],[-2,1],[0,0],[0,2],[0,2],[-1,1],[-1,-3],[0,-2],[0,-2],[-1,4],[0,0],[-1,2],[0,-1],[-1,3],[-4,-1],[-2,2],[0,-2],[1,-2],[0,0],[1,-1],[-1,-1],[3,-7],[0,-1],[-2,1],[-2,-3],[2,-6],[-1,-1],[-1,0],[0,0],[-2,2],[-1,-1],[-1,1],[0,2],[1,2],[-2,1],[0,2],[1,1],[1,0],[-1,1],[2,2],[-1,0],[1,1],[-1,1],[0,1],[-4,7],[-2,-1],[1,-2],[0,-3],[-2,1],[0,0],[0,0],[-3,-3],[0,-1],[0,0],[-1,0],[-1,2],[2,4],[0,0],[1,4],[-1,1],[2,3],[-1,1],[-1,-1],[-1,1],[-2,-3],[-2,1],[-1,-3],[0,-1],[-1,0],[1,-2],[-1,-1],[-1,0],[2,-2],[0,-1],[-1,-1],[-1,2],[-1,-1],[1,-1],[-1,-1],[1,-3],[-2,-1],[1,-1],[-1,-3],[1,-1],[0,-4],[0,-1],[0,-1],[1,-1],[-1,-2],[0,-1],[1,-3],[1,0],[-1,-2],[0,-2],[0,-1],[-1,1],[0,-1],[0,1],[-1,2],[-1,-1],[0,-1],[-2,1],[1,3],[0,2],[0,1],[0,4],[-1,2],[1,0],[-1,2],[0,0],[-1,3],[-1,-1],[0,1],[-1,-3],[-1,0],[0,-1],[-1,1],[2,3],[-1,1],[1,0],[2,3],[-2,4],[0,2],[1,2],[0,1],[-1,1],[2,5],[0,6],[0,1],[1,-1],[0,0],[-3,6],[1,0],[-1,1],[-1,-1],[0,-4],[0,-1],[0,-2],[-1,-2],[0,-1],[-1,0],[-5,-12],[-2,-1],[-1,-4],[-1,0],[-1,-2],[1,-1],[0,-2],[-2,0],[0,-2],[-1,0],[-1,-3],[1,-2],[-2,-1],[0,-2],[2,0],[-1,-1],[2,-2],[-3,1],[-2,-3],[-1,-2],[1,-3],[1,0],[-1,-1],[1,-1],[0,-1],[1,1],[1,-2],[-2,-1],[-2,2],[-1,-2],[0,-9],[2,-5],[-1,-1],[-1,-2],[1,0],[0,-2],[2,-1],[-2,-2],[0,-3],[0,-2],[-1,0],[1,-3],[0,-1],[-1,1],[0,-1],[1,-1],[-1,-1],[0,0],[-2,-4],[1,6],[-1,2],[1,1],[-1,0],[0,3],[-1,1],[0,2],[-1,5],[0,0],[-1,-2],[-2,-3],[-3,-1],[1,-1],[-1,-2],[-1,0],[0,-2],[-1,1],[1,2],[-1,2],[1,2],[1,0],[0,2],[1,-1],[0,1],[1,2],[1,11],[-2,2],[-1,-1],[1,2],[-1,0],[0,-2],[-1,1],[-1,-2],[-4,1],[-5,-8],[-1,0],[-2,-2],[2,5],[-2,0],[-1,1],[0,-5],[-1,-2],[1,5],[-2,-2],[-10,-1],[-4,1],[-1,0],[-2,1],[0,0],[-2,3],[0,4],[0,0],[0,1],[-1,5],[-4,5],[-1,3],[1,3],[-2,5],[0,2],[0,5],[-1,3],[-2,-2],[-1,3],[0,2],[0,1],[-1,2],[1,1],[1,0],[1,1],[-1,6],[-1,-3],[-2,1],[-1,-2],[0,-1],[-1,-5],[0,1],[0,2],[-1,1],[-1,-1],[-1,1],[0,1],[1,-1],[2,2],[-2,3],[2,2],[0,1],[-1,1],[-1,0],[-1,0],[0,1],[3,1],[1,-2],[1,2],[1,-1],[1,1],[-1,6],[-2,-2],[-2,2],[1,1],[1,2],[1,1],[1,1],[-1,7],[0,0],[-2,-5],[-2,-1],[0,1],[1,2],[0,7],[-1,1],[-2,-3],[0,-2],[-1,3],[1,1],[-2,2],[0,2],[2,1],[2,-1],[1,2],[3,-4],[1,0],[-1,6],[0,1],[1,3],[-1,4],[-1,1],[-2,-3],[0,1],[-1,1],[-3,0],[0,1],[1,0],[0,1],[2,2],[0,1],[-1,1],[0,1],[2,1],[2,-2],[1,1],[1,-1],[2,2],[0,2],[-1,1],[0,0],[1,2],[1,5],[-1,1],[-1,0],[-1,-1],[-1,2],[-1,1],[1,1],[1,-1],[0,-1],[4,2],[0,1],[0,3],[0,1],[1,-2],[0,-2],[2,0],[-1,-4],[1,-1],[5,9],[1,1],[-1,2],[-2,2],[1,3],[-3,5],[0,1],[2,-3],[1,0],[1,4],[3,6],[0,-3],[-2,-5],[0,-4],[0,-1],[2,-2],[5,12],[0,3],[1,0],[1,2],[0,4],[1,2],[1,2],[-2,3],[1,2],[0,6],[2,-5],[1,2],[0,3],[2,2],[0,3],[-1,2],[-2,-1],[-1,3],[1,0],[1,3],[3,1],[1,2],[1,6],[-1,2],[-1,0],[1,1],[1,-1],[0,-1],[0,-2],[-1,-7],[1,1],[1,4],[0,-3],[0,-1],[-1,-8],[0,-1],[0,-3],[-2,-6],[-1,-2],[0,-2],[1,1],[2,8],[3,14],[1,0],[-2,14],[-3,7],[3,5],[1,-2],[0,-1],[2,-5],[1,-2],[-1,-2],[2,-12],[0,-4],[2,-1],[-1,-1],[-1,1],[-1,-1],[0,-1],[-1,-3],[0,-4],[0,0],[0,-1],[0,-1],[-1,-2],[0,-1],[1,0],[-1,-1],[1,-1],[-1,-1],[-1,-4],[-1,-1],[2,0],[-1,-2],[-1,1],[-1,-4],[-1,-4],[1,0],[0,-2],[0,-1],[-1,-2],[-1,2],[1,-5],[-1,0],[1,2],[-1,0],[-2,-7],[2,2],[2,-1],[0,-1],[-1,0],[-1,-1],[0,1],[-1,-2],[-1,0],[1,-2],[-1,-1],[1,-1],[-1,-1],[0,1],[-2,-4],[1,0],[0,-1],[-1,0],[-1,-3],[0,-1],[0,-2],[1,1],[0,-6],[0,-1],[1,1],[-1,3],[1,2],[1,-4],[2,1],[-1,3],[1,2],[1,-2],[0,-3],[2,0],[1,1],[1,-1],[0,2],[1,1],[0,-4],[2,0],[0,3],[1,0],[-1,1],[1,1],[-1,1],[-1,-1],[0,2],[1,2],[-1,1],[1,2],[1,2],[0,2],[1,2],[0,0],[1,1],[0,2],[1,3],[1,-1],[2,3],[-1,0],[3,5],[1,0],[0,1],[0,1],[1,0],[2,4],[0,1],[0,1],[1,-1],[0,1],[1,-3],[1,1],[0,-1],[1,2],[1,-1],[0,1],[5,-1],[0,2],[-1,1],[1,1],[0,-1],[2,0],[2,0],[3,4],[0,3],[-3,6],[0,-1],[-1,2],[-6,-1],[-1,1],[0,-1],[-1,3],[-1,-1],[-2,1],[-1,-1],[-1,1],[2,1],[0,0],[1,1],[0,-1],[2,3],[0,2],[0,1],[-1,1],[1,2],[-3,3],[1,1],[-2,2],[1,2],[4,-8],[0,-2],[0,1],[2,-2],[0,0],[0,1],[0,3],[-1,3],[1,2],[1,-1],[0,-3],[3,-7],[2,3],[0,1],[2,3],[-1,3],[1,2],[0,-1],[1,-1],[0,-1],[1,-1],[0,-4],[1,-1],[-1,0],[1,-2],[1,1],[0,-1],[2,-4],[1,0],[0,4],[-1,2],[0,2],[-1,1],[1,7],[1,-1],[-1,-1],[1,-1],[0,-1],[2,-4],[2,1],[2,-1],[2,4],[0,2],[-3,6],[0,1],[-2,4],[-1,0],[1,1],[1,-1],[1,2],[1,4],[-1,3],[0,1],[-1,0],[-1,2],[0,1],[-1,2],[1,1],[3,-4],[0,1],[1,-1],[0,0],[1,0],[1,2],[0,-2],[1,-2],[-1,-2],[1,-2],[-1,0],[1,-1],[0,-3],[0,0],[1,1],[0,-2],[2,1],[0,-1],[1,1],[1,-3],[1,1],[0,-1],[0,-2],[1,-3],[1,0],[1,-1],[0,1],[0,1],[1,1],[1,-3],[-1,-1],[1,-2],[2,4],[0,-1],[0,1],[0,-4],[2,-2],[-1,-1],[1,-3],[0,-1],[2,-2],[0,-2],[-2,-2],[2,0],[0,-4],[2,-4],[1,0],[0,1],[1,0],[0,0],[-1,2],[1,3],[-1,1],[3,5],[-1,1],[1,0],[1,2],[0,1],[-1,-1],[-1,1],[1,3],[-1,2],[0,1],[0,0],[0,2],[0,2],[2,2],[-1,2],[-1,-1],[0,2],[0,0],[1,-1],[5,9],[-1,2],[0,1],[-1,0],[1,3],[-1,2],[0,0],[-1,2],[1,0],[0,1],[1,-2],[1,2],[1,-3],[1,2],[0,-2],[2,1],[1,-2],[1,3],[2,-5],[1,1],[2,-1],[2,3],[0,1],[-2,3],[0,2],[1,-1],[1,2],[0,-1],[3,7],[1,0],[1,2],[1,-1],[1,1],[0,0],[0,1],[1,2],[-1,3],[-2,-2],[-2,2],[-2,-1],[-1,2],[0,0],[1,0],[2,4],[0,-1],[2,3],[1,-1],[1,2],[0,1],[0,0],[1,1],[0,-1],[1,1],[1,-2],[1,1],[0,-1],[1,1],[1,-1],[1,2],[0,0],[1,1],[0,2],[1,2],[-1,2],[1,1],[1,-1],[1,2],[1,0],[0,1],[1,0],[1,2],[0,-1],[3,4],[0,1],[1,-2],[1,1],[0,-1],[4,6],[0,-1],[1,1],[1,0],[1,2],[1,-1],[3,7],[-2,3],[0,-1],[-2,1],[-2,-3],[0,0],[-1,-1],[0,0],[-1,-1],[0,1],[-1,-2],[-2,2],[-3,-2],[0,2],[1,2],[0,4],[-1,1],[0,1],[0,1],[-1,-1],[-2,1],[-3,-3],[0,-5],[0,0],[-1,-2],[0,1],[-1,-1],[-1,0],[-2,-6],[0,1],[-1,-1],[1,0],[-2,-3],[1,-3],[-2,2],[-2,-1],[0,1],[1,1],[-1,2],[-3,0],[0,1],[-1,0],[-1,2],[-1,0],[-1,-1],[1,-2],[-1,-1],[0,1],[-1,-2],[0,-1],[-1,-2],[0,-1],[0,-1],[0,-3],[-1,-1],[1,-2],[-1,-1],[1,-1],[-2,-4],[-1,1],[-1,-1],[-2,2],[-1,-1],[-1,3],[0,1],[-1,1],[1,1],[1,-2],[0,1],[1,-2],[2,1],[-1,1],[0,1],[0,0],[-1,1],[-1,-1],[-2,4],[0,1],[0,1],[1,2],[0,-1],[3,-5],[0,0],[1,-1],[0,-1],[1,1],[0,2],[1,1],[-1,3],[1,1],[0,3],[1,1],[-2,4],[1,0],[0,0],[1,2],[0,0],[1,4],[0,3],[-1,0],[1,1],[-1,2],[0,1],[2,-1],[0,1],[1,4],[2,-1],[2,3],[-1,0],[2,4],[-1,2],[-1,3],[0,-1],[-3,4],[0,1],[2,-2],[2,1],[1,-2],[1,1],[0,-3],[1,1],[1,-1],[0,1],[1,-1],[2,2],[0,1],[0,2],[-1,1],[1,1],[1,-3],[1,1],[1,-1],[-1,2],[1,2],[1,2],[1,-1],[2,2],[-2,2],[0,-1],[-1,1],[0,1],[0,1],[-1,3],[-1,-1],[0,1],[-1,-2],[-1,1],[0,-1],[-2,0],[1,2],[-1,3],[2,-2],[1,2],[0,3],[-1,3],[0,0],[0,0],[2,2],[0,4],[-1,2],[-1,-1],[0,1],[0,-1],[-1,-2],[-1,2],[0,1],[0,1],[-1,-4],[0,1],[-1,-1],[0,-4],[0,0],[-1,2],[-1,-1],[0,-1],[-1,-3],[0,1],[-1,-1],[0,-2],[-1,1],[0,-2],[-1,-1],[-1,2],[-1,-1],[0,0],[0,2],[2,3],[-1,1],[0,-1],[-1,1],[0,-2],[-2,1],[-1,-3],[-1,1],[-1,-1],[-1,1],[-1,-2],[-1,0],[0,2],[2,4],[-1,0],[2,3],[-1,3],[3,6],[1,-1],[0,1],[1,0],[1,2],[1,0],[0,1],[-1,3],[-1,-1],[-2,2],[-1,-2],[0,1],[2,5],[2,-1],[2,3],[1,-1],[1,2],[-1,2],[1,1],[-1,2],[0,0],[-1,0],[-1,0],[-1,0],[-1,-1],[0,1],[-1,-2],[0,1],[-1,-1],[0,3],[0,0],[0,0],[-1,2],[0,2],[-1,2],[0,0],[0,4],[0,1],[0,1],[-3,-5],[0,-1],[-1,1],[0,10],[0,0],[1,2],[-1,0],[1,2],[1,-2],[1,0],[1,-3],[1,2],[-1,1],[0,1],[0,1],[0,1],[-1,3],[-1,-2],[-1,1],[1,1],[0,1],[0,1],[1,0],[1,1],[2,-3],[0,1],[2,-1],[1,2],[-1,0],[1,1],[2,3],[0,2],[1,3],[-1,2],[-1,-1],[-1,1],[-2,-2],[-1,1],[0,-1],[-1,2],[-1,-1],[0,1],[-2,4],[1,0],[2,-3],[3,3],[0,-1],[1,3],[0,2],[1,2],[1,-2],[0,0],[1,-1],[-1,-1],[0,-2],[1,-1],[-1,-1],[3,-2],[-1,-5],[1,-1],[1,2],[0,-1],[1,-1],[-2,-3],[1,-1],[-2,-2],[1,-1],[-2,-3],[1,-3],[0,-1],[-1,0],[-3,-6],[0,0],[1,1],[1,-1],[1,2],[3,-1],[1,1],[0,3],[1,1],[-1,1],[3,5],[1,0],[0,0],[0,1],[0,1],[0,2],[0,1],[2,5],[-1,5],[1,1],[-1,1],[2,4],[-1,2],[0,1],[-1,1],[0,2],[1,1],[0,1],[1,0],[0,0],[1,2],[1,-1],[0,1],[1,0],[1,1],[0,-1],[0,1],[0,3],[0,0],[-1,2],[1,0],[-1,1],[-1,0],[-2,0],[0,-1],[0,3],[-1,-1],[0,1],[-1,-1],[-1,1],[0,-1],[-1,1],[2,2],[4,-1],[1,3],[-1,3],[1,2],[0,-1],[1,-2],[-1,-1],[2,-2],[0,-1],[0,-1],[3,4],[0,0],[0,-3],[2,-5],[1,1],[1,-2],[-1,-2],[2,-2],[-1,-2],[1,-2],[-1,0],[1,-4],[-1,-2],[1,-1],[-1,-3],[1,0],[0,-3],[-1,-3],[2,-5],[0,-2],[1,-2],[-1,-2],[1,-2],[0,-1],[3,4],[2,0],[-1,1],[-1,-1],[-2,3],[0,2],[-1,1],[0,4],[1,3],[0,4],[1,2],[0,0],[1,2],[0,-2],[0,0],[0,-1],[0,-5],[1,-1],[-1,-1],[2,0],[1,1],[-1,1],[1,1],[-1,1],[1,2],[1,-1],[1,0],[-1,3],[2,2],[0,2],[-1,0],[-1,2],[0,2],[1,-1],[2,3],[-1,3],[-1,2],[-1,-1],[0,1],[1,2],[0,2],[-2,2],[1,1],[-1,1],[1,1],[2,-4],[1,2],[1,-1],[1,1],[1,-1],[1,1],[1,-2],[1,2],[0,-1],[1,2],[1,-3],[1,1],[1,-1],[1,0],[1,-1],[-1,-1],[-1,1],[-1,-2],[-1,1],[-3,-3],[1,-6],[1,1],[0,-1],[2,-2],[1,0],[0,0],[-1,-3],[1,-2],[-1,-2],[0,-3],[2,-1],[-1,-1],[-2,4],[0,1],[-2,3],[-1,-3],[4,-8],[-1,0],[1,-2],[0,0],[2,-5],[0,-1],[-1,-1],[0,-3],[2,-2],[2,-3],[0,-2],[0,1],[1,-1],[0,0],[1,-1],[0,1],[1,-2],[0,1],[1,-2],[1,1],[0,2],[1,2],[-1,1],[2,0],[0,-1],[0,-1],[1,-1],[0,1],[1,-3],[2,1],[0,-2],[1,2],[-1,0],[0,2],[-2,0],[0,1],[0,3],[0,0],[0,0],[-2,2],[1,1],[1,-1],[0,0],[1,-1],[1,1],[0,-2],[1,2],[2,-3],[1,3],[0,-1],[1,1],[2,-3],[1,0],[1,2],[0,-1],[1,1],[-1,1],[3,5],[-1,1],[1,2],[-1,0],[-1,-1],[1,-2],[-2,-2],[-1,1],[-2,-2],[0,2],[0,1],[0,1],[-1,2],[1,2],[-1,1],[-1,0],[0,-1],[0,-1],[-1,-3],[-1,1],[0,5],[-1,2],[0,-1],[-2,1],[-1,-2],[-1,2],[0,1],[2,3],[0,2],[1,0],[1,1],[-2,3],[1,1],[-1,0],[-1,2],[1,1],[0,0],[1,1],[1,-1],[1,2],[0,-1],[2,3],[1,-1],[1,1],[1,-1],[0,3],[0,2],[1,1],[0,0],[2,4],[1,-3],[2,3],[0,2],[-1,0],[-2,4],[0,-1],[-1,2],[0,-1],[-1,3],[0,-1],[-1,1],[0,1],[-1,2],[0,1],[-2,0],[-1,-1],[-1,2],[0,0],[-1,1],[1,1],[-1,2],[0,2],[0,1],[-1,-1],[0,0],[-1,-2],[-1,1],[-2,-4],[-1,2],[0,3],[-1,1],[1,2],[-1,1],[0,5],[-1,2],[0,-1],[-1,1],[0,1],[-1,4],[-2,-2],[0,-1],[-2,-4],[0,2],[1,2],[-1,1],[1,2],[-1,1],[1,1],[-1,1],[0,1],[-2,3],[0,0],[-1,0],[-2,-2],[0,0],[-1,-1],[-1,1],[0,-1],[0,1],[-1,-1],[-2,1],[1,1],[-1,2],[1,1],[1,-1],[1,3],[0,5],[3,4],[-1,2],[0,2],[0,1],[0,2],[0,2],[1,2],[-1,3],[1,3],[0,3],[1,4],[0,1],[1,2],[0,1],[1,2],[-1,2],[0,3],[0,1],[1,1],[-1,3],[1,2],[0,4],[1,1],[-1,3],[1,1],[-1,1],[2,5],[-1,2],[1,1],[-1,3],[1,1],[-1,3],[1,2],[-1,1],[2,0],[-1,1],[2,3],[0,2],[2,5],[1,0],[1,-1],[-1,-2],[1,-4],[-1,-1],[0,-1],[-1,-2],[0,1],[0,-1],[-1,-1],[0,0],[-1,-1],[0,-3],[1,-1],[0,1],[1,-1],[1,1],[1,0],[-2,-2],[1,-2],[-1,-1],[1,-2],[-1,-1],[1,-3],[-1,-1],[1,-1],[1,0],[0,1],[1,3],[-1,3],[4,6],[-1,1],[1,1],[3,-4],[-1,-5],[2,-2],[0,0],[1,-1],[1,1],[1,-1],[0,-1],[0,-2],[0,-1],[0,-2],[-1,-2],[1,-2],[0,-2],[2,-5],[-1,-2],[1,-3],[1,1],[0,3],[0,1],[0,1],[1,1],[0,2],[-1,3],[0,2],[2,7],[-1,3],[1,1],[0,3],[0,1],[0,1],[1,3],[0,0],[0,-4],[1,-1],[-1,-1],[1,-1],[-1,-2],[3,-5],[2,1],[0,3],[1,3],[1,-2],[0,0],[1,-1],[1,0],[0,0],[0,-1],[1,-2],[0,-1],[-2,-5],[1,-2],[1,1],[1,-4],[2,3],[1,-1],[1,1],[-1,2],[3,5],[0,4],[-1,3],[0,1],[1,-2],[1,1],[0,-2],[1,1],[1,-1],[1,2],[-2,3],[0,2],[-1,2],[2,4],[0,-1],[0,-1],[1,-1],[-1,-1],[3,-5],[0,-1],[1,-5],[-1,-2],[0,-1],[0,-1],[1,-1],[-1,-1],[1,0],[1,-1],[0,0],[2,-3],[0,-2],[1,-2],[0,0],[0,-1],[1,-1],[0,-2],[0,-1],[1,1],[0,-2],[1,1],[2,-3],[2,3],[1,-2],[-1,-1],[0,-1],[1,2],[2,-2],[-1,-1],[1,-2],[-1,-1],[0,-2],[2,-2],[-1,0],[-1,-2],[1,-3],[0,1],[1,-2],[0,-1],[1,-1],[-1,-1],[2,-5],[-1,-2],[1,-1],[0,-3],[0,-1],[0,-1],[0,0],[1,-2],[-1,0],[0,-4],[-1,-2],[0,1],[-1,-1],[2,-1],[-1,-1],[1,-1],[0,-1],[1,-1],[-1,-2],[1,-1],[-1,-3],[2,-3],[-1,-2],[-1,0],[0,-1],[0,-3],[1,-2],[0,1],[1,-1],[2,0],[-2,-4],[0,-1],[2,-2],[0,-1],[0,-1],[0,-3],[0,-1],[0,-2],[1,-2],[1,1],[1,-1],[-1,-2],[1,-2],[0,0],[1,-1],[1,2],[0,0],[1,2],[0,2],[1,4],[0,2],[2,3],[1,5],[0,2],[-2,3],[0,2],[2,-1],[1,2],[1,-1],[2,1],[2,5],[1,0],[0,2],[1,1],[1,4],[2,-2],[0,2],[1,1],[0,3],[0,2],[1,0],[0,3],[-4,2],[-1,-1],[1,-1],[-1,-2],[0,1],[0,1],[0,1],[0,1]],[[9632,9447],[-1,1],[0,-4],[1,1],[0,2]],[[9961,9873],[-1,1],[-1,-2],[1,-1],[1,2]],[[9933,9819],[-2,2],[0,-1],[0,-2],[0,1],[1,-1],[1,1]],[[9878,9920],[-1,-2],[0,0],[-1,-2],[0,-1],[1,2],[0,1],[1,2],[0,0]],[[9929,9800],[-2,0],[-1,0],[0,-1],[1,-1],[0,2],[1,-2],[1,2],[0,0]],[[9972,9892],[-1,1],[1,1],[-1,1],[-1,-1],[1,-3],[1,1]],[[9823,9665],[0,-1],[-1,1],[-1,0],[-1,1],[0,-1],[1,-1],[1,1],[1,-1],[0,0],[0,1]],[[9618,9420],[-3,4],[1,-2],[-1,0],[2,-2],[1,0],[0,0]],[[9974,9838],[-1,-2],[0,0],[-1,-2],[1,0],[1,0],[0,1],[1,2],[-1,1]],[[9912,9909],[-1,0],[0,1],[-1,0],[1,-4],[1,2],[0,1]],[[9749,9368],[-1,2],[-1,-1],[1,-2],[1,1],[0,-1],[0,1]],[[9628,9443],[-2,-7],[1,-1],[1,6],[0,2]],[[9631,9436],[-1,3],[0,-1],[-1,-3],[1,-1],[0,1],[0,0],[0,-1],[1,2]],[[9966,9970],[-2,-1],[-1,1],[0,-1],[2,-1],[1,1],[0,1]],[[9716,9569],[-2,-2],[1,-1],[-2,-2],[1,-1],[1,3],[0,0],[1,3],[0,0]],[[9608,9456],[0,5],[-1,0],[0,-3],[1,-2]],[[9612,9531],[-1,-1],[0,-4],[-2,-4],[0,0],[3,6],[-1,0],[1,3]],[[9967,9871],[-1,0],[-1,2],[0,0],[0,-2],[1,-2],[1,2]],[[9630,9433],[-1,1],[0,-4],[-1,-5],[2,4],[-1,1],[0,2],[1,1]],[[9637,9503],[-3,-6],[1,0],[1,1],[0,1],[2,3],[-1,1]],[[9608,9398],[0,4],[-1,0],[-1,1],[0,-3],[1,0],[1,-2]],[[9791,9596],[0,3],[0,1],[-1,-2],[0,-1],[0,-1],[1,1],[0,-1]],[[9612,9480],[-1,1],[0,-1],[-1,1],[-1,-2],[1,0],[0,-1],[1,1],[0,0],[1,1]],[[9962,9873],[-1,2],[0,-1],[1,-2],[-2,-2],[1,-1],[1,2],[0,0],[0,2]],[[9956,9854],[0,3],[-1,-2],[0,-2],[0,-1],[1,2],[0,0]],[[9628,9423],[-1,3],[-2,-6],[-2,-2],[1,0],[1,2],[1,0],[0,1],[1,2],[0,0],[1,0]],[[9715,9651],[-1,0],[-1,-2],[1,-2],[1,1],[0,3]],[[9870,9684],[-1,3],[-2,-3],[2,-1],[0,0],[0,0],[1,1]],[[9643,9448],[-4,-9],[0,-2],[0,-2],[1,-1],[0,2],[-1,1],[1,3],[3,8]],[[9977,9961],[0,2],[0,-1],[-1,1],[1,2],[-1,0],[0,0],[-1,0],[0,-1],[-1,-2],[2,-1],[1,0],[0,0]],[[9687,9531],[-2,1],[-1,-3],[1,-1],[0,-3],[1,0],[-1,4],[2,2]],[[9623,9418],[-1,0],[0,-1],[-2,-1],[-1,-1],[1,-1],[-1,0],[1,0],[0,-1],[2,3],[1,0],[0,1],[0,1]],[[9951,9898],[-1,2],[0,-2],[-1,2],[0,-2],[-1,0],[0,-2],[0,-1],[1,1],[1,0],[0,1],[1,1]],[[9849,9622],[0,2],[0,2],[-2,-2],[-1,1],[0,-1],[1,-2],[0,-2],[1,1],[1,1]],[[9625,9392],[-5,3],[-1,-1],[1,0],[0,-1],[0,-1],[1,0],[2,-1],[1,0],[1,1]],[[9969,9869],[0,2],[-1,-1],[1,-1],[-2,-2],[-1,2],[0,-1],[0,-2],[0,-1],[1,2],[1,-1],[-1,-1],[2,-3],[0,4],[-1,1],[1,2]],[[9927,9806],[-2,3],[0,-1],[-1,1],[-1,-1],[1,-2],[0,-3],[1,1],[0,-1],[2,3]],[[9953,9861],[-1,2],[1,2],[0,1],[-3,-6],[1,-1],[0,0],[1,0],[0,0],[0,2],[-1,-1],[0,0],[1,2],[1,-2],[0,1]],[[9680,9480],[-1,-2],[0,1],[-5,-9],[2,0],[4,9],[0,1]],[[9610,9463],[-1,5],[1,3],[-1,2],[-1,-5],[-1,0],[0,-1],[0,-1],[1,1],[1,-8],[1,4]],[[9625,9427],[0,0],[-1,-2],[0,0],[-2,-1],[0,1],[1,2],[-2,-2],[-1,1],[0,0],[0,-1],[0,1],[-1,-2],[-1,1],[1,-1],[-1,-2],[1,2],[2,0],[2,-3],[2,3],[-1,0],[1,3]],[[9807,9649],[-1,2],[0,-1],[0,-1],[0,-2],[-3,-4],[2,-2],[0,-2],[-1,-1],[0,-1],[2,2],[-1,2],[2,5],[0,3]],[[9618,9391],[2,-2],[0,0],[0,2],[0,-2],[1,-1],[2,2],[0,-2],[0,1],[0,-2],[1,1],[0,-1],[1,1],[1,-1],[0,2],[1,0],[0,2],[1,1],[-1,0],[-1,-2],[-2,0],[-3,1],[0,1],[0,-1],[-1,0],[-1,1],[0,0],[-2,1],[0,-2],[1,0],[0,0],[0,0]],[[9743,9688],[-2,3],[-1,-2],[0,0],[0,0],[-1,-2],[0,-1],[-1,-3],[0,0],[-2,-4],[1,-1],[1,3],[0,0],[1,2],[0,-1],[1,1],[0,0],[2,2],[-1,1],[2,2]],[[9633,9394],[-2,0],[-1,-2],[-1,1],[1,-1],[-1,-3],[-1,0],[0,-1],[0,0],[0,0],[0,1],[0,0],[-1,-1],[1,-2],[-1,-1],[1,-1],[0,1],[1,-2],[0,1],[1,0],[2,4],[-1,0],[2,6]],[[9602,9412],[-6,4],[0,0],[-1,0],[0,-1],[-1,0],[1,-1],[-2,1],[0,-1],[1,-1],[1,-1],[-2,1],[0,1],[0,0],[-2,1],[1,-1],[-1,-1],[3,-1],[3,1],[1,-1],[2,-3],[0,0],[1,-1],[0,0],[0,0],[-1,1],[1,-1],[1,3],[0,-1],[0,2]],[[9959,9849],[-1,-1],[-1,0],[1,2],[0,2],[-1,0],[-1,0],[-2,-1],[1,-2],[0,-2],[1,-3],[-1,-2],[1,-1],[0,-1],[1,2],[-1,2],[1,0],[0,-1],[3,4],[-1,2]],[[9699,9542],[-1,2],[-1,2],[0,3],[0,-1],[-1,1],[-1,0],[-1,0],[-2,0],[2,-3],[0,-2],[0,-1],[-1,-4],[0,-1],[2,0],[0,3],[1,-1],[1,2],[1,-1],[1,1]],[[9959,9866],[-1,5],[-3,3],[0,-1],[0,-1],[0,-2],[-1,-2],[0,0],[-1,0],[1,-2],[1,2],[1,0],[0,0],[1,-1],[-1,0],[0,-2],[-1,0],[1,-2],[0,0],[-2,0],[-1,-1],[2,1],[1,-2],[-2,0],[0,-2],[0,0],[-1,1],[-1,-1],[1,-1],[3,0],[0,1],[1,2],[-1,2],[1,1],[0,1],[1,0],[0,0],[1,1]],[[9764,9396],[0,5],[-1,2],[0,1],[-3,5],[0,-1],[-2,1],[0,-1],[0,-2],[-1,-1],[0,-3],[3,-3],[0,1],[1,-1],[1,1],[1,-2],[0,-2],[0,1],[1,-1]],[[9982,9839],[-1,1],[1,1],[-1,1],[-1,0],[-1,1],[0,-1],[0,1],[0,-1],[-1,-2],[0,4],[-1,-2],[-1,1],[0,-1],[0,-6],[-1,-1],[-1,0],[0,-1],[1,-2],[1,1],[1,0],[-1,-3],[1,-1],[1,2],[-1,1],[1,2],[0,3],[-2,2],[2,0],[0,-1],[1,-2],[1,1],[1,-2],[1,1],[-1,1],[1,2]],[[9671,9439],[-2,0],[0,2],[-1,2],[0,5],[-1,1],[0,0],[0,2],[0,1],[-2,6],[-1,-2],[1,-2],[-1,-2],[0,-2],[0,-4],[0,-1],[0,-1],[0,-1],[1,2],[1,-4],[1,-1],[0,1],[2,-4],[1,1],[1,0],[0,1]],[[9620,9430],[-2,0],[1,0],[-2,1],[-1,1],[0,3],[1,2],[-1,0],[-1,-4],[-1,3],[2,0],[-3,3],[1,1],[-2,2],[0,1],[0,1],[0,1],[1,2],[-1,1],[1,1],[-1,0],[1,2],[-2,-2],[1,2],[-1,0],[1,1],[-1,-1],[-2,3],[0,-10],[1,0],[0,-2],[1,-3],[1,-5],[1,-4],[1,0],[2,-3],[1,1],[-2,1],[-1,3],[4,-4],[2,0],[0,2]],[[9968,9862],[-1,-1],[0,1],[-1,0],[0,-1],[-1,-3],[1,-1],[-1,-1],[1,-2],[0,-1],[-1,1],[0,-1],[-1,2],[-1,-1],[-1,2],[-1,-2],[0,2],[0,2],[1,-2],[0,1],[2,-1],[0,0],[-1,2],[0,1],[1,1],[0,1],[0,2],[0,1],[-1,-1],[0,2],[-1,-2],[-1,1],[-1,-1],[-1,2],[-2,-3],[1,-3],[-1,-2],[1,0],[2,0],[1,0],[-1,-1],[-1,0],[-1,0],[2,-2],[-1,0],[1,-2],[1,2],[0,-1],[1,1],[2,-2],[0,0],[1,-1],[1,1],[1,-1],[0,1],[-1,2],[1,0],[0,-1],[1,1],[0,1],[0,1],[0,2],[1,2],[-1,2]],[[9758,9646],[-1,1],[-1,-1],[0,0],[0,2],[0,1],[1,1],[0,3],[-1,-1],[-1,2],[0,1],[-1,1],[1,1],[-2,2],[-1,-4],[-2,-2],[0,1],[-2,-4],[1,-3],[0,1],[1,-2],[-1,-2],[0,0],[-1,-4],[2,0],[2,2],[3,0],[0,1],[1,0],[2,3]],[[9780,9497],[-3,4],[1,0],[-1,2],[0,2],[1,2],[0,1],[0,1],[0,0],[-1,0],[-2,3],[1,0],[-2,4],[1,3],[0,-1],[1,1],[1,-1],[2,4],[0,4],[-1,1],[-2,-3],[0,0],[-2,-3],[-1,0],[-1,-1],[0,-2],[1,-1],[0,-1],[1,-2],[0,-2],[0,-1],[0,-1],[0,-2],[-1,-2],[1,-1],[0,-2],[0,-1],[-1,-2],[1,-5],[-2,-3],[1,-1],[0,1],[1,2],[0,1],[1,2],[1,-1],[2,1],[1,-1],[1,1]],[[9843,9776],[-1,1],[-1,-2],[0,1],[-1,-2],[-2,2],[-1,-1],[-2,2],[1,1],[0,4],[1,2],[0,4],[0,-1],[-1,1],[-1,-3],[-1,1],[0,-1],[-1,2],[-1,-1],[-1,2],[-1,-1],[-1,2],[-3,-6],[0,5],[0,1],[-1,1],[-1,-1],[1,-1],[-1,-1],[0,-1],[-1,-3],[-1,1],[0,-1],[0,-4],[-1,-2],[0,-2],[-2,-3],[0,-1],[0,-1],[0,1],[-1,-2],[-1,1],[-1,-2],[-1,1],[-1,-2],[1,-2],[0,0],[-1,1],[0,-2],[-1,0],[-1,3],[-2,-4],[1,-3],[-1,-2],[1,-1],[0,-3],[-2,-3],[1,-1],[-1,0],[0,-2],[-1,0],[-1,-2],[1,-2],[-1,-2],[0,-1],[0,-2],[-1,-1],[1,-1],[-1,0],[-2,-3],[3,-5],[-1,-1],[1,-1],[0,-1],[-1,-2],[0,0],[-1,0],[-1,1],[1,2],[-2,3],[-2,-4],[0,1],[0,-1],[0,-4],[-1,-3],[1,-2],[0,-4],[-1,-2],[1,0],[-1,-1],[3,-4],[0,0],[1,0],[0,1],[1,1],[1,3],[0,-1],[0,-1],[-1,-3],[0,-1],[-1,-1],[0,-2],[2,-1],[0,1],[1,-2],[-1,-1],[-1,1],[-1,-2],[0,-2],[1,-2],[0,-2],[0,-2],[-1,-1],[0,-3],[2,-3],[0,-3],[0,-2],[-1,-4],[-1,1],[-1,-1],[3,-4],[-1,-4],[2,-2],[-1,-1],[1,-2],[-1,-8],[1,-1],[1,2],[-1,5],[2,3],[0,0],[0,1],[-1,2],[0,3],[2,-2],[0,0],[1,0],[0,1],[0,1],[1,0],[0,1],[1,-1],[1,2],[2,-1],[0,2],[1,-1],[1,1],[2,-3],[1,1],[1,-1],[1,2],[1,0],[0,1],[1,-1],[1,2],[0,-1],[1,1],[2,-3],[3,3],[-1,1],[-1,-1],[0,2],[-1,3],[-1,0],[1,1],[-1,2],[-1,3],[0,4],[0,1],[0,3],[0,1],[0,0],[-1,2],[-2,-1],[0,2],[1,1],[0,0],[0,1],[2,3],[-1,2],[3,6],[0,0],[1,0],[2,3],[-1,2],[0,1],[1,-2],[0,1],[2,-3],[0,1],[1,-1],[1,3],[0,2],[1,2],[-1,2],[1,2],[-1,2],[0,1],[1,3],[0,0],[1,4],[-1,3],[1,3],[0,1],[2,3],[-1,0],[1,3],[-1,1],[0,4],[0,1],[-2,-2],[0,-2],[-1,1],[-1,-1],[-1,2],[1,2],[0,0],[1,3],[0,3],[-1,1],[0,1],[1,1],[0,4],[2,6],[0,0],[1,2],[-1,0],[1,2],[0,-1],[1,2],[1,-1],[2,3]],[[9992,9872],[-1,4],[1,1],[0,1],[1,2],[-1,1],[1,1],[-1,5],[2,3],[0,3],[1,0],[0,0],[-3,-21]],[[9996,9840],[-1,0],[0,1],[-1,1],[1,1],[-3,2],[0,3],[2,4],[2,-12]]],"transform":{"scale":[0.001167507074797996,0.0005856880673921963],"translate":[141.6977069800623,-35.201997997188485]},"objects":{"NSW-flood_planning":{"type":"GeometryCollection","geometries":[{"arcs":[[[0]],[[1],[2],[3]],[[4]],[[5]],[[6]],[[7]],[[8],[9],[10]],[[11]],[[12]],[[13]],[[14],[15]],[[16]],[[17],[18],[19],[20],[21],[22],[23],[24],[25],[26],[27],[28],[29],[30],[31],[32],[33],[34],[35],[36],[37],[38],[39],[40],[41],[42],[43],[44],[45],[46],[47],[48],[49],[50],[51],[52],[53],[54],[55],[56],[57]],[[58],[59]],[[60],[61],[62],[63]],[[64]],[[65]],[[66]],[[67]],[[68]],[[69]],[[70]],[[71]],[[72]],[[73]],[[74]],[[75]],[[76]],[[77]],[[78],[79]],[[80]],[[81]],[[82],[83],[84]],[[85]],[[86]],[[87]],[[88]],[[89]],[[90]],[[91]],[[92]],[[93],[94],[95]],[[96]],[[97]],[[98]],[[99]],[[100]],[[101]],[[102]],[[103]],[[104]],[[105]],[[106]],[[107]],[[108]],[[109]],[[110]],[[111]],[[112]],[[113]],[[114]],[[115]],[[116]],[[117]],[[118]],[[119]],[[120]],[[121]],[[122]],[[123]],[[124]],[[126]],[[127]],[[128],[129],[130],[131],[132],[133],[134],[135],[136],[137],[138],[139],[140],[141],[142],[143],[144],[145],[146],[147],[148],[149],[150],[151],[152],[153],[154],[155],[156],[157],[158],[159],[160],[161],[162],[163],[164],[165],[166],[167],[168],[169],[170],[171],[172],[173],[174],[175],[176],[177],[178],[179],[180],[181],[182],[183],[184],[185]],[[186]],[[187]]],"type":"MultiPolygon","properties":{"layer":"flood_planning"}}]}},"properties":{"layer":"flood_planning","state":"NSW","source":"NSW Environmental Planning Instrument — Flood (NSW Planning Portal)","licence":"CC-BY-4.0","asOf":"2026-09-08","simplify":"100%"}}