{"type":"Topology","arcs":[[[325,8543],[0,-6],[-5,2],[5,4]],[[172,9156],[19,-4],[19,-5],[-9,-2],[-9,3],[-11,1],[-3,1],[2,1],[-1,3],[-2,-3],[-5,2],[0,-1],[-4,-4],[4,2],[2,-3],[-6,-2],[-8,2],[-1,2],[1,0],[-2,2],[-6,1],[16,5],[2,0],[2,-1]],[[298,9238],[2,-3],[4,-1],[7,2],[-1,-2],[2,-2],[3,-4],[-8,-2],[-5,1],[-1,2],[-6,-1],[-2,3],[-3,-1],[-2,0],[5,6],[5,2]],[[4724,4257],[18,-5],[1,-1],[4,-1],[3,-1],[1,-2],[5,-4],[4,-2],[8,2],[12,-2],[9,4],[8,-2],[4,-4],[7,-3],[8,1],[1,0],[17,3],[3,0],[3,1],[9,0],[16,-5],[1,-2],[0,1],[4,-1],[7,-4],[3,0],[0,-1],[19,-3],[11,4],[2,2],[13,7],[16,2],[5,3],[1,-1],[4,3],[4,6],[7,2],[5,-2],[7,-7],[5,-2],[4,-4],[0,-6],[1,-2],[8,-3],[10,-1],[10,2],[14,5],[17,9],[16,17],[5,2],[5,7],[6,1],[2,2],[8,-2],[8,4],[6,0],[9,7],[5,-2],[3,-9],[7,-2],[9,2],[6,3],[6,8],[6,3],[2,2],[10,-5],[6,0],[0,-7],[-3,-4],[-2,-9],[0,-17],[-1,-3],[0,-8],[-2,-2],[-2,-5],[-7,9],[-5,2],[-4,1],[-10,-2],[-16,-7],[-16,-15],[-11,-12],[-6,-4],[-8,-11],[0,-3],[-2,-3],[3,-10],[-1,-4],[1,-3],[2,-2],[0,-1],[0,0],[0,-1],[2,-1],[0,-1],[-2,1],[0,-2],[0,0],[1,0],[-2,-1],[0,-3],[-2,1],[-1,-2],[-1,1],[0,0],[1,-1],[-3,0],[-1,-1],[0,1],[0,0],[0,-1],[-1,1],[-1,-2],[2,0],[0,-1],[-5,-2],[8,2],[0,-1],[0,2],[3,-1],[2,2],[2,2],[0,0],[1,0],[1,1],[-1,0],[0,0],[-1,-1],[2,1],[-1,2],[1,0],[5,0],[0,-4],[4,-3],[12,-3],[10,0],[24,8],[6,4],[3,0],[5,-5],[4,0],[3,-2],[5,-2],[3,-1],[7,-1],[6,3],[1,-10],[0,-3],[1,-5],[0,-4],[1,-1],[0,-1],[-4,-2],[-2,-4],[-2,-1],[-3,-3],[-4,0],[-2,1],[-5,-4],[-7,-3],[-6,-5],[-20,-21],[-2,-5],[-1,-6],[-1,0],[0,0],[-1,3],[1,1],[-1,-1],[-2,2],[1,1],[-1,0],[-1,2],[-4,1],[-4,-4],[1,3],[-1,-1],[0,-1],[0,0],[1,-1],[-3,-2],[1,-1],[-2,-1],[1,0],[1,1],[-1,-1],[-2,0],[-2,2],[-2,2],[-3,1],[-3,-6],[-3,-1],[-1,2],[1,-2],[2,0],[5,6],[2,-2],[3,-3],[3,-1],[2,2],[3,5],[2,1],[1,0],[0,0],[1,0],[-2,0],[0,0],[-1,0],[2,0],[0,-1],[1,0],[0,-1],[2,-1],[-2,-2],[3,0],[-1,0],[1,-2],[-2,1],[-1,-1],[-2,1],[0,-2],[-1,0],[-1,-1],[1,0],[-3,-2],[-2,-2],[0,1],[0,-1],[-2,-1],[0,-2],[-1,1],[1,-1],[-1,1],[0,-1],[-1,0],[0,-1],[-2,-2],[-6,1],[-1,3],[-2,0],[-1,2],[-2,1],[2,-1],[1,-2],[3,-3],[4,-1],[-1,-2],[1,-1],[-1,0],[0,0],[-5,3],[-3,0],[3,0],[5,-4],[-1,0],[1,0],[-2,1],[-3,0],[3,0],[1,-1],[-1,-2],[2,-2],[-1,0],[1,0],[-2,-2],[-1,1],[0,-1],[-3,-3],[0,0],[0,-1],[0,0],[-1,0],[1,0],[0,0],[0,-1],[1,1],[1,0],[-2,-2],[-2,1],[-1,-3],[-1,1],[0,3],[-1,1],[-2,1],[-1,0],[-1,-1],[0,-1],[-1,1],[-1,0],[-1,-1],[-1,1],[1,-1],[1,1],[2,-2],[0,1],[1,1],[3,0],[-1,-5],[1,1],[1,-2],[1,0],[2,-2],[-1,0],[-2,-2],[-1,0],[-3,-1],[3,-2],[-2,0],[-1,-2],[0,-2],[1,-1],[0,-1],[-1,0],[1,1],[-2,0],[1,-1],[-1,0],[0,0],[2,0],[-2,-3],[1,-2],[1,-1],[-3,1],[-1,0],[1,-1],[-2,0],[-1,-1],[5,0],[-2,-5],[0,-4],[-2,-1],[1,3],[-2,0],[1,0],[0,1],[-2,0],[1,-1],[-1,-1],[1,0],[-1,0],[0,-1],[-1,0],[1,-1],[-1,0],[0,-4],[-2,0],[0,-1],[-1,-1],[1,-1],[1,1],[0,0],[1,1],[-1,-2],[5,0],[-1,-3],[1,0],[1,-6],[0,-5],[4,-9],[-1,7],[-1,4],[1,2],[-2,2],[0,2],[-1,1],[2,1],[-1,1],[-1,-1],[1,1],[-2,2],[2,0],[1,0],[5,-7],[7,-5],[7,-3],[9,-2],[8,-1],[21,2],[14,6],[27,-6],[15,-4],[19,-4],[8,0],[21,0],[25,0],[15,5],[10,4],[13,-2],[10,5],[14,3],[28,14],[17,-2],[0,-2],[3,-1],[2,-3],[0,-4],[3,-6],[0,-2],[10,-6],[1,-13],[7,-4],[6,-6],[1,-11],[-2,-4],[-17,-8],[-12,-17],[-5,0],[-10,-12],[3,-8],[-7,-4],[-4,2],[-6,-3],[-2,0],[-4,-6],[-3,0],[0,-3],[-7,-4],[-3,-4],[-3,-2],[0,-3],[-3,-7],[-1,-11],[3,-12],[0,-6],[2,-1],[7,-3],[-1,-3],[-3,-2],[0,-2],[1,-2],[-1,-6],[3,-8],[4,-8],[5,0],[4,3],[2,-3],[1,0],[0,2],[2,-1],[0,1],[2,1],[-1,2],[-1,0],[-1,-2],[-1,1],[-2,0],[3,1],[0,-1],[-1,3],[2,1],[0,5],[-2,1],[0,-5],[-2,2],[-2,-1],[-2,0],[-2,2],[-1,-1],[-2,5],[2,3],[3,-1],[2,0],[7,4],[4,0],[0,2],[3,2],[-1,2],[1,1],[0,3],[6,3],[11,-13],[4,-1],[2,-2],[3,0],[15,-3],[1,1],[-1,4],[1,0],[0,1],[2,0],[2,1],[2,2],[1,-1],[1,3],[4,2],[0,8],[3,-1],[3,-2],[0,-3],[1,-1],[2,1],[1,-1],[2,3],[0,2],[-3,0],[0,1],[3,0],[1,3],[-5,3],[0,5],[-2,0],[0,2],[-4,3],[-4,1],[-1,-1],[-3,3],[-3,1],[-2,1],[-6,0],[-5,-3],[-9,2],[-3,-1],[-6,3],[1,2],[-1,0],[-5,0],[-2,-6],[-4,-3],[-2,1],[-6,5],[-5,11],[1,9],[9,0],[1,-1],[-1,-1],[0,-1],[6,-2],[4,3],[0,1],[2,0],[-2,1],[0,2],[3,2],[2,3],[0,7],[-2,7],[2,3],[12,-9],[5,-2],[14,-9],[26,-6],[18,0],[4,2],[13,2],[13,4],[5,3],[4,4],[2,8],[5,4],[5,8],[0,4],[11,6],[1,0],[-1,0],[1,-2],[0,-1],[0,3],[0,0],[-1,1],[1,1],[9,11],[11,6],[6,8],[-1,5],[0,16],[4,5],[0,1],[0,5],[-1,1],[-1,3],[1,4],[-1,2],[0,5],[2,9],[6,2],[2,7],[10,5],[12,-5],[10,1],[8,-1],[7,3],[2,0],[0,-1],[1,0],[1,2],[-2,0],[1,2],[9,0],[0,-4],[6,-4],[9,-1],[0,0],[6,1],[4,-2],[3,2],[7,3],[5,0],[20,-5],[8,-3],[4,0],[2,-2],[0,-1],[2,-1],[5,1],[2,-1],[3,2],[0,-1],[3,0],[1,-1],[4,0],[1,-4],[11,-4],[2,-2],[3,-2],[4,0],[2,-7],[4,2],[1,-1],[1,-1],[5,1],[5,-7],[0,-2],[8,2],[10,-4],[1,-2],[-1,-1],[1,-1],[1,-2],[10,-4],[7,-4],[2,-3],[1,0],[1,-3],[4,-1],[0,-1],[1,-1],[1,-3],[3,-2],[-1,-4],[2,-3],[-2,-8],[1,-8],[-2,-2],[2,-4],[-1,-7],[7,-19],[7,-8],[10,-6],[9,-8],[8,-4],[2,0],[4,0],[7,-5],[17,1],[7,4],[4,6],[3,0],[-1,-11],[-6,-12],[-3,-3],[0,-3],[3,-11],[4,-2],[-1,-11],[2,1],[2,-1],[3,-8],[9,-3],[0,-5],[-2,0],[1,-1],[-3,-2],[-2,0],[0,-2],[-2,-1],[-1,1],[0,0],[0,-1],[-1,1],[-1,-1],[2,-1],[-3,-1],[0,3],[-2,3],[-3,-2],[-5,-1],[-3,-4],[-5,2],[-4,-1],[-9,-8],[-21,-16],[-12,-12],[-6,-9],[-2,0],[0,-2],[-2,-2],[-2,0],[0,-1],[-2,-1],[1,0],[-6,-5],[-5,0],[-2,-4],[-2,-1],[0,-3],[-2,0],[1,0],[-4,-3],[-2,-10],[-1,-2],[0,0],[-1,-1],[-1,-1],[1,0],[-2,-1],[1,1],[-4,-3],[-5,-1],[-2,-4],[-10,-6],[-4,2],[-16,0],[-1,1],[-5,-1],[-10,3],[0,1],[-1,0],[-6,4],[-6,6],[-22,13],[-5,2],[-9,0],[0,1],[-1,0],[0,1],[-1,1],[-2,-3],[-1,0],[1,0],[-3,-1],[0,1],[-1,-1],[-2,3],[0,1],[1,4],[-4,5],[-3,0],[-26,14],[-12,4],[-9,5],[-5,2],[-5,-1],[-3,1],[-2,0],[-3,1],[-5,1],[-5,2],[-4,0],[-1,2],[-2,-1],[-2,0],[-2,3],[-4,0],[-3,-3],[-2,1],[-3,-3],[-4,-1],[-13,-7],[-1,-1],[-2,1],[-1,0],[1,0],[0,-1],[-2,1],[-1,-1],[-1,1],[0,2],[-1,2],[-1,-2],[-1,0],[-1,-1],[1,-1],[-1,0],[1,-1],[-2,0],[0,-3],[-1,0],[1,-1],[-1,-1],[0,1],[-2,-1],[-3,1],[0,2],[-3,-2],[-4,0],[-1,1],[-6,10],[-26,9],[-19,5],[-13,0],[-4,2],[-17,3],[-11,1],[-3,1],[-2,-1],[0,2],[-1,-2],[-5,-2],[-7,3],[-3,-3],[-9,0],[-2,3],[-3,-2],[-3,2],[-2,-2],[-2,2],[-4,1],[-3,-2],[-2,1],[-2,-1],[-3,1],[-5,0],[-1,-1],[-4,1],[-3,-1],[-1,1],[-3,-1],[-2,1],[-4,-4],[-1,1],[-1,-1],[-3,3],[-7,0],[-10,-5],[-4,-5],[1,-2],[-1,-1],[0,-1],[4,-3],[-2,-4],[0,-1],[-4,-2],[-2,0],[-2,-3],[-2,-9],[-2,0],[2,0],[0,-1],[-3,-6],[-17,2],[-29,-3],[-15,-3],[-11,-2],[-2,-2],[-5,0],[-3,-2],[-9,-2],[-19,-7],[-30,-19],[-18,-15],[-6,-6],[-9,-13],[-8,-16],[-4,-12],[-2,-12],[2,-6],[0,-9],[3,-8],[1,-7],[4,-9],[5,-5],[14,-13],[1,-5],[-4,-7],[-1,-5],[1,-7],[-2,-1],[0,-1],[-10,-12],[0,-7],[-5,-3],[-2,-9],[-5,0],[-7,-2],[-6,-9],[-4,-8],[-7,2],[-5,0],[0,1],[-1,-2],[-6,0],[-4,-5],[-1,1],[0,-1],[0,1],[-1,-1],[-1,0],[1,1],[-1,-1],[-6,0],[-5,-2],[-2,1],[-2,-1],[-1,1],[-1,-1],[0,1],[-1,0],[0,-1],[-1,0],[-2,2],[-4,0],[-2,-1],[-2,0],[-1,-2],[-2,0],[0,-1],[-1,0],[0,1],[-1,-1],[-2,0],[0,1],[-1,-1],[-2,1],[-4,-3],[-2,0],[0,-1],[-2,-1],[0,1],[0,0],[0,1],[-2,0],[0,-4],[-3,-2],[-1,-3],[-2,-2],[-3,0],[0,0],[-1,-3],[-1,1],[-1,-3],[-1,2],[-1,-3],[-2,0],[-4,-5],[-1,0],[0,1],[-2,1],[0,-2],[-1,-2],[0,0],[-3,-2],[0,-2],[-2,-4],[-1,0],[0,-1],[-1,-2],[-1,1],[0,-3],[-2,0],[1,-1],[-3,0],[0,-1],[-2,-1],[-3,0],[0,-1],[-2,-3],[1,-1],[-1,-4],[-2,-1],[1,-1],[-2,0],[1,-1],[-2,0],[0,1],[-2,-2],[-3,-1],[-1,3],[-2,-1],[-2,2],[-7,0],[-5,-4],[-4,0],[-3,-6],[-7,-8],[-5,-1],[-2,-3],[-2,-1],[0,-2],[-3,1],[-3,-2],[-1,-2],[0,-3],[-6,1],[-3,-5],[-3,4],[0,8],[-7,7],[-5,2],[-2,0],[0,3],[-5,1],[-1,3],[-1,0],[-1,1],[0,1],[-1,1],[-10,5],[-1,3],[-1,-1],[0,3],[-3,0],[0,2],[-2,0],[-2,2],[-2,1],[-6,6],[-5,5],[-4,1],[-9,9],[0,1],[-1,0],[-3,-5],[-1,0],[0,6],[-2,3],[1,2],[-6,-1],[-2,7],[-2,2],[-1,2],[-3,1],[1,2],[-1,1],[-4,1],[-2,3],[-5,5],[-2,0],[-5,3],[-2,3],[-6,2],[1,11],[-3,3],[-6,1],[1,4],[-2,4],[-5,4],[-7,1],[-4,-3],[-2,2],[0,1],[-3,3],[-12,4],[-5,0],[-9,-3],[-7,4],[-3,-2],[-2,2],[-1,-1],[0,-2],[-1,-1],[-1,1],[-1,0],[0,-1],[-14,0],[-9,2],[-2,-1],[-3,1],[-6,2],[-6,0],[1,3],[-1,1],[-2,0],[-4,-2],[-1,2],[-2,1],[-2,-1],[-3,1],[-4,-1],[-2,-2],[-4,2],[-3,-3],[-3,0],[-1,1],[-2,-2],[-2,0],[-1,1],[-3,1],[-4,0],[-4,6],[-8,6],[-5,3],[-1,0],[-1,-1],[0,1],[-2,2],[-2,-1],[-1,1],[-4,1],[-4,-2],[-1,-2],[-5,2],[-6,0],[0,2],[-3,-2],[-1,3],[-1,-2],[-3,0],[-1,4],[-3,0],[-7,4],[-29,6],[-24,-4],[-13,-9],[-3,-4],[-4,-4],[0,-4],[-1,-4],[2,-2],[0,-3],[6,-5],[7,-2],[-5,-4],[-3,-1],[-1,-2],[-1,1],[0,-1],[-6,-5],[-1,-2],[1,-2],[-1,-5],[-11,-2],[-1,-2],[1,-4],[-2,-1],[-9,-2],[0,-2],[-1,-1],[1,-2],[-1,-5],[2,-4],[-3,-2],[-2,-2],[-5,2],[2,4],[-2,2],[-6,-2],[-2,1],[-1,3],[-6,0],[-6,-4],[-1,1],[-1,0],[1,-2],[-4,-1],[1,-3],[-1,-5],[-3,-2],[-1,-2],[-3,0],[-1,-3],[-1,-1],[-3,2],[-7,2],[-1,1],[-1,4],[1,3],[-1,1],[-6,3],[-13,7],[-10,4],[-4,-3],[-2,1],[-1,-1],[-1,0],[-1,-3],[1,-1],[-2,-1],[2,-1],[0,-1],[-3,1],[-2,0],[-2,-3],[-8,3],[-2,2],[0,1],[-3,1],[-5,0],[-2,1],[-4,-1],[0,0],[-1,-1],[0,1],[-1,-1],[-1,1],[-1,0],[-1,1],[0,1],[-1,1],[-5,-2],[0,1],[-6,-4],[-7,2],[0,1],[-2,1],[-2,-3],[1,0],[-3,-1],[0,-1],[-2,1],[1,0],[-2,-1],[0,-1],[-2,0],[0,0],[-4,-6],[-5,1],[-2,-1],[-1,1],[0,-1],[-6,0],[-1,1],[0,-1],[-5,2],[-4,-2],[-1,1],[0,-1],[-5,1],[1,1],[-1,0],[-2,0],[0,2],[-2,1],[-1,2],[-2,0],[-8,3],[-1,3],[-3,1],[-4,-2],[-1,1],[-1,-1],[0,1],[-3,0],[-2,-1],[-3,0],[2,0],[1,-1],[-2,1],[-1,-1],[-4,1],[-3,3],[-3,-1],[0,2],[-2,0],[0,-1],[-3,-2],[-5,-2],[0,0],[-15,-1],[-6,-3],[-2,0],[-5,3],[-1,-1],[-1,0],[-2,0],[-2,-5],[-1,1],[0,-1],[-3,0],[1,-1],[-2,-1],[2,-1],[-1,-1],[-5,1],[-1,-1],[-1,0],[-4,2],[-2,-2],[-4,0],[-2,-1],[-5,-4],[-3,1],[-1,2],[-3,0],[-1,2],[-1,1],[-2,-2],[-2,0],[-1,-4],[-6,-4],[-1,0],[-1,-1],[-1,1],[-1,-1],[-1,-2],[-2,-1],[-2,-8],[-4,2],[-4,0],[-3,-3],[1,-2],[-2,0],[-2,-3],[-5,-1],[0,-1],[-1,2],[-1,-1],[-2,1],[1,0],[-1,1],[-3,1],[-4,-2],[-2,5],[-3,4],[-3,1],[-4,3],[0,2],[-4,2],[-3,2],[-5,4],[-3,1],[-2,2],[-3,-1],[-6,3],[-3,1],[-6,4],[-5,0],[-5,4],[0,2],[-1,1],[-11,3],[-6,-1],[1,2],[-3,0],[-1,0],[-1,-1],[1,-2],[-2,-2],[-4,2],[-1,-1],[-5,1],[0,-1],[-2,0],[0,2],[-5,0],[-5,-1],[-3,0],[-5,-2],[-3,-2],[0,-3],[-6,-8],[-1,-7],[-7,-1],[-4,-2],[-2,-2],[-1,-4],[-7,4],[-3,0],[-10,5],[-9,-2],[-5,2],[-7,0],[-1,0],[-1,0],[-3,0],[-3,0],[0,-2],[-2,1],[0,-1],[-6,-3],[1,-6],[-3,1],[-2,-2],[1,-4],[0,-2],[1,-3],[-7,-2],[-3,2],[-2,0],[-3,-2],[-1,-5],[-5,-2],[-2,0],[0,-1],[-6,2],[0,2],[-1,1],[-11,4],[-18,2],[-10,-3],[-2,-3],[-2,0],[1,-2],[-1,1],[-2,-2],[1,-3],[-4,1],[-3,-3],[0,-2],[-1,-2],[3,-2],[-2,-6],[-7,4],[-3,-1],[-2,0],[-2,-1],[0,-2],[-2,0],[0,-2],[-1,-2],[0,-3],[-1,-1],[-7,2],[-2,2],[1,1],[-3,0],[1,1],[-1,1],[-2,1],[0,6],[6,0],[6,5],[1,0],[2,3],[0,4],[-1,6],[1,1],[-1,3],[2,2],[0,2],[1,4],[-2,3],[1,2],[-3,4],[-5,14],[-3,5],[-5,4],[0,3],[-1,0],[-1,3],[-4,2],[1,1],[-2,2],[-4,13],[-7,10],[-3,5],[-7,6],[0,2],[-2,2],[-5,8],[0,3],[-9,9],[-1,5],[-17,15],[0,4],[-3,-1],[-4,1],[0,2],[-3,-1],[-6,1],[1,1],[-3,0],[1,2],[-3,0],[-1,2],[-4,-1],[0,1],[-2,-2],[-2,0],[0,1],[-1,-1],[-3,1],[-1,2],[-2,0],[0,6],[-7,4],[-7,-3],[-1,0],[1,1],[-3,-2],[-1,0],[0,-1],[-2,0],[-1,0],[-1,-1],[-2,0],[1,1],[-1,-1],[-2,1],[1,-1],[-2,-2],[-9,-3],[-8,0],[1,0],[-2,0],[-1,1],[0,-1],[-2,0],[0,0],[-1,0],[-1,2],[1,1],[-1,-1],[-2,2],[1,1],[2,2],[-2,0],[1,3],[-2,1],[0,2],[0,1],[-5,0],[0,2],[-2,0],[-9,0],[-2,3],[0,2],[-1,0],[0,1],[1,2],[2,0],[-1,2],[2,0],[-3,1],[0,4],[2,0],[-1,1],[0,3],[-1,1],[1,0],[-2,1],[0,2],[2,0],[-2,1],[1,4],[-1,3],[1,0],[-1,0],[2,2],[-1,2],[-3,2],[0,1],[-2,0],[0,2],[-2,0],[0,1],[1,0],[-2,0],[-6,8],[0,-1],[0,1],[-1,0],[-2,3],[-1,0],[-1,3],[-2,1],[1,1],[-4,3],[1,1],[-2,1],[-1,3],[-3,2],[-6,1],[1,0],[-1,1],[-4,6],[2,2],[-1,2],[-1,0],[1,1],[-2,0],[1,0],[-1,1],[0,1],[-2,0],[1,1],[-2,0],[1,1],[-2,0],[-4,3],[-12,2],[5,4],[3,6],[2,1],[-2,0],[1,2],[2,1],[-2,0],[1,2],[5,1],[0,1],[2,1],[0,2],[-1,3],[-2,2],[0,-1],[-12,0],[-2,-2],[-5,-1],[0,3],[1,1],[-1,1],[1,1],[0,0],[-2,0],[-1,1],[2,2],[2,-2],[-1,2],[3,3],[-6,3],[-1,-1],[-1,4],[4,2],[0,2],[2,0],[-1,1],[1,2],[-2,3],[2,1],[1,0],[0,1],[1,0],[-1,0],[2,2],[-1,5],[3,0],[1,2],[-2,2],[0,2],[5,6],[3,1],[5,-1],[2,0],[0,1],[2,2],[5,0],[0,2],[10,3],[4,6],[0,11],[-2,6],[0,2],[-1,1],[2,3],[-2,1],[0,2],[-1,0],[-2,12],[2,1],[1,0],[1,2],[7,4],[-1,2],[1,4],[-1,3],[0,5],[-1,3],[0,3],[-2,3],[5,3],[4,1],[1,7],[-1,2],[0,2],[8,5],[3,6],[-1,3],[2,0],[-2,6],[0,10],[-1,1],[-1,7],[-3,5],[-1,12],[1,2],[-1,0],[0,5],[10,8],[1,2],[-1,1],[0,3],[2,1],[-1,1],[2,1],[-1,2],[5,6],[1,0],[0,1],[1,1],[14,2],[11,4],[1,-1],[17,1],[17,-6],[13,2],[2,-1],[0,2],[20,5],[9,-2],[3,2],[5,-1],[1,1],[0,0],[10,0],[10,2],[18,6],[10,1],[10,8],[9,6],[1,5],[2,3],[5,2],[1,3],[-1,2],[4,1],[-1,0],[5,3],[1,-2],[4,-2],[1,-1],[1,0],[7,-2],[3,1],[2,1],[10,-2],[11,0],[12,2],[7,6],[-1,1],[3,3],[1,0],[-1,1],[1,0],[2,0],[-1,2],[5,1],[2,1],[0,1],[2,0],[1,1],[3,0],[0,0],[6,1],[-1,3],[1,1],[-1,2],[1,0],[0,2],[1,0],[-2,1],[5,4],[-1,1],[1,1],[1,0],[-1,1],[2,5],[1,-1],[2,1],[4,-1],[10,1],[3,-1],[-1,1],[2,0],[-1,0],[1,0],[2,0],[0,-1],[0,0],[0,0],[2,1],[2,-1],[0,1],[1,0],[2,-3],[1,0],[-1,1],[2,0],[1,2],[1,-1],[0,1],[3,2],[5,1],[2,-2],[0,2],[2,0],[1,-2],[2,0],[0,0],[0,1],[1,-2],[0,3],[2,0],[-1,0],[0,1],[0,0],[1,0],[1,-1],[0,2],[3,-1],[0,-2],[3,-1],[4,6],[1,-2],[0,1],[3,0],[0,1],[2,-1],[1,2],[8,-1],[0,0],[4,0],[6,4],[3,-2],[2,2],[-3,1],[3,1],[8,0],[3,-3],[1,1],[4,-1],[5,1],[6,3],[0,2],[1,1],[5,2],[1,-1],[1,2],[1,0],[1,0],[2,1],[7,-2],[5,2],[12,-2],[0,1],[9,4],[7,1],[2,-1],[1,2],[10,2],[1,2],[3,1],[3,-1],[5,2],[3,0],[21,6],[3,3],[5,-1],[9,4],[3,0],[1,0],[3,1],[7,0],[-1,1],[1,0],[3,-3],[0,-2],[0,1],[9,0],[5,4],[0,-3],[2,0],[1,1],[1,-2],[5,6],[5,-4],[19,2],[9,2],[17,-3],[4,1],[2,2],[7,-2],[10,2],[4,3],[1,-1],[0,1],[2,2],[3,-1],[2,-2],[2,2],[2,-1],[5,0],[0,2],[7,0],[0,2],[5,0],[4,2],[12,-2],[13,-1],[5,3],[2,3],[0,1],[0,0],[-1,0],[1,2],[3,-1],[7,1],[5,3],[3,-1],[0,3],[2,0],[-1,1],[8,-1],[3,4],[2,-1],[2,1],[1,-1],[2,0],[-1,2],[2,0],[4,-1],[2,2],[2,0],[0,1],[1,0],[-1,1],[3,1],[4,-2],[5,1],[2,2],[1,2],[1,0],[1,3],[5,-1],[2,4],[-1,1],[3,4],[1,0],[-1,1],[3,6],[1,-1],[0,1],[3,1],[1,5],[5,-1],[1,2],[1,-1],[0,2],[-1,1],[1,1],[-1,0],[3,1],[-1,0],[1,1],[0,0],[4,1],[-1,2],[6,4],[0,4],[8,-1],[3,-3],[1,2],[3,0],[1,0],[0,0],[4,2],[0,-2],[5,0],[6,-4],[0,2],[2,-1],[1,2],[3,0],[0,1],[2,-1],[0,1],[6,2],[2,2],[1,0],[1,2],[5,1],[0,0],[3,1],[0,6],[5,2],[4,-3],[3,1],[11,-4],[10,0],[9,6],[1,5],[0,3],[5,0],[2,-1],[2,0],[0,1],[4,-1],[1,-1],[4,1],[4,5],[2,0],[-1,2],[1,1],[-1,0],[1,1],[6,-1],[1,3],[2,0],[0,2],[-1,0],[1,5],[1,0],[0,0],[2,1],[6,3],[6,0],[12,3],[2,-1],[2,2],[2,-1],[1,1],[1,-1],[0,2],[1,0],[-1,-1],[5,3],[7,-5],[3,0],[11,2],[14,7],[0,4],[6,2],[-1,1],[2,2],[2,-1],[2,1],[0,1],[1,0],[1,2],[3,1],[0,0],[-1,0],[0,1],[9,0],[4,5],[3,1],[-1,5],[5,3],[1,2],[4,2],[10,0],[9,2]],[[5168,4134],[-1,-9],[2,-8],[7,5],[4,6],[1,5],[-13,1]],[[295,8470],[-7,21],[4,4],[0,7],[-1,5],[0,5],[-2,0],[-1,4],[-2,2],[-3,1],[-5,-1],[2,6],[-6,6],[-1,3],[1,2],[-1,1],[-1,-1],[0,2],[-1,3],[1,2],[-1,2],[-1,2],[-1,-1],[-1,5],[-2,0],[-5,3],[1,6],[-3,4],[4,5],[-1,2],[1,1],[-1,0],[0,1],[-3,7],[-4,1],[1,1],[-1,11],[-7,9],[-1,4],[-4,3],[-10,4],[-1,-1],[-6,0],[-24,8],[0,1],[-5,0],[-1,1],[-1,-1],[-5,0],[-8,-4],[-5,-7],[0,-2],[2,-1],[3,-3],[-5,-6],[-6,-2],[-2,2],[-2,1],[0,2],[-2,1],[-4,-2],[-1,-1],[1,-4],[-4,-8],[-1,-1],[-1,1],[2,9],[-2,1],[0,2],[0,1],[-2,1],[-2,5],[0,1],[1,2],[-1,2],[-1,0],[1,1],[-3,1],[-1,-2],[-2,-1],[-3,7],[1,1],[-2,1],[0,3],[-2,0],[-1,-2],[-2,1],[-2,5],[-1,1],[-1,-1],[-1,2],[0,2],[-6,1],[2,6],[-4,-1],[0,3],[-2,0],[-1,4],[-6,5],[-1,2],[3,3],[6,3],[5,-3],[7,2],[7,5],[1,1],[4,-1],[8,5],[4,-3],[7,-2],[2,1],[1,-2],[5,1],[2,-1],[0,-2],[3,0],[10,-4],[5,5],[10,12],[4,10],[3,21],[-1,20],[-4,21],[-5,13],[-12,23],[-16,18],[-6,4],[-20,11],[-7,0],[-16,-4],[-8,-11],[0,-4],[1,-6],[7,-3],[-4,-5],[-6,0],[-5,4],[1,1],[-1,2],[1,1],[-2,1],[1,1],[-2,3],[-3,0],[-1,2],[-2,-1],[-4,2],[-2,2],[5,4],[0,9],[-11,15],[-3,3],[-10,4],[-9,0],[-14,-10],[0,-4],[-5,-3],[-3,-7],[-7,1],[-2,1],[-5,-2],[-4,6],[1,2],[3,0],[0,2],[-1,4],[-4,0],[-7,2],[1,2],[-1,1],[0,1],[-2,4],[-2,-1],[-3,2],[-4,0],[-7,8],[8,-1],[4,-3],[3,1],[0,1],[6,4],[1,4],[1,1],[-1,2],[1,3],[2,0],[1,2],[2,6],[-6,14],[-6,3],[0,3],[6,3],[2,-1],[5,4],[5,-1],[-1,1],[-1,1],[2,-1],[-1,1],[1,0],[2,0],[1,1],[0,1],[1,-1],[1,1],[3,-1],[-2,1],[1,1],[3,-3],[5,0],[7,7],[-1,7],[1,1],[-2,1],[0,3],[10,-2],[4,2],[5,-2],[8,3],[13,16],[9,4],[1,2],[-1,1],[2,1],[0,5],[3,13],[3,3],[1,4],[0,2],[1,10],[-7,23],[2,4],[-13,33],[-9,22],[-15,25],[-17,23],[-11,11],[-14,10],[1,2],[0,1],[-6,1],[-1,3],[-2,0],[-3,1],[0,2],[-1,-1],[0,2],[2,2],[0,1],[-4,1],[-1,1],[1,4],[-1,3],[-3,3],[-1,-1],[-3,2],[0,1],[-1,0],[2,3],[-3,-1],[-2,3],[0,1],[-3,3],[5,6],[-1,3],[12,6],[9,3],[3,5],[5,-3],[2,1],[7,-2],[5,-4],[4,-1],[3,-5],[13,-6],[9,0],[8,3],[2,-1],[1,-2],[-5,0],[0,-1],[-1,1],[0,-1],[-6,-1],[1,-1],[42,6],[14,-3],[13,-1],[13,4],[2,-2],[-1,-2],[-6,-2],[-3,-3],[0,-1],[-2,-2],[-11,2],[0,-1],[-1,0],[0,2],[-1,0],[0,-5],[4,-5],[1,-3],[1,1],[3,-5],[7,-4],[8,-2],[1,-1],[-1,-1],[1,1],[3,0],[0,-2],[1,2],[4,-1],[-1,-1],[2,0],[6,-6],[8,0],[3,2],[2,-8],[5,-4],[7,0],[-5,-8],[1,-4],[-3,-3],[1,-2],[-1,-4],[-6,-7],[-2,-8],[3,-8],[4,-5],[1,-3],[0,-4],[-2,-6],[0,-9],[3,-4],[-2,0],[0,-2],[-1,0],[0,2],[-1,1],[0,-2],[1,-1],[3,2],[3,-5],[8,-2],[9,3],[6,0],[4,2],[1,2],[8,5],[1,4],[1,4],[7,4],[5,4],[1,6],[0,6],[1,2],[-3,13],[1,4],[4,1],[4,2],[3,2],[3,3],[1,5],[-2,10],[4,4],[6,3],[15,12],[9,14],[3,8],[6,11],[4,12],[-1,3],[7,5],[4,0],[2,2],[1,9],[7,1],[5,7],[0,9],[-2,6],[-1,2],[-6,-2],[2,13],[5,5],[3,4],[4,9],[2,12],[-7,12],[-11,2],[-5,13],[1,10],[-3,10],[2,1],[0,3],[0,21],[-2,19],[-5,25],[-5,20],[-18,40],[-12,16],[-12,13],[-3,6],[-25,25],[-12,25],[-10,5],[-5,5],[-8,14],[-21,24],[-4,2],[-16,12],[-10,9],[-1,-1],[-2,2],[-3,-1],[-12,7],[-7,3],[-7,6],[-14,6],[-16,4],[0,131],[568,0],[0,249],[496,2],[1,-486],[405,0],[0,-228],[-234,0],[0,-206],[-223,0],[0,18],[0,-658],[458,-1],[0,-330],[926,3],[189,1],[-2,-269],[1,-622],[34,0],[-1,-234],[818,2],[0,-13],[-6,-3],[-34,-12],[-15,-3],[-10,0],[-13,-5],[-5,-7],[-6,-2],[-4,-7],[-5,-3],[-2,-3],[-11,-7],[-1,-2],[-11,-6],[-3,-8],[-10,-9],[-4,-6],[-23,-20],[-12,-14],[-8,-5],[-9,-9],[-7,-10],[0,-8],[-4,-5],[0,-3],[0,-2],[0,-5],[-7,-7],[0,-2],[-5,-5],[-1,-5],[2,-4],[3,0],[1,-6],[-4,-9],[0,-7],[9,-9],[-3,-5],[-4,-6],[-2,0],[-2,-5],[-2,-6],[-3,-4],[1,-5],[-13,-11],[-4,-5],[-1,-2],[3,-2],[-3,-2],[-3,-4],[-1,-7],[3,-6],[-4,-2],[-3,-2],[-1,-7],[1,-2],[-1,-2],[-2,-2],[-1,-1],[1,-3],[-2,-3],[1,-1],[0,-2],[2,-4],[-1,-6],[-1,0],[-1,1],[-9,-3],[-7,-7],[2,-6],[-9,-2],[-8,-6],[-6,-10],[2,-4],[-7,-5],[0,-4],[-3,-3],[-2,-1],[0,-1],[-1,-1],[0,-1],[-1,-2],[-2,-1],[-2,2],[-2,-1],[0,-2],[2,-3],[-4,-4],[-7,0],[-2,-11],[-2,-1],[-2,-7],[-4,-3],[-1,-5],[-7,-9],[2,-4],[3,0],[0,-4],[-1,-1],[0,-3],[-4,-2],[-5,-16],[0,-9],[-1,-4],[-2,0],[1,-1],[-1,-3],[-6,-2],[-2,-3],[-8,-12],[-2,-1],[0,-3],[-3,-4],[-2,-1],[-3,-5],[-3,-1],[0,-2],[-8,-10],[-2,-4],[-10,-10],[-9,-11],[-21,-19],[-12,-14],[-14,-12],[-18,-8],[-11,0],[-9,4],[0,5],[2,3],[0,3],[0,2],[-1,-5],[-1,-3],[-1,-3],[2,-5],[2,0],[1,1],[0,-1],[-3,0],[-8,1],[-15,-2],[-11,-2],[-10,-5],[-18,-14],[-10,-12],[-10,-23],[-2,-10],[0,-7],[3,-7],[3,-3],[-1,-1],[-4,1],[1,-2],[-2,1],[-1,2],[0,-1],[3,-2],[2,1],[1,-1],[0,1],[1,0],[0,0],[-1,-4],[2,4],[3,3],[4,-4],[3,-17],[4,-5],[5,-5],[10,-2],[-5,-2],[-4,1],[-5,-1],[-12,-9],[-5,-16],[-5,4],[-1,3],[2,4],[-1,1],[1,5],[3,3],[-1,1],[-4,3],[0,2],[-1,0],[-2,-1],[0,1],[-1,0],[1,-1],[3,1],[0,-2],[3,-4],[-3,-2],[-1,-5],[-5,-1],[-2,6],[-11,10],[-1,1],[1,1],[0,0],[-1,-1],[0,0],[3,-4],[0,-2],[6,-6],[-1,-2],[-2,-2],[2,1],[2,-2],[-1,-2],[-3,-2],[-3,0],[-1,1],[0,0],[-1,1],[-2,1],[-2,-1],[-3,-2],[1,-4],[2,-2],[8,0],[4,3],[1,2],[3,-1],[2,-1],[-3,-7],[-8,-11],[0,0],[-1,0],[1,-3],[2,-2],[9,-1],[8,0],[2,1],[2,3],[1,7],[2,3],[5,0],[5,-2],[-1,-6],[4,-8],[-2,-2],[-1,-4],[3,-3],[-1,-2],[1,-2],[-1,-3],[-5,-5],[-1,-10],[2,-2],[-1,-11],[1,-8],[8,-5],[-13,-11],[-3,-7],[0,-6],[1,-6],[4,-3],[5,1],[-1,-3],[2,-3],[-3,-2],[2,-6],[-6,-13],[-1,-10],[-3,-8],[0,-9],[-5,-4],[-10,-4],[-5,-4],[-1,-6],[3,-4],[2,-5],[-4,-3],[-1,-7],[-3,-2],[-2,-5],[-4,-1],[-6,6],[2,4],[0,4],[-3,6],[1,3],[3,0],[2,2],[3,1],[2,1],[1,5],[-1,7],[-4,6],[-9,9],[-2,3],[-8,7],[10,8],[2,3],[0,3],[-10,21],[-8,4],[-8,2],[-5,4],[-9,3],[-15,0],[-19,-4],[-6,-2],[-5,-3],[-2,-4],[2,-6],[-1,-3],[-8,-5],[-5,-6],[0,-4],[5,-4],[-1,-2],[-4,-3],[1,-5],[4,-4],[1,-3],[5,-4],[-7,-3],[-3,6],[2,1],[-1,2],[-2,3],[-9,3],[-5,-1],[-6,-2],[-2,-3],[-7,-4],[-4,-9],[-7,9],[-3,1],[-2,-1],[-3,0],[1,8],[0,1],[-4,4],[-6,2],[-10,-2],[-18,-7],[-24,-19],[-15,-18],[-3,-7],[1,-6],[3,-4],[4,0],[3,0],[-7,-8],[-9,-2],[-3,-5],[-16,-39],[-9,-14],[-2,-9],[-2,-10],[-1,1],[-5,-5],[-6,2],[-4,1],[-3,-5],[-8,0],[-1,2],[-1,5],[0,1],[3,1],[0,3],[-1,0],[-4,3],[-1,0],[-1,0],[2,0],[5,-3],[-1,-3],[-2,-1],[1,-7],[-1,-1],[-1,1],[1,-1],[1,0],[0,1],[5,-2],[4,1],[0,-1],[3,5],[3,-1],[3,-2],[4,0],[5,5],[4,-19],[10,-12],[3,-2],[8,0],[4,2],[1,2],[2,1],[5,-3],[7,2],[1,-6],[-3,-2],[0,-11],[5,-6],[-5,-15],[3,-3],[1,-2],[0,-4],[-1,-3],[2,-3],[2,-13],[-6,1],[-8,5],[2,6],[-4,4],[0,7],[-5,5],[-12,5],[2,13],[-6,5],[-8,4],[-16,3],[-7,-2],[-11,-5],[-10,-7],[-15,-13],[-6,-8],[0,-9],[-5,-25],[0,-6],[-3,-14],[0,-7],[1,-3],[0,-7],[1,-28],[-2,-22],[-1,-10],[0,-2],[0,0],[0,-3],[3,-5],[5,-5],[-4,-3],[-7,-2],[-11,2],[-2,-4],[3,-1],[3,-2],[2,-6],[4,-3],[1,-3],[0,-4],[5,-1],[4,-4],[5,1],[2,3],[4,2],[13,3],[5,10],[-2,4],[1,2],[4,6],[2,-5],[3,-1],[5,-6],[-4,-12],[-2,0],[-1,-2],[-2,0],[-7,-5],[1,-2],[2,0],[0,-3],[0,0],[0,0],[0,-1],[-2,0],[-2,2],[0,0],[1,-2],[-2,0],[-1,1],[1,1],[-3,4],[-5,-1],[0,-2],[-3,1],[-1,-1],[5,-5],[1,5],[2,2],[1,-1],[2,-2],[-3,-1],[-1,-3],[1,0],[1,1],[1,1],[1,-2],[2,0],[0,-2],[-2,-2],[-5,2],[4,-3],[2,1],[1,2],[4,-1],[-1,3],[1,1],[3,-5],[3,-2],[10,0],[5,4],[-1,-12],[-14,-4],[-4,-7],[-1,-5],[-9,-3],[-2,-3],[-1,-5],[-4,-2],[-4,-2],[-3,7],[2,7],[0,5],[1,3],[-1,3],[-10,6],[-3,1],[-8,-2],[-6,-2],[-23,-23],[-4,-2],[-5,-6],[-7,-5],[-13,-14],[-6,-11],[-5,-5],[1,0],[0,-4],[-5,-3],[-2,-4],[-4,-2],[-5,-6],[-3,-1],[0,-2],[-3,-3],[-1,-3],[-1,-3],[3,-6],[9,4],[5,-5],[16,-1],[26,-6],[12,-2],[12,2],[5,6],[12,3],[2,0],[3,2],[3,5],[34,0],[7,5],[7,0],[5,2],[1,1],[4,7],[3,2],[4,10],[4,0],[5,5],[0,6],[7,-2],[4,2],[6,10],[9,21],[4,1],[5,-1],[3,-2],[2,0],[7,4],[10,4],[4,6],[5,-8],[5,-2],[2,-10],[-2,-5],[0,-14],[5,-3],[6,-1],[10,0],[9,3],[3,3],[3,4],[-1,6],[5,4],[2,5],[1,5],[-2,1],[-2,9],[0,3],[-1,4],[5,8],[1,8],[0,4],[-2,0],[-5,4],[3,3],[1,5],[-4,10],[-8,0],[-2,6],[3,5],[5,1],[9,-2],[4,5],[2,0],[2,-2],[-1,-7],[2,-5],[5,-1],[2,-3],[1,1],[5,-1],[0,-3],[7,-10],[0,-8],[-3,-5],[7,-5],[1,-2],[-3,-4],[1,-8],[-3,-2],[-2,-6],[-4,-4],[-3,-7],[-5,-12],[0,-12],[2,-4],[4,-3],[3,0],[3,-4],[-3,-2],[-5,-6],[0,-6],[2,-2],[3,0],[1,-4],[1,0],[-4,-1],[-3,0],[-2,-3],[-3,-14],[-3,-4],[0,-4],[-4,-3],[-1,-2],[0,-2],[-2,-5],[-4,-1],[-4,2],[-7,-3],[-10,-9],[-14,-9],[-4,-6],[-6,-9],[1,-6],[-1,-6],[2,-5],[-1,-8],[0,-10],[4,-14],[7,-11],[6,-6],[-2,-5],[1,-4],[8,-7],[-3,-7],[0,-5],[2,-7],[3,-2],[7,0],[5,-6],[0,-2],[-2,0],[0,-1],[0,0],[0,-1],[-1,-2],[0,-3],[3,-3],[0,-2],[4,-1],[0,-3],[1,-2],[4,-12],[-1,1],[0,-1],[-6,0],[-3,-6],[0,-12],[5,-4],[5,-1],[-1,-1],[1,-1],[-1,-7],[-2,-1],[0,-1],[-4,-5],[1,-7],[-2,-3],[2,-1],[1,-4],[2,-1],[8,4],[3,-5],[0,-5],[-2,-1],[2,-1],[-1,-3],[4,-10],[3,-5],[-2,-14],[-12,11],[-3,-1],[-7,-4],[0,-4],[-4,-8],[-3,-1],[0,-1],[-1,0],[0,-1],[-2,-1],[-5,-5],[-1,0],[1,0],[-3,5],[-10,3],[-10,-4],[-2,-9],[2,-14],[-1,0],[0,2],[-1,-2],[-1,1],[0,-2],[-2,0],[0,4],[-1,-4],[-2,1],[0,-1],[-2,2],[-1,-2],[-1,2],[-2,-1],[0,1],[-1,-1],[-3,0],[-2,3],[-1,-1],[0,2],[-1,0],[0,1],[-2,-1],[0,3],[2,0],[-2,3],[1,3],[-1,0],[2,2],[0,3],[-1,-1],[0,1],[0,3],[-1,3],[1,-1],[-1,2],[1,0],[2,0],[-5,4],[0,5],[1,1],[1,-1],[0,1],[2,-1],[1,1],[-1,2],[2,1],[0,-1],[1,3],[3,1],[-1,5],[-2,3],[1,2],[-2,1],[0,-1],[-5,4],[-4,-2],[-1,1],[1,-1],[-1,1],[0,-1],[-1,1],[0,-1],[-1,1],[-2,2],[0,-2],[-3,1],[-2,4],[-1,-1],[-2,3],[0,3],[1,-1],[-1,2],[1,0],[0,1],[-2,1],[0,5],[-1,0],[-2,8],[2,2],[2,1],[-1,3],[3,4],[-6,8],[-6,4],[0,1],[-1,0],[-3,1],[0,1],[0,-1],[-2,1],[0,4],[-19,11],[-14,5],[-6,3],[-18,3],[-4,8],[-10,7],[-10,2],[-4,-4],[-2,-1],[0,-2],[-3,-5],[-1,-2],[-1,1],[-4,5],[-1,6],[5,9],[0,3],[0,6],[-1,0],[1,3],[0,2],[-1,-1],[1,5],[5,9],[-1,3],[-1,0],[-1,4],[-4,0],[-2,4],[-1,3],[3,3],[-1,4],[-1,1],[-3,0],[-7,10],[-42,22],[-22,8],[-7,1],[-1,1],[-1,0],[-13,3],[-14,3],[-6,2],[-13,2],[-18,0],[-5,-1],[-17,-1],[-21,-7],[-2,-2],[0,-1],[-1,1],[-1,-2],[-10,-2],[-3,-11],[-2,-1],[-2,-4],[1,-22],[-5,-17],[-2,-9],[2,-2],[0,-2],[2,-1],[-1,-1],[-5,-2],[-1,2],[-2,0],[-1,2],[-4,-3],[-1,0],[-3,-7],[-2,0],[0,-1],[-5,-1],[-3,6],[-5,-2],[-7,-9],[5,-6],[5,-1],[0,-3],[2,-1],[2,-5],[-1,-4],[-2,-1],[1,-1],[-1,-5],[3,-6],[-1,-1],[0,-1],[-1,-2],[5,-4],[-2,-2],[1,0],[-2,-4],[-5,-6],[-4,1],[0,1],[-1,-1],[-1,1],[0,-2],[-1,1],[-1,-1],[-3,0],[-1,3],[-2,2],[-3,0],[0,-1],[-3,0],[-10,6],[-2,-1],[0,2],[-1,0],[-1,-1],[-1,2],[-2,0],[-1,1],[-1,-1],[-3,1],[0,2],[-2,1],[-3,-1],[-1,-1],[-3,0],[-3,1],[-1,0],[-8,0],[-2,-1],[-1,-2],[1,-6],[-1,-2],[-1,0],[-1,0],[-1,1],[-2,-1],[-2,4],[-9,-2],[-1,-6],[-5,0],[0,2],[-1,-1],[1,2],[-2,1],[0,3],[0,-1],[-4,3],[0,10],[-1,0],[0,3],[2,1],[1,2],[0,1],[1,3],[-2,-1],[-1,3],[4,5],[-1,3],[-1,1],[-1,-2],[-2,0],[0,3],[-2,0],[-1,-1],[-1,5],[8,0],[0,3],[2,1],[-1,1],[3,1],[-1,2],[-1,2],[0,4],[2,2],[-1,1],[0,3],[1,2],[-3,0],[-2,3],[-4,1],[-1,2],[1,0],[0,3],[1,4],[-5,3],[0,2],[-2,0],[0,6],[-5,2],[-8,0],[-1,22],[-3,1],[0,1],[-2,1],[-2,0],[0,4],[-4,3],[1,1],[-1,1],[-2,-1],[-1,1],[-2,1],[0,3],[-2,2],[-1,4],[-4,1],[0,3],[-2,1],[-1,-2],[-1,1],[1,3],[-3,-1],[0,2],[-2,1],[0,2],[0,2],[-2,0],[-3,3],[2,1],[-3,2],[0,2],[-4,0],[1,2],[-3,2],[0,2],[-1,0],[0,1],[-2,0],[0,3],[-2,1],[-3,5],[-2,1],[-5,4],[1,0],[0,1],[-4,2],[-2,3],[-2,0],[0,2],[-2,1],[1,4],[-3,1],[0,2],[-2,1],[-1,1],[-3,0],[2,7],[-4,4],[-1,0],[-4,3],[0,2],[-4,1],[-1,2],[-4,3],[-1,6],[-2,2],[-9,3],[0,3],[-3,5],[-29,25],[-13,14],[-9,2],[0,8],[-3,1],[0,2],[-1,1],[-1,3],[-1,0],[1,2],[-1,0],[4,6],[-1,6],[-1,0],[-2,3],[-1,1],[0,1],[-2,1],[1,0],[-1,2],[-11,13],[-4,2],[0,4],[-2,4],[-5,6],[-22,21],[-28,23],[-14,10],[-12,7],[-19,16],[-42,20],[-26,9],[-16,3],[-9,-1],[-10,-4],[-12,-10],[-10,12],[5,4],[5,19],[4,-5],[13,0],[9,9],[4,16],[-1,8],[-11,39],[-7,15],[-9,11],[-11,10],[-12,8],[-8,4],[-9,1],[-4,-3],[-3,10],[-2,3],[0,3],[-3,1],[0,2],[-3,1],[-1,4],[-5,5],[-1,2],[-2,0],[2,3],[0,2],[-4,4],[-1,3],[1,1],[-2,0],[-1,3],[-2,-1],[-1,2],[-1,0],[-1,6],[-4,5],[-21,18],[-5,2],[-2,4],[-22,13],[-20,6],[-12,0],[-10,-2],[-9,-9],[-2,-4],[6,-8],[-10,3],[-10,1],[-4,-5],[-1,0],[-3,3],[-11,0],[-5,2],[-9,0],[-5,-4],[-2,-1],[-3,-5],[-8,-1],[-5,-3],[-8,-9],[-2,-1],[0,-1],[-5,-6],[0,-4],[2,-2],[-2,-4],[-1,-2],[0,-2],[-1,-2],[3,-7],[-1,-1],[-2,-1],[1,-3],[-4,-5],[-2,2],[-3,-1],[-2,4],[-4,-2],[0,1],[-1,1],[0,1],[-2,2],[-6,-4],[-2,1],[1,2],[0,1],[-3,1],[-3,0],[0,-1],[-1,2],[-1,0],[-3,2],[-2,-1],[1,-1],[-1,-2],[-2,1],[0,-2],[-3,-1],[-2,1],[0,-2],[-2,-1],[-6,4],[1,6],[2,3],[3,2],[6,0],[1,1],[10,6],[0,6],[1,2],[-1,3],[1,0],[-1,3],[2,2],[-1,2],[1,4],[-2,4],[1,3],[1,5],[6,6],[3,6],[1,5],[1,7],[-2,19],[-3,7],[-1,0],[2,1],[1,1],[6,6],[7,0],[1,1],[0,2],[2,1],[0,2],[1,0],[-1,1],[1,18],[-2,3],[-3,0],[-1,2],[-1,0],[2,6],[1,1],[3,0],[2,-1],[2,1],[11,13],[8,8],[5,9],[0,1],[4,4],[5,10],[2,8],[-1,3],[5,4],[1,2],[8,2],[2,3],[0,2],[7,0],[7,12],[1,12],[0,11],[6,6],[0,6],[12,8],[1,-1],[1,1],[6,-8],[12,0],[-8,-10],[0,-8],[5,-9],[-1,-5],[3,-5],[-7,-10],[1,-13],[2,-6],[0,-8],[-1,-7],[0,-2],[3,-4],[-2,-6],[2,-8],[1,-3],[8,-8],[26,-10],[10,-2],[4,-2],[5,0],[12,-4],[21,0],[10,2],[19,-1],[6,-2],[3,-8],[3,-2],[4,-1],[11,-3],[53,-4],[-3,-3],[-5,0],[-29,6],[-9,-1],[-5,-3],[0,1],[-4,-6],[0,-2],[2,-2],[-9,-8],[-13,-29],[-3,-7],[6,-2],[0,-4],[3,-2],[2,-6],[7,-6],[17,-5],[7,0],[2,-6],[2,-1],[9,-4],[2,1],[7,-2],[4,-4],[8,2],[4,-6],[3,-2],[2,-5],[1,-7],[1,-5],[-4,-5],[-4,-8],[-2,-12],[3,-8],[10,-7],[2,-12],[5,-4],[14,-2],[11,2],[5,-2],[10,0],[4,-6],[6,0],[-1,-6],[6,-5],[-4,0],[-2,3],[-2,0],[0,-4],[-3,-3],[-2,-3],[-1,1],[0,1],[-2,0],[-3,4],[2,2],[1,3],[0,1],[-2,1],[-4,-1],[-7,0],[-4,1],[-1,2],[-8,-1],[-1,-10],[4,-5],[2,-4],[-2,-2],[-5,6],[-6,-1],[-5,3],[-2,-2],[0,-3],[6,-5],[17,-4],[10,2],[3,0],[8,4],[2,3],[0,1],[7,4],[5,-2],[7,4],[4,-3],[2,-1],[15,4],[8,5],[3,-1],[0,-1],[2,-2],[5,2],[6,0],[12,6],[6,6],[2,7],[0,1],[-1,0],[-1,10],[0,1],[8,0],[2,1],[7,1],[3,-2],[-1,-4],[1,-3],[12,-6],[5,4],[2,4],[-1,2],[2,2],[2,0],[2,2],[8,0],[3,2],[7,1],[7,-4],[0,-5],[5,-3],[11,-1],[5,2],[2,8],[3,3],[-1,2],[1,1],[-5,9],[2,1],[-1,1],[1,2],[-1,2],[-8,15],[-11,0],[0,-4],[-3,-4],[-4,0],[-7,2],[-5,0],[-5,3],[-10,-1],[-2,4],[-10,4],[-2,0],[-7,5],[-1,2],[-6,3],[-4,-2],[-2,-6],[-2,-1],[-11,-6],[-2,-7],[0,-4],[16,-8],[10,-3],[9,-8],[8,-4],[-5,-2],[-3,5],[-8,1],[-6,4],[-17,2],[-11,5],[-5,2],[-5,3],[3,11],[6,13],[2,13],[4,7],[3,13],[-1,6],[0,12],[-2,8],[2,4],[-1,6],[0,3],[-2,2],[-7,4],[0,4],[12,0],[2,6],[-1,2],[-3,1],[-10,6],[-7,2],[1,4],[-2,2],[-3,1],[-1,-1],[-3,-1],[0,0],[-4,-1],[-1,-4],[1,-2],[-5,-4],[1,-2],[-2,-6],[-3,0],[-3,1],[-6,0],[-2,2],[2,11],[-2,6],[6,2],[1,10],[-1,11],[-12,12],[-3,0],[-3,2],[0,1],[2,0],[-2,1],[0,2],[0,1],[0,0],[0,0],[-1,1],[-1,1],[0,2],[0,-1],[-1,0],[1,-1],[1,0],[0,-1],[0,0],[0,-2],[0,1],[0,-4],[0,-1],[2,-2],[-1,-5],[1,-6],[-1,-2],[1,-4],[-1,-1],[-1,1],[-2,-1],[1,5],[0,0],[0,1],[0,1],[0,0],[-1,-1],[0,-3],[0,-3],[1,-2],[-6,-7],[-1,-2],[1,-4],[2,-1],[1,-3],[-7,-2],[-2,-7],[9,-6],[2,-3],[5,-3],[1,-2],[-2,-1],[3,-3],[13,0],[0,-2],[0,2],[7,2],[6,-6],[-16,-5],[-4,-3],[-3,-5],[0,-6],[3,-4],[4,-2],[0,-4],[-2,-5],[0,-1],[0,-12],[2,-11],[-4,-2],[0,-2],[0,1],[1,0],[4,-5],[3,-3],[-6,-5],[-4,3],[-1,0],[-1,-2],[-2,3],[-5,-1],[-3,-3],[1,-2],[-3,-1],[-2,-2],[1,-1],[0,2],[3,1],[1,-2],[7,-4],[17,-6],[-3,-2],[-6,1],[-17,2],[-3,1],[-1,0],[0,-1],[-3,1],[-7,7],[4,11],[5,15],[2,8],[2,2],[3,10],[-1,7],[-3,5],[2,8],[-3,5],[0,11],[-6,3],[-2,4],[-1,7],[-2,3],[0,8],[-3,4],[-3,1],[2,4],[3,7],[-6,7],[-2,0],[-2,-1],[0,-8],[1,1],[-1,-3],[2,-3],[0,-2],[2,-3],[-2,0],[-6,8],[0,17],[2,6],[8,4],[9,8],[5,10],[2,5],[0,1],[0,0],[0,0],[0,1],[-1,0],[0,1],[-1,4],[-5,6],[3,14],[-1,7],[-5,8],[4,9],[-1,11],[-4,2],[-2,8],[2,12],[0,9],[-3,6],[-6,0],[-1,8],[-6,4],[-12,0],[-4,12],[-3,2],[-3,-1],[-3,4],[3,6],[3,11],[-1,10],[1,1],[0,7],[-1,10],[0,4],[1,1],[2,14],[-1,5],[-2,2],[-2,3],[-5,3],[-12,14],[5,0],[1,-1],[4,1],[2,6],[0,22],[-1,3],[-2,0],[4,8],[0,15],[-3,31],[-3,6],[1,2],[-1,3],[-2,1],[0,2],[0,5],[-2,1],[1,1],[-3,2],[2,0],[-1,1],[1,1],[-1,2],[-1,3],[1,2],[0,3],[-1,1],[-1,-1],[0,3],[-1,-1],[-1,1],[2,2],[0,1],[1,2],[-1,1],[1,5],[1,2],[-1,0],[1,3],[-1,0],[1,2],[-1,0],[1,1],[-1,2],[-1,0],[1,2],[-2,3],[0,6],[-4,10],[1,2],[-5,15],[-14,35],[-2,4],[0,2],[-12,31],[-15,33],[-16,28],[-23,20],[-22,5],[-5,-7],[-4,2],[1,2],[1,7],[-5,5],[-4,1],[-2,6],[-3,2],[-3,4],[0,2],[-1,1],[-2,2],[-10,2],[-5,2],[-1,3],[2,2],[-3,1],[-1,2],[3,1],[1,4],[-1,0],[2,3],[5,1],[2,1],[1,-1],[1,-1],[2,1],[1,5],[9,11],[2,1],[0,1],[3,4],[5,3],[2,-1],[4,2],[4,0],[7,6],[2,2],[1,3],[-1,5],[-5,3],[-1,29],[-3,8],[2,2],[0,2],[1,3],[-2,5],[4,5],[1,6],[2,2],[-1,4],[3,2],[3,6],[-2,5],[1,1],[-2,3],[0,5],[-3,3],[-1,3],[0,2],[-1,1],[-3,21],[-5,12],[-2,8],[-6,5],[2,2],[-1,1],[1,2],[4,0],[-1,3],[5,4],[0,1],[-3,2],[3,5],[-2,7],[-5,10],[-3,3],[-1,0],[1,3],[-2,0],[-2,8],[-2,0],[-1,3],[-2,1],[0,3],[-1,1],[1,3],[-3,1],[2,5],[-2,1],[-2,3],[1,5],[-3,0],[1,2],[-2,1],[1,1],[0,2],[-9,11],[-16,27],[-12,17],[-7,8],[0,2],[-2,0],[-5,6],[-1,3],[-1,0],[-3,4],[-2,1],[-1,2],[-3,2],[-11,13],[0,2],[-4,4],[-1,2],[-1,0],[-3,2],[-3,3],[-2,0],[1,5],[-2,1],[1,1],[-1,3],[2,2],[-4,2],[2,4],[-3,0],[-1,2],[-2,3],[5,14],[-5,13],[-2,8],[-8,14],[-5,5],[-6,4],[-4,0],[-4,0],[-1,-2],[-8,-6],[-4,7],[-4,5],[1,1],[-2,0],[1,2],[-1,0],[-1,1],[0,2],[-2,3],[-4,12],[-12,14],[-9,3],[0,1],[-3,0],[-1,5],[-2,1],[-2,3],[1,4],[-5,8],[-5,4],[-4,0],[-2,2],[-1,1],[-4,2],[-2,4],[-3,1],[-1,5],[-3,2],[-11,9],[0,1],[-3,1],[0,2],[-6,0],[-4,10],[-3,1],[-1,1],[-3,0],[-1,1],[-4,1],[-2,4],[-4,1],[3,7],[-7,0],[0,1],[-2,4],[-1,0],[-2,6],[-3,0],[1,2],[-2,1],[0,2],[-3,1],[-2,4],[0,1],[-2,2],[-1,3],[-4,5],[-1,3],[-2,0],[-10,15],[-5,5],[-10,12],[-2,4],[-6,5],[-9,11],[-4,2],[-15,14],[-5,3],[-1,2],[-11,7],[-2,4],[-3,2],[-2,0],[-1,2],[-2,-1],[-2,4],[-4,1],[-5,4],[-1,3],[-2,0],[-8,6],[0,2],[-2,0],[-1,1],[-5,6],[-5,0],[-4,4],[0,1],[-1,0],[-3,1],[1,2],[-1,-1],[-1,1],[-2,0],[0,1],[-1,-1],[-4,4],[-4,2],[-3,0],[-6,4],[0,2],[-10,3],[-2,4],[-6,3],[0,2],[-1,-2],[-1,1],[-4,2],[0,3],[-3,-1],[0,2],[-4,0],[-2,3],[0,1],[-1,0],[-2,1],[-2,3],[1,1],[-2,2],[0,2],[-3,0],[0,2],[-1,-1],[-1,2],[0,-1],[-2,0],[-2,4],[-4,1],[0,1],[-1,0],[-1,1],[-1,-1],[-2,5],[-2,0],[-2,2],[-2,-1],[1,3],[-1,1],[-3,0],[-2,-1],[-2,2],[-4,0],[2,4],[-3,2],[-1,-1],[-1,3],[-3,2],[-6,2],[0,1],[-4,3],[0,4],[-4,-1],[-2,2],[-2,0],[0,-1],[-5,4],[0,2],[-1,1],[-1,0],[0,1],[-1,1],[1,2],[-2,1],[-3,-1],[3,12],[0,4],[1,1],[1,0],[1,3],[-1,6],[-11,7],[-12,2],[-7,-9],[0,-4],[-5,-2],[-2,1],[0,1],[-2,1],[-2,3],[-2,-1],[0,2],[-1,-1],[-1,2],[-1,0],[-1,3],[-5,2],[0,1],[-3,1],[0,1],[-1,1],[0,0],[-2,1],[1,1],[-5,1],[1,2],[-1,2],[-3,-2],[-3,3],[-2,0],[-1,5],[-4,-2],[-1,1],[-1,-1],[-3,2],[-1,4],[4,3],[4,-2],[5,1],[2,-2],[4,4],[1,3],[1,15],[-4,21],[0,10],[5,10],[0,2],[3,2],[7,23],[0,5],[0,1],[1,4],[1,3],[2,3],[0,5],[3,0],[3,7],[6,7],[1,5],[0,22],[-1,29],[-3,20],[-4,32],[-16,74],[0,5],[-16,56],[-3,17],[-10,30],[-18,49],[-13,29],[-4,13],[-2,1],[-4,1],[0,1],[-1,-1],[-3,0],[-7,4],[-4,5],[-7,5],[1,0],[-1,2],[2,1],[-1,0],[0,0],[2,1],[-2,0],[1,1],[-1,-1],[-3,2],[-1,2],[-2,0],[-4,1],[-1,-2],[-9,3],[-2,-1],[-2,2],[2,0],[0,0],[-5,3],[1,1],[-1,0],[0,4],[1,2],[-3,0],[-2,-1],[-1,1],[0,-2],[-1,0],[-3,2],[1,2],[-2,0],[0,2],[-2,1],[0,4],[1,1],[-4,3],[1,1],[-1,1],[1,0],[0,2],[-1,1],[1,0],[0,1],[-2,1],[1,0],[-1,2],[0,-1],[-3,6],[-3,2],[0,1],[-2,3],[-2,5],[-8,10],[-3,3],[-1,3],[-4,4],[-1,0],[0,1],[-2,2],[0,-1],[-3,3],[-1,-1],[-6,3],[-4,4],[-7,4],[0,1],[-1,0],[-3,1],[-1,-1],[-1,1],[0,-1],[-5,2],[-3,-2],[-2,1],[0,-1],[-1,-1],[-16,3],[-12,22],[-7,1],[-1,3],[-4,2],[0,2],[-3,2],[-3,1],[-3,6],[-11,9],[-1,1],[-2,1],[0,1],[-6,0],[1,5],[7,-3],[8,0],[3,2],[2,-2],[0,-1],[3,-1],[7,4],[14,2],[8,8],[17,-3],[1,-2],[-2,0],[2,-2],[-2,0],[-7,-3],[-7,0],[-1,-2],[-4,-1],[1,-1],[-3,-2],[0,-2],[4,2],[1,0],[-2,-2],[7,1],[0,2],[2,1],[0,-1],[1,3],[3,1],[1,0],[2,-2],[2,-2],[5,5],[5,-2],[6,3],[1,5],[5,6],[-1,9],[-7,2],[1,1],[-1,1],[0,3],[1,0],[-1,3],[-9,0],[5,8],[4,0],[1,2],[0,7],[-4,3],[3,5],[0,4],[-2,6],[-4,2],[-7,16],[-6,9],[-7,6],[-7,2],[-10,0],[-3,2],[-1,-1],[-26,18],[-14,0],[-14,-4],[-14,3],[-7,-1],[-13,9],[-9,5],[-16,13],[-9,10],[-8,3],[-10,-3],[-2,-5],[-2,-2],[0,1],[0,-1],[-10,-13],[-8,-3],[-2,-3],[-6,-3],[-7,-2],[-6,-4],[-1,-2],[3,-8],[5,-7],[9,-14],[7,-5],[-1,-4],[0,-3],[5,-7],[15,-4],[16,-8],[11,-1],[4,3],[6,10],[1,0],[7,-6],[7,-4],[7,4],[3,5],[6,2],[1,2],[2,6],[-1,5],[7,-3],[0,-13],[5,-7],[-12,-6],[-2,0],[-9,7],[-5,-2],[-3,-4],[1,-2],[4,-3],[1,-8],[6,-8],[0,-5],[2,-3],[0,-1],[-2,3],[-1,1],[0,3],[0,-4],[-1,0],[0,-1],[4,-4],[-2,1],[3,-6],[-1,4],[2,-4],[1,0],[-1,-1],[1,-1],[-1,1],[0,-1],[4,-2],[-1,2],[2,-3],[1,0],[-1,2],[2,-2],[3,0],[6,4],[9,5],[1,-1],[-1,-1],[1,-1],[-1,0],[1,0],[0,0],[-2,1],[-3,-1],[4,-2],[2,1],[2,0],[9,1],[2,-1],[1,2],[2,-4],[0,-5],[-5,-6],[-4,5],[-12,3],[-10,-3],[-3,-4],[0,-2],[2,0],[0,-1],[-1,-6],[-2,-1],[-2,1],[-1,-2],[-4,-2],[-2,-6],[2,-3],[-4,-5],[0,-3],[-10,18],[-5,5],[-4,1],[-1,5],[-6,5],[-1,3],[-6,9],[-1,0],[-3,0],[-1,0],[-2,2],[1,1],[-2,1],[-1,3],[-2,-1],[-1,1],[-2,1],[1,2],[-2,0],[0,1],[-2,0],[0,4],[3,3],[-1,1],[-3,-1],[-1,6],[-1,0],[-1,-1],[-2,1],[-3,-3],[-3,1],[-3,4],[0,2],[-2,0],[-4,3],[-1,3],[-1,1],[0,2],[-6,1],[0,1],[-4,3],[-1,2],[-2,-1],[-2,2],[-3,-1],[-1,0],[-4,-1],[-4,-3],[0,1],[-2,1],[1,1],[-5,1],[-4,-1],[-3,4],[-2,0],[0,2],[-2,1],[-5,-2],[0,4],[-3,0],[-1,6],[-4,4],[0,1],[-4,0],[-2,0],[-2,3],[-1,0],[0,-1],[-2,4],[-3,1],[-4,4],[-4,-1],[0,-1],[-3,2],[-2,2],[-1,2],[-4,0],[-2,2],[-4,2],[-2,1],[0,3],[-3,0],[-1,3],[-3,1],[0,3],[-2,1],[-3,3],[-2,-1],[-5,4],[-2,0],[-3,-1],[-3,4],[-6,0],[-5,4],[-10,2],[-4,3],[-10,-5],[-4,2],[-1,5],[-15,7],[-9,2],[-1,2],[-5,-3],[-17,2],[-12,-4],[-11,0],[-7,-2],[-5,-6],[-2,-7],[-5,-6],[-7,0],[-10,-6],[-7,-10],[2,-8],[-2,-1],[-7,2],[-13,-3],[-11,-1],[0,10],[-2,7],[0,7],[-2,7],[-4,9],[-5,43],[-1,4],[-8,2],[-6,3],[-7,9],[-2,1],[-2,4],[-3,2],[-4,16],[-7,13],[-5,2],[-5,6],[-4,2],[-8,2],[-9,-2],[-5,2],[-11,15],[-9,6],[1,5],[0,4],[-1,4],[-4,9],[1,9],[7,5],[4,2],[2,2],[0,5],[-7,15],[-7,6],[-11,-4],[-2,1],[0,3],[6,4],[-2,13],[-5,6],[-11,-2],[0,-2],[-6,-2],[-8,-6],[3,-7],[2,-1],[2,-1],[4,2],[2,2],[8,-4],[0,-2],[-8,-4],[-1,-3],[6,-13],[7,-1],[-2,-6],[-7,-3],[-1,-4],[-3,0],[-2,1],[-4,0],[-5,-3],[-3,-3],[1,-3],[0,-5],[-2,-14],[2,-17],[5,-9],[21,-21],[-1,-5],[-2,-5],[0,-2],[6,-5],[2,-5],[5,0],[3,-3],[1,-5],[1,-1],[2,-1],[-1,2],[2,-2],[3,1],[14,10],[3,1],[9,0],[0,-5],[-2,0],[-1,-3],[2,-2],[0,-1],[1,0],[0,-2],[4,0],[-2,2],[0,2],[3,-3],[7,1],[-2,-4],[-4,-1],[-4,-5],[1,3],[-3,-2],[0,-3],[-2,-2],[1,-2],[0,-2],[2,-1],[3,3],[2,-2],[0,0],[-1,2],[2,0],[7,-3],[-2,1],[1,1],[3,-5],[4,-2],[3,-3],[6,0],[4,-5],[5,-2],[2,-5],[5,-4],[-3,0],[0,-1],[4,-7],[2,0],[2,2],[-1,2],[-1,1],[1,1],[2,-1],[0,1],[-1,3],[0,-1],[-1,2],[0,2],[0,0],[6,-1],[-1,2],[1,-1],[1,2],[-3,0],[2,0],[-2,1],[2,1],[4,-4],[6,-10],[1,-4],[-7,-7],[-3,-1],[-1,-2],[-6,-5],[-3,-4],[-1,1],[0,-3],[5,5],[1,0],[2,2],[0,-1],[1,3],[2,-1],[-1,1],[2,0],[0,-2],[-9,-5],[-2,-2],[-1,-3],[-1,1],[0,-1],[3,-5],[0,2],[1,-1],[0,1],[0,-2],[-3,-11],[1,-8],[4,-4],[2,-10],[3,-3],[-4,-6],[-7,-3],[-4,-5],[-7,-4],[-7,-1],[-4,-1],[-3,6],[-2,2],[-2,0],[0,-1],[-6,2],[-2,-1],[0,8],[1,2],[-2,3],[-5,3],[-5,5],[-9,2],[-1,2],[-4,1],[-2,3],[-1,-1],[0,5],[-10,4],[0,1],[-1,0],[-1,4],[-2,4],[-11,6],[-5,-1],[0,3],[-5,-1],[0,1],[-2,-1],[-3,2],[-5,9],[-6,6],[-5,3],[2,2],[-2,2],[6,7],[0,2],[2,3],[-2,2],[5,4],[-4,19],[0,10]],[[8267,1436],[-2,-1],[-1,3],[1,3],[-2,1],[0,0],[-1,1],[-2,5],[-2,2],[-3,7],[0,2],[-1,5],[-5,6],[-2,6],[-5,7],[-11,9],[-2,2],[0,2],[-1,0],[0,3],[-13,12],[4,2],[2,6],[1,8],[-3,7],[4,6],[-1,1],[0,5],[1,2],[-1,0],[0,2],[6,0],[1,-4],[2,-2],[-1,-2],[-3,2],[2,-6],[3,2],[-1,2],[1,1],[2,-3],[11,0],[21,-4],[1,-1],[11,3],[7,10],[9,19],[2,19],[-1,18],[-7,25],[-3,10],[-9,15],[-10,14],[-12,13],[-9,4],[-3,1],[-1,-1],[-8,2],[-11,4],[-6,19],[-2,13],[1,13],[-1,4],[1,0],[5,14],[-1,6],[2,12],[-4,9],[-15,22],[-13,14],[-15,12],[-9,9],[-17,12],[-25,25],[-8,15],[0,10],[3,4],[4,13],[8,0],[4,2],[10,0],[8,2],[2,-6],[-1,0],[-1,1],[-1,-3],[2,1],[0,-1],[-2,-1],[1,-1],[2,1],[0,2],[2,0],[0,1],[1,1],[0,-1],[2,1],[3,-1],[-3,4],[-1,-1],[-1,1],[-2,0],[-2,2],[1,0],[1,1],[0,1],[1,-1],[3,1],[9,7],[7,3],[10,8],[13,16],[4,3],[6,3],[9,3],[9,7],[17,6],[13,7],[17,5],[14,11],[15,20],[9,4],[17,17],[9,14],[2,6],[12,9],[12,21],[12,30],[3,-1],[-1,-4],[2,-4],[2,0],[2,1],[1,4],[0,2],[1,0],[2,-2],[3,-1],[0,-1],[9,-4],[1,-6],[0,4],[-1,2],[-9,4],[0,2],[-3,0],[-2,3],[-1,-1],[0,-1],[-3,-4],[0,-1],[-3,6],[1,-1],[1,1],[1,3],[-1,-1],[-2,3],[-1,-1],[1,-3],[0,-1],[-3,3],[2,15],[4,19],[3,7],[2,11],[16,-2],[-3,1],[-13,2],[5,37],[1,32],[0,25],[2,14],[0,19],[-3,49],[-23,102],[-19,68],[-7,23],[-1,5],[-1,1],[0,1],[0,1],[-1,1],[-1,2],[0,3],[-5,19],[-9,27],[-20,68],[-26,73],[-10,19],[-9,26],[-7,12],[-15,34],[-11,29],[-7,14],[-6,16],[-11,29],[-26,59],[-5,13],[-16,30],[-23,48],[-18,31],[545,-9],[0,379],[590,-1],[0,380],[95,1],[0,111],[641,5],[-3,-96],[3,-337],[1,-53],[3,-383],[4,-757],[-2,-72],[2,0],[0,-197],[3,-315],[0,-337],[-1,0],[3,-164],[1,-242],[-1,-292],[-1,-93],[0,-105],[-2,-118],[-2,-35],[0,-60],[-5,-311],[-5,2],[-30,4],[-22,0],[-15,2],[-20,7],[-23,0],[-19,-5],[-15,9],[-17,5],[-13,3],[-12,0],[-21,-2],[-12,-6],[-6,-6],[-11,4],[-1,2],[0,-2],[-2,0],[-11,3],[-9,-1],[-2,-1],[-7,-3],[-3,-3],[-10,-12],[-8,1],[-6,-2],[-4,2],[-5,0],[-5,-2],[-1,-2],[-1,0],[-12,7],[-19,2],[-8,3],[-7,1],[0,-1],[-7,-2],[-5,-2],[-1,1],[-13,-5],[-3,-1],[0,-4],[-6,3],[-8,1],[-6,-2],[-10,0],[-2,-1],[-3,0],[-3,-3],[-2,2],[-4,0],[-4,-2],[-1,2],[0,1],[-1,0],[-1,1],[0,2],[-7,4],[-3,4],[-4,2],[-7,7],[-1,5],[-5,5],[-12,2],[-5,2],[-4,-1],[-1,-1],[-4,-2],[-3,1],[-1,0],[-1,5],[-2,3],[1,1],[-2,4],[-11,6],[-4,3],[-24,6],[-3,-1],[-6,-3],[-1,-4],[-5,0],[-4,2],[-2,6],[-8,4],[1,4],[1,9],[-7,10],[-13,4],[-8,0],[-14,6],[-14,11],[-11,5],[-13,5],[-4,6],[-7,4],[-10,19],[-18,23],[-7,4],[-6,2],[-1,2],[-3,4],[-12,4],[-7,6],[-5,9],[-9,4],[-2,6],[-12,4],[-8,4],[-9,-1],[-12,5],[-7,-3],[1,6],[-2,3],[-4,3],[-2,-2],[-3,1],[-2,-1],[-13,14],[-4,1],[-2,-1],[-3,-1],[-1,-1],[-1,-2],[0,2],[1,1],[-2,3],[3,1],[0,3],[-2,3],[-3,0],[-3,3],[-2,9],[-3,6],[-7,4],[-9,0],[-7,21],[-12,17],[-3,21],[-8,17],[-20,34],[-4,10],[-10,19],[-7,-2],[2,5],[-4,9],[2,2],[1,4],[-6,13],[-5,6],[-4,12],[-12,17],[-2,8],[-8,17],[-7,8],[-7,21],[-12,19],[-2,6],[-6,12],[-27,42],[-35,47],[-61,73],[-7,6],[-8,10],[-16,15],[-8,4],[-6,8],[-11,7],[-2,0],[0,2],[-4,0],[0,1],[-1,0],[0,1],[-2,4],[-8,5],[-4,2],[-4,0],[0,2],[-2,-1],[-1,1],[1,2],[-2,0],[-3,7],[-2,-2],[-5,2],[-2,2],[1,2],[-2,0],[-2,1],[-7,7],[0,2],[-1,-1],[-2,2],[-5,0],[0,-1],[-4,1],[1,5],[-2,6],[1,1],[-1,0],[-1,4],[-5,3],[0,1],[0,0],[1,0],[-1,1],[0,2],[7,-2],[5,-7],[4,1],[2,-2],[3,0],[-3,1],[-1,1],[1,0],[4,1],[5,4],[5,9],[2,8],[0,10],[-3,15],[-12,21],[-14,14],[-14,10],[-9,7],[-27,16],[-11,17],[-12,13],[-4,3],[-5,3],[-7,6],[-10,4],[-14,2],[-12,0],[-10,-6],[-4,-6],[-1,-10],[2,-4],[-7,-4],[-4,7],[-4,2],[-3,-1],[-2,1],[-3,-3],[0,1],[1,2],[-1,3],[-4,3],[1,6],[-1,5],[-6,7],[-4,5],[-2,-1],[-3,0],[-3,5],[-5,2],[-2,5],[-3,3],[-3,2],[-6,8],[-2,0],[0,2],[-3,2],[0,2],[-5,6],[-5,10],[-5,2],[-1,0],[-1,1],[-4,-1],[0,1],[-3,-1],[-2,3],[2,3],[-1,5],[-5,11],[-11,11],[-13,8],[-1,6],[-2,5],[-8,14],[-4,6],[-16,20],[-15,10],[-12,11],[-2,2],[-4,12],[-7,13],[-15,22],[-2,10],[-7,11],[-12,11],[-11,-2],[-1,4],[1,2],[2,5],[-2,4],[-5,2],[-5,7],[-7,5],[1,3],[-1,3],[-8,8],[-6,1],[2,6],[-5,10],[-7,3],[1,3],[-3,9],[-7,8],[-3,2],[0,4],[-8,7],[0,5],[-2,0],[1,1],[-1,1],[-1,6],[-2,4],[-3,1],[-4,6],[-2,2],[-2,0],[2,4],[-2,2],[-1,1],[0,2],[-1,6],[-7,13],[-1,4],[-5,5],[-3,2],[0,9],[-3,3],[-4,1],[-2,8],[-2,2]],[[8380,2106],[-3,-5],[6,-1],[4,7],[-4,-1],[-3,0]],[[9063,820],[-8,7],[-5,-1],[3,-2],[6,-2],[4,-2]],[[9094,799],[-7,4],[0,-5],[3,-4],[17,-7],[-2,4],[2,6],[-2,3],[0,5],[-4,-4],[-3,-2],[-4,0]],[[9674,436],[-7,-16],[11,-14],[6,1],[7,-3],[6,-8],[4,-3],[7,-3],[4,-4],[6,-3],[4,-5],[1,-5],[6,0],[4,-1],[2,-3],[6,0],[3,5],[6,1],[21,-8],[4,11],[-11,5],[-3,2],[-1,4],[9,21],[-17,7],[-3,5],[1,5],[-51,19],[-5,-11],[-4,-3],[-5,0],[-11,4]],[[9803,1174],[-2,-10],[1,0],[2,10],[-1,0]],[[9668,1874],[4,2],[-1,5],[2,6],[-3,5],[-5,-1],[-11,1],[0,-3],[13,-7],[1,-3],[0,-5]],[[9708,2988],[6,1],[4,2],[4,1],[0,7],[-3,1],[-3,3],[0,6],[-14,2],[-4,-1],[-2,-16],[8,-1],[4,-5]],[[6395,4980],[-4,2],[0,1],[5,3],[-1,-6]],[[6380,4982],[2,-4],[-3,-5],[-1,-6],[-2,13],[0,8],[-3,9],[0,6],[4,4],[1,3],[-2,6],[1,7],[0,5],[3,1],[-3,-1],[-3,14],[5,10],[1,8],[-1,1],[2,0],[0,3],[5,5],[1,4],[1,5],[4,5],[15,0],[4,-3],[1,-3],[1,-7],[2,-5],[1,-19],[-2,-4],[-2,-1],[-7,-1],[-8,0],[-3,1],[-2,3],[-4,0],[1,-5],[-3,-5],[2,-5],[-2,-4],[-1,-9],[2,-8],[-2,-5],[-3,-3],[0,-2],[1,-1],[9,-4],[3,-6],[-7,-5],[-1,6],[-4,2],[0,0],[0,2],[0,-2],[-3,-3],[0,-5]],[[6308,5901],[-4,-2],[2,1],[-4,2],[0,1],[-2,2],[0,1],[1,1],[0,0],[0,1],[1,-1],[-1,-1],[2,-2],[5,-3]],[[9066,6731],[38,0],[1,6],[22,20],[5,3],[47,-24],[96,2],[0,-26],[51,0],[0,-49],[50,0],[0,-50],[149,0],[-1,11],[9,34],[9,40],[9,-12],[20,0],[0,-12],[-12,0],[37,-54],[-14,-10],[12,-13],[5,4],[1,-2],[1,1],[0,-8],[5,-3],[4,3],[5,-6],[-6,0],[0,-3],[5,-3],[-8,-7],[-12,1],[0,13],[-2,0],[-5,6],[-24,-16],[-11,-1],[4,-7],[-1,-4],[-7,-1],[-14,-5],[-7,-5],[0,-1],[-1,-1],[-2,2],[-3,-1],[-14,-7],[-2,-3],[-10,-11],[-3,-13],[-1,-6],[2,-19],[4,-7],[5,-8],[3,-5],[0,-4],[-1,-4],[-5,-4],[-7,0],[-5,2],[-9,5],[-9,2],[-8,-1],[-7,-4],[-3,-4],[-5,-19],[-7,-12],[-1,-6],[2,-5],[3,-4],[5,-3],[7,-1],[2,-3],[1,-2],[-1,-1],[-6,2],[-5,0],[-10,-3],[-13,-1],[-5,-3],[-2,-3],[-1,-4],[2,-6],[7,-11],[0,-4],[-2,-2],[-4,-1],[-9,2],[-14,7],[-3,-1],[-2,-2],[-1,-4],[1,-1],[13,-8],[7,-9],[5,-1],[8,1],[3,-2],[0,-2],[-2,-2],[-12,0],[-3,-2],[-2,-4],[1,-3],[2,-2],[4,-1],[2,1],[4,3],[3,0],[3,-6],[1,-8],[4,-2],[4,1],[4,12],[5,5],[4,0],[4,-3],[3,-7],[-1,-6],[-7,-6],[-1,-3],[0,-5],[1,-4],[6,-5],[-4,-8],[-3,-1],[-18,-2],[-9,-3],[-9,-2],[-4,-2],[-3,-3],[1,-5],[4,-4],[1,-3],[0,-8],[4,-4],[4,-2],[8,-1],[5,0],[7,4],[8,-11],[-6,-20],[-3,-5],[-5,-3],[-9,-1],[-5,-3],[-1,-5],[3,-6],[-1,-2],[-10,-5],[-5,-2],[-8,1],[-7,3],[-5,-1],[-2,-2],[-1,-3],[2,-6],[-13,-5],[-6,1],[-5,6],[-3,1],[-2,-1],[-2,-2],[1,-5],[0,-1],[-12,5],[-7,4],[-9,9],[-9,8],[-3,4],[-2,10],[-1,22],[1,13],[-1,5],[-2,2],[-4,3],[-10,2],[-3,3],[0,5],[2,2],[7,4],[1,3],[17,2],[21,-5],[4,28],[-16,40],[6,11],[5,-8],[10,-1],[21,9],[-13,28],[-3,2],[-1,-3],[-16,-1],[0,15],[-3,10],[-3,5],[-6,0],[0,7],[-4,1],[3,5],[-2,1],[2,3],[-2,1],[1,3],[-6,0],[7,5],[-3,2],[-6,1],[-12,8],[-13,5],[-8,2],[0,-3],[-19,0],[-2,-4],[-6,-3],[2,-5],[-10,-19],[-10,0],[1,-7],[2,-4],[2,-9],[4,-1],[8,-5],[0,-4],[-3,-7],[-21,7],[-9,-2],[-3,-4],[-5,-3],[-27,4],[-30,-1],[-8,8],[-4,6],[-1,7],[1,4],[6,12],[0,8],[0,4],[-4,7],[-6,6],[-6,11],[-1,5],[-2,5],[-5,4],[-1,7],[2,7],[4,11],[4,4],[5,4],[4,1],[3,0],[11,-6],[4,0],[4,1],[5,3],[0,6],[-5,9],[-5,4],[-6,3],[-3,3],[1,4],[2,0],[3,2],[6,5],[2,2],[0,4],[-3,5],[-6,4],[-4,1],[-5,-2],[-3,1],[-5,8],[-3,2],[-2,1],[-10,-4],[-1,1],[4,12],[0,6],[-3,4],[-3,3],[-5,1],[-6,0],[-5,-2],[-6,-5],[-5,-1],[-2,2],[0,6],[2,3],[4,3],[14,8],[5,3],[2,3],[2,6],[0,9],[-2,4],[-10,10],[-6,1],[-6,-1],[-4,1],[-7,7],[-2,4],[2,6],[4,3],[8,3],[2,1],[1,4],[-5,5],[-12,3],[-5,4],[-1,3],[1,6],[-2,3],[-3,2],[-5,-1],[-10,-9],[1,15],[-5,0],[0,3],[6,5],[6,1],[0,17]],[[9451,6492],[-8,0],[-2,-6],[-1,-3],[10,-1],[9,-4],[10,1],[10,5],[4,0],[-1,12],[1,6],[-3,1],[-5,4],[-2,4],[-1,5],[-5,-1],[-7,2],[2,-3],[1,-3],[-2,-5],[-1,-6],[-3,-5],[-6,-3]],[[9281,6539],[1,1],[-2,5],[-3,-2],[-1,-5],[5,1]],[[9270,6534],[-6,-2],[0,-1],[1,0],[5,3]],[[9642,6632],[3,4],[2,-5],[1,-6],[-1,1],[0,-5],[-1,3],[-2,0],[-2,-2],[-1,1],[5,5],[-4,4]],[[9641,6653],[0,-4],[-5,-4],[-2,3],[1,1],[-2,1],[3,20],[6,0],[2,-3],[0,-1],[-1,0],[-6,-12],[4,-1]],[[9695,6699],[-2,-1],[1,-3],[-6,-11],[-7,-5],[-2,-2],[-2,-7],[1,-3],[2,-4],[11,-4],[0,-1],[-8,-6],[-4,2],[-11,-4],[-2,-2],[-1,-3],[0,-4],[2,-3],[6,-5],[-8,-8],[-3,6],[-5,3],[-9,10],[-1,0],[-3,14],[3,7],[3,3],[11,10],[0,4],[1,3],[-1,2],[3,3],[11,1],[0,1],[-2,0],[-2,3],[0,2],[3,3],[3,0],[4,3],[4,1],[0,1],[7,-5],[2,1],[1,-2]],[[9652,6657],[1,-7],[4,-4],[2,6],[4,4],[9,4],[-2,4],[-1,6],[2,7],[3,6],[-4,0],[-3,-10],[-14,-13],[-1,-3]],[[9579,6674],[0,12],[8,0],[0,-12],[-8,0]],[[9714,6650],[3,10],[-5,9],[-3,2],[-4,0],[-2,-1],[-4,-7],[-1,-1],[-8,3],[-3,-1],[-4,1],[-2,3],[0,4],[2,5],[3,2],[14,5],[15,9],[5,8],[2,9],[2,15],[-2,1],[-7,-2],[-3,1],[-1,3],[0,2],[8,6],[5,16],[-3,3],[-11,3],[-2,3],[1,4],[1,1],[2,0],[10,-4],[5,0],[9,1],[6,5],[1,3],[1,6],[-4,6],[-7,2],[-4,0],[-6,0],[-3,0],[-7,-4],[-6,3],[-3,0],[-11,-7],[-3,0],[-3,2],[0,2],[1,2],[11,2],[4,3],[0,4],[-2,7],[-8,6],[-4,5],[-3,7],[0,5],[-2,6],[-4,2],[-10,0],[-3,4],[0,4],[8,11],[1,5],[3,2],[6,3],[7,2],[7,0],[8,-2],[35,-17],[10,-2],[10,0],[1,3],[-6,3],[0,3],[1,0],[5,-2],[5,0],[4,4],[-1,3],[-6,1],[-2,2],[-1,3],[1,1],[4,2],[1,4],[0,5],[-1,0],[-1,3],[2,5],[2,0],[2,0],[2,-6],[3,-2],[10,0],[4,-1],[5,1],[2,2],[0,3],[-3,1],[-9,0],[-2,3],[-2,3],[1,7],[4,3],[10,1],[4,-1],[-2,1],[9,1],[3,2],[1,5],[0,4],[-4,4],[-7,2],[-2,4],[1,4],[3,0],[6,-4],[3,0],[2,1],[1,3],[-2,6],[1,4],[2,1],[11,-2],[2,3],[-1,6],[3,2],[10,-2],[0,-2],[-1,-3],[0,-4],[1,-2],[2,-1],[3,-1],[2,2],[1,3],[-2,4],[1,4],[5,-1],[4,-6],[2,-2],[5,-1],[5,1],[3,2],[4,5],[1,7],[-2,5],[-9,14],[-2,6],[1,3],[2,1],[3,0],[8,-10],[4,-1],[4,0],[6,2],[4,3],[13,13],[3,8],[2,2],[0,5],[-2,4],[-2,2],[-3,0],[-4,-1],[-5,-4],[-3,-1],[-5,0],[-3,3],[-5,7],[0,3],[2,4],[7,4],[9,0],[16,-6],[11,-2],[2,1],[0,3],[-2,3],[-5,4],[0,3],[1,2],[4,0],[3,-4],[3,-1],[7,3],[3,-4],[5,-1],[4,1],[13,9],[3,0],[3,-1],[3,-3],[2,-6],[1,-10],[0,-7],[8,-3],[-1,-197],[-1,0],[0,-182],[2,-207],[-524,-1],[-5,4],[-9,2],[-3,3],[-3,4],[0,6],[10,21],[2,10],[3,0],[3,3],[8,4],[-1,1],[11,-1],[9,-6],[8,-2],[8,2],[5,4],[1,4],[0,6],[-2,5],[-8,10],[-4,17],[0,6],[3,16],[12,16],[6,4],[9,3],[0,-3],[-4,-6],[-2,-6],[3,-5],[5,-2],[6,1],[7,5],[7,2],[9,7],[3,1],[3,-1],[5,-5],[2,-11],[2,-3],[2,-3],[5,-3],[4,0],[7,-4],[16,-4],[5,-8],[4,-2],[2,0],[4,1],[1,2],[1,4],[-1,7],[1,13],[1,1],[4,1],[6,-2],[3,1],[5,4],[-1,4],[-3,3],[-5,0],[-5,-2],[-2,2],[0,3],[7,3],[3,4],[1,2],[-2,7],[1,2],[3,1],[2,-1],[3,-7],[4,-4],[5,0],[4,2],[2,6],[5,3],[2,3],[-1,3],[-6,6],[0,4],[1,3],[1,1],[2,-2],[1,-5],[2,-4],[5,-2],[4,2],[1,6],[4,4],[2,6],[6,5],[2,3],[2,20],[7,5],[4,5],[-2,7],[-4,3],[-4,1],[0,3],[13,2],[4,3],[6,6]],[[9584,6699],[-8,0],[0,12],[8,0],[0,-12]],[[9550,6711],[22,0],[0,-12],[-30,0],[0,25],[8,0],[0,-13]],[[9592,6711],[0,6],[9,0],[-1,-6],[-8,0]],[[9587,6724],[-7,-1],[0,7],[7,0],[0,-6]],[[9573,6737],[-7,0],[0,12],[7,0],[0,-12]],[[9576,6768],[-10,0],[0,6],[10,1],[0,-7]],[[9542,6784],[9,0],[0,10],[2,-1],[6,0],[0,-9],[-5,0],[0,-9],[-12,-1],[0,10]],[[9571,6801],[-1,-12],[-22,25],[-6,-1],[1,6],[-4,5],[9,0],[0,3],[2,0],[0,-3],[11,-2],[1,-2],[4,0],[-2,0],[0,-1],[3,0],[5,-14],[-2,-4],[1,0]],[[9579,6832],[3,3],[3,-1],[5,-6],[-11,-1],[0,5]],[[9548,6840],[2,7],[-10,0],[0,2],[-10,0],[-1,-2],[0,-1],[-1,0],[0,-6],[0,-1],[4,0],[1,-3],[-3,-1],[0,-2],[-19,21],[41,1],[1,4],[16,-2],[3,-3],[1,-9],[5,-1],[0,-5],[6,1],[-2,-3],[7,0],[0,-2],[7,0],[-2,-4],[-3,-3],[-6,6],[-9,4],[-12,2],[-16,0]],[[4079,4740],[-5,7],[1,0],[-1,0],[-1,1],[0,1],[-2,1],[0,1],[-1,0],[-1,3],[-5,4],[-3,-2],[-3,1],[-3,-2],[-5,0],[0,1],[0,0],[-7,9],[-8,1],[0,-1],[-1,3],[-1,0],[1,0],[0,2],[-3,2],[2,5],[-5,10],[-3,2],[-2,3],[0,3],[-13,16],[-5,10],[-6,3],[-4,7],[4,0],[5,-4],[3,0],[5,6],[-4,13],[9,0],[5,1],[6,6],[2,3],[1,9],[-1,8],[-5,10],[4,14],[-1,1],[1,1],[-1,2],[0,4],[-1,1],[1,2],[-2,4],[2,4],[0,3],[1,0],[0,0],[1,3],[4,-1],[3,-2],[1,1],[2,0],[2,0],[1,-1],[1,1],[6,0],[3,-1],[0,-3],[4,-1],[4,2],[5,3],[2,0],[2,0],[0,3],[3,1],[1,-1],[6,2],[4,6],[4,1],[1,-1],[3,2],[5,5],[2,6],[0,28],[10,8],[9,4],[4,0],[4,2],[9,13],[0,4],[6,2],[3,2],[1,-2],[6,0],[5,4],[11,19],[3,21],[0,11],[-2,6],[3,1],[1,-1],[3,1],[9,13],[2,8],[8,8],[2,4],[0,9],[-2,9],[-7,21],[-13,30],[-14,25],[-2,2],[-3,0],[-4,2],[2,5],[2,1],[0,2],[14,5],[2,0],[2,5],[2,11],[4,4],[8,1],[1,-1],[2,0],[10,9],[6,8],[4,10],[2,12],[-2,17],[-3,4],[2,9],[-1,3],[6,18],[0,7],[-1,2],[-1,0],[0,2],[3,2],[0,-1],[2,2],[2,0],[-1,2],[1,1],[-2,1],[0,5],[1,1],[-1,2],[0,2],[4,2],[1,-1],[1,0],[1,1],[-2,2],[12,5],[2,3],[1,0],[1,-3],[1,0],[8,4],[1,2],[-1,0],[5,7],[0,0],[4,4],[3,-1],[1,3],[1,0],[-1,1],[5,2],[3,5],[2,0],[3,11],[-3,15],[-4,9],[1,0],[0,2],[-2,3],[1,2],[5,0],[5,4],[1,-2],[-1,-2],[5,-6],[21,-2],[16,-5],[3,0],[2,-1],[5,-6],[16,-11],[19,-8],[9,-2],[15,0],[31,2],[15,2],[8,0],[12,-2],[13,2],[11,2],[22,11],[16,6],[19,10],[6,0],[23,-6],[15,0],[11,2],[13,4],[7,8],[5,0],[8,-4],[17,6],[12,2],[5,-4],[5,0],[11,-7],[7,-18],[0,-4],[3,-2],[0,-3],[6,-8],[0,-3],[2,-2],[7,-5],[2,-2],[10,-5],[6,-1],[15,0],[17,2],[6,0],[2,-4],[5,-2],[2,-14],[1,-4],[4,-5],[6,-5],[3,0],[0,-1],[1,0],[0,0],[1,-1],[9,-3],[8,-2],[11,3],[19,7],[19,11],[19,13],[12,10],[12,14],[14,17],[4,8],[8,27],[1,29],[-2,8],[1,17],[4,18],[-2,8],[1,26],[-1,1],[2,9],[-1,25],[3,13],[6,18],[7,14],[9,31],[4,51],[5,16],[4,14],[3,6],[6,44],[-1,17],[4,7],[-1,7],[2,4],[3,4],[5,4],[8,19],[1,22],[4,18],[0,14],[0,33],[-4,31],[-7,16],[-1,10],[-7,15],[-10,14],[-2,14],[-5,7],[2,1],[0,3],[-3,11],[-2,5],[-3,3],[-1,3],[-2,2],[-1,0],[-2,4],[0,3],[-2,4],[0,11],[5,0],[2,3],[1,9],[4,11],[1,16],[3,3],[1,3],[-2,15],[2,4],[-4,21],[-1,3],[-1,4],[1,3],[3,2],[-2,-1],[3,3],[1,6],[-5,15],[-4,6],[-5,2],[-14,13],[-5,0],[-3,-2],[-2,0],[-1,-1],[2,0],[-1,-1],[-2,0],[1,1],[-10,-4],[-7,-8],[-5,-8],[-3,-17],[-3,-5],[0,-2],[-1,-7],[-7,-11],[-4,-2],[-2,-5],[-3,-2],[-2,-5],[-6,4],[-4,8],[-7,11],[1,7],[-2,7],[3,8],[0,3],[5,-1],[6,2],[12,11],[3,8],[5,9],[1,6],[4,5],[3,12],[2,5],[1,10],[0,7],[1,6],[2,0],[4,0],[2,2],[3,0],[0,-1],[-2,0],[2,-1],[-1,0],[0,-1],[2,-1],[-1,1],[1,0],[6,-3],[9,-2],[10,6],[2,5],[4,5],[8,28],[0,18],[3,37],[13,31],[3,4],[6,8],[3,17],[-2,10],[3,8],[-3,18],[-3,8],[1,4],[1,17],[-2,10],[6,5],[2,3],[-5,15],[0,20],[3,10],[-2,13],[-6,17],[-9,12],[0,8],[-9,23],[-6,9],[-6,4],[-15,25],[-7,14],[-4,19],[-3,6],[-5,5],[-4,7],[2,6],[3,2],[3,5],[6,0],[1,1],[3,-2],[3,0],[11,-7],[7,-2],[7,1],[18,7],[18,-9],[3,2],[12,5],[7,6],[5,12],[2,28],[4,5],[5,7],[9,4],[2,2],[267,0],[215,7],[175,0],[5,-4],[4,-1],[3,0],[8,5],[7,0],[11,-7],[3,-6],[-1,-7],[1,-3],[4,-3],[1,-10],[4,-6],[3,-2],[3,-5],[2,0],[2,1],[1,2],[-2,14],[2,1],[4,-1],[3,1],[2,5],[6,11],[7,10],[4,2],[5,0],[5,2],[14,7],[6,5],[5,2],[5,1],[5,-3],[3,-2],[5,-9],[25,0],[2,-1],[2,1],[7,0],[4,-4],[0,4],[39,0],[-1,175],[-87,0],[1,676],[1,0],[0,8],[-1,0],[0,127],[-18,3],[-6,3],[0,76],[-212,4],[-14,27],[-3,12],[-2,12],[-5,2],[-9,10],[-8,12],[-2,7],[-25,27],[-6,13],[0,9],[5,26],[0,16],[1,7],[2,3],[9,5],[2,6],[5,-2],[-5,10],[1,10],[0,15],[-3,6],[0,10],[-2,7],[-9,10],[-3,0],[3,-10],[-5,-4],[0,8],[-8,4],[-4,0],[-5,-6],[5,0],[-3,-13],[-7,0],[-6,4],[-12,15],[0,1],[2,0],[0,0],[0,2],[0,0],[0,-2],[-2,0],[0,0],[-1,1],[1,8],[4,8],[-5,9],[-4,-2],[-7,1],[-12,9],[-14,19],[-7,12],[-2,8],[0,15],[2,8],[5,6],[5,2],[-1,-1],[0,0],[7,4],[2,5],[6,-2],[0,-1],[3,-1],[-1,-1],[6,-2],[-3,-5],[-1,0],[2,0],[-1,-2],[4,7],[5,-5],[0,-1],[2,-1],[0,0],[0,0],[-1,0],[0,0],[5,-4],[-1,-1],[0,-1],[-1,0],[0,0],[1,-1],[0,2],[1,1],[2,-1],[4,-1],[5,-8],[-1,-1],[-3,-1],[-3,1],[0,1],[-1,1],[0,-1],[-2,0],[0,0],[0,1],[0,-2],[-7,0],[-1,1],[0,-2],[-4,-3],[-3,3],[-2,0],[0,1],[0,-1],[-2,1],[1,-1],[-1,1],[-1,-2],[-2,0],[0,-1],[2,1],[-2,-5],[-3,0],[-1,0],[4,0],[-1,-2],[0,-1],[2,2],[-1,1],[2,1],[2,5],[3,-2],[-2,1],[0,0],[2,-1],[0,1],[3,-2],[-2,0],[-1,0],[1,0],[3,-1],[0,-1],[-1,1],[-1,0],[0,0],[0,-1],[0,1],[1,0],[-1,-1],[0,-1],[0,0],[1,1],[1,0],[0,0],[2,2],[0,0],[3,2],[-1,-2],[1,-1],[0,3],[3,1],[-1,-3],[-5,-6],[-3,-2],[2,-1],[0,-2],[0,1],[1,1],[0,-1],[0,0],[1,0],[-2,2],[4,5],[0,-1],[1,0],[-1,0],[0,-1],[1,0],[0,0],[-1,1],[1,0],[0,1],[2,2],[-1,-1],[1,1],[1,3],[3,0],[-1,-2],[1,0],[-1,0],[0,0],[1,0],[0,-2],[1,0],[-1,-1],[1,1],[-1,1],[1,1],[0,0],[1,0],[-2,1],[1,1],[4,-1],[5,3],[1,-2],[-2,-4],[0,-4],[-1,-1],[0,0],[0,0],[0,1],[0,-1],[-2,0],[-1,0],[0,-1],[1,-2],[-1,3],[2,0],[1,0],[0,0],[0,-1],[0,0],[4,10],[1,0],[-1,-1],[0,-1],[2,2],[-1,1],[2,-1],[1,-2],[-1,-4],[0,-3],[9,-5],[1,-6],[-3,-3],[-2,-4],[-2,0],[0,0],[-4,-3],[-2,1],[-1,0],[3,-2],[0,-1],[-4,-4],[1,1],[0,-2],[1,3],[2,1],[4,-6],[-1,-1],[1,-1],[-1,0],[1,0],[0,2],[1,-2],[-1,-1],[0,0],[2,-1],[-1,-2],[1,1],[0,1],[-2,1],[1,1],[-1,1],[4,-2],[2,0],[5,4],[2,0],[1,-2],[0,-6],[3,-8],[-2,10],[3,1],[1,-2],[-1,2],[-2,0],[0,3],[-2,2],[-3,2],[-5,-4],[-3,0],[-3,2],[-2,4],[0,3],[5,3],[7,8],[-2,6],[-5,3],[-5,4],[2,3],[-2,4],[1,1],[0,0],[1,0],[1,0],[-2,0],[-1,0],[-4,3],[-1,1],[1,0],[0,0],[0,0],[1,0],[0,0],[-2,0],[-4,7],[-12,7],[1,1],[3,-2],[4,0],[4,2],[3,-1],[1,1],[0,2],[2,0],[0,0],[0,0],[0,-1],[0,1],[-2,0],[-1,-3],[-4,2],[-5,-2],[-2,0],[2,1],[2,1],[2,1],[1,2],[1,1],[0,0],[0,0],[0,1],[-2,0],[0,2],[-1,-2],[2,-1],[-2,-3],[-1,1],[-2,-3],[-2,0],[-3,2],[-2,-1],[0,2],[-1,-1],[-3,3],[1,0],[1,-1],[1,0],[1,0],[0,2],[1,0],[1,0],[-1,3],[0,-3],[-1,1],[0,-3],[-2,0],[0,2],[-1,-1],[-2,2],[0,0],[0,1],[0,-1],[0,1],[-2,0],[1,0],[-2,1],[1,1],[-5,2],[-1,3],[2,0],[1,3],[4,1],[-1,0],[0,1],[1,0],[0,0],[-5,-2],[-1,-3],[-4,1],[-1,-1],[-8,7],[2,0],[1,1],[-1,1],[1,1],[2,0],[0,1],[-2,-2],[-1,-2],[-1,0],[-1,1],[2,1],[-2,4],[2,7],[2,4],[2,7],[2,-1],[1,-2],[5,-4],[0,-1],[1,1],[-1,1],[-4,3],[1,1],[-1,-1],[-1,2],[0,1],[0,0],[1,0],[0,0],[-1,0],[-3,2],[2,5],[4,5],[1,0],[-1,-1],[0,-1],[0,0],[-1,0],[-1,-1],[0,0],[2,1],[4,4],[2,13],[1,-1],[1,0],[-1,-1],[0,0],[1,1],[-1,1],[0,1],[3,1],[-1,0],[1,1],[-1,1],[2,2],[3,0],[0,1],[0,-2],[1,1],[-1,1],[2,1],[0,0],[1,2],[1,-1],[0,0],[2,0],[-2,1],[1,0],[0,1],[0,-1],[-1,1],[1,1],[0,-1],[2,1],[-1,-2],[2,0],[-1,-3],[-1,0],[2,-1],[-1,-1],[2,0],[2,-2],[0,-1],[-1,0],[1,-1],[0,-2],[1,-1],[-2,2],[-1,-1],[1,-1],[0,-1],[1,0],[0,-2],[-1,0],[1,-1],[-1,-1],[1,0],[0,-2],[-2,-6],[-7,1],[-1,0],[8,-2],[2,-9],[0,-7],[1,9],[0,-1],[-1,7],[2,7],[1,0],[0,1],[-1,0],[2,1],[-1,1],[1,2],[0,0],[0,9],[2,2],[7,-9],[0,0],[-1,0],[0,0],[1,0],[1,0],[1,-2],[0,0],[0,0],[0,0],[0,0],[0,0],[2,-2],[-1,0],[0,0],[0,0],[2,0],[1,-1],[0,0],[-1,0],[2,-1],[1,-3],[-1,-1],[0,-1],[0,0],[-1,0],[0,1],[0,0],[-1,-1],[1,-1],[-2,1],[0,-1],[2,0],[0,2],[1,-2],[0,1],[0,1],[1,1],[0,1],[2,-2],[0,-3],[-2,-3],[0,-1],[0,-1],[2,4],[1,2],[-2,4],[3,-3],[1,-1],[1,-2],[1,0],[1,-1],[0,0],[1,0],[-4,3],[0,1],[1,0],[1,-1],[2,-2],[-1,2],[-1,0],[-1,1],[-1,0],[1,2],[1,-1],[0,1],[-1,0],[-1,0],[0,-1],[-4,4],[-1,2],[1,0],[2,-1],[0,1],[-1,0],[3,0],[3,-3],[4,0],[0,-3],[3,-1],[0,-2],[2,0],[0,-2],[-1,0],[0,-1],[0,0],[0,1],[1,0],[0,1],[1,-1],[1,0],[1,0],[-2,0],[-1,2],[-1,0],[-1,2],[-2,2],[0,1],[1,0],[-5,2],[-3,2],[-4,1],[1,1],[1,0],[-1,0],[-1,-1],[-2,0],[-1,1],[0,1],[0,0],[0,0],[0,-1],[-3,2],[2,1],[1,2],[-1,1],[-1,-4],[-1,0],[-2,1],[1,3],[0,2],[-1,-4],[-3,3],[1,1],[1,3],[1,0],[-1,1],[1,1],[0,1],[0,0],[-1,0],[0,1],[0,0],[0,-1],[0,-1],[-1,-5],[-3,2],[0,1],[-1,0],[3,2],[0,1],[1,0],[-3,2],[2,0],[-1,3],[1,3],[-1,1],[0,2],[1,0],[0,1],[1,0],[-1,3],[0,2],[1,0],[-1,1],[1,1],[1,-2],[0,3],[2,-1],[1,3],[2,3],[1,-3],[1,-1],[0,0],[6,-3],[0,-1],[1,1],[2,-1],[1,-1],[1,-1],[5,1],[2,-2],[-2,3],[-5,-2],[-2,3],[-2,1],[1,1],[0,0],[-1,-1],[-1,1],[0,-1],[-4,2],[3,-1],[-2,2],[0,2],[-1,0],[-1,4],[6,4],[0,0],[-1,0],[4,2],[1,-1],[0,2],[1,1],[2,0],[0,2],[6,5],[0,-5],[1,-4],[0,-1],[-1,1],[0,0],[0,0],[3,-2],[1,-1],[-1,-3],[0,-2],[0,-1],[1,5],[-1,3],[1,1],[2,0],[2,1],[2,0],[1,1],[1,-1],[1,0],[-1,0],[-1,1],[-1,-1],[-2,0],[-4,-1],[-1,-1],[-1,0],[-1,4],[2,6],[2,2],[9,2],[3,2],[2,-2],[-1,1],[0,-2],[-1,-1],[2,1],[1,-1],[1,1],[1,-1],[-2,-1],[0,-3],[1,2],[2,1],[0,-1],[1,0],[-1,-3],[2,2],[1,0],[-1,-1],[1,1],[1,-1],[-1,0],[0,0],[0,0],[0,0],[0,0],[1,0],[2,-3],[4,-4],[-1,-2],[-1,-1],[2,3],[3,0],[2,1],[3,0],[4,-5],[-1,-4],[1,2],[0,2],[-3,5],[-3,1],[-5,-1],[-2,2],[0,0],[3,-1],[1,0],[-3,1],[1,2],[-2,-1],[-1,0],[1,4],[-1,0],[1,2],[-2,0],[0,3],[-1,2],[-2,0],[1,1],[0,2],[1,1],[1,4],[2,0],[1,2],[2,-1],[-1,-1],[0,-1],[2,0],[0,-3],[0,0],[1,0],[0,-1],[0,0],[0,0],[0,1],[-1,0],[0,3],[-2,1],[2,1],[-2,2],[3,0],[1,-1],[1,1],[2,0],[1,1],[1,-1],[-1,-1],[1,-1],[0,1],[0,0],[1,-1],[-1,0],[1,0],[0,1],[1,0],[1,1],[2,-3],[1,0],[0,-3],[-2,0],[1,0],[-2,0],[0,-2],[1,1],[4,0],[-2,0],[2,-1],[-2,0],[0,0],[2,0],[0,-2],[2,-1],[-2,-1],[0,-1],[1,0],[-2,-3],[-1,-1],[-1,1],[0,-8],[2,-3],[4,-5],[-1,0],[1,-1],[0,-1],[1,1],[-1,1],[1,-1],[1,-6],[1,3],[-1,3],[1,0],[-4,4],[-3,5],[0,2],[0,0],[1,1],[0,1],[-1,0],[1,1],[1,1],[0,-1],[1,0],[2,2],[1,-1],[0,1],[1,0],[1,1],[-1,1],[2,2],[2,0],[2,-4],[0,-1],[2,0],[-2,-3],[1,1],[2,0],[0,-1],[0,-1],[1,2],[-1,-4],[1,2],[1,0],[0,1],[1,-1],[-1,-1],[1,2],[3,-1],[-1,-1],[2,1],[2,-4],[-1,-1],[1,-3],[3,-2],[-1,-1],[1,0],[1,1],[1,-1],[-1,1],[3,-1],[0,0],[1,0],[0,-1],[1,2],[-2,-1],[-2,2],[-1,0],[-4,2],[2,-1],[-2,3],[0,4],[-1,2],[2,2],[2,-1],[1,1],[-2,0],[-2,1],[0,2],[1,-1],[1,1],[-1,0],[2,1],[0,1],[-2,0],[0,1],[0,0],[1,0],[0,1],[-2,1],[2,-1],[-2,-1],[0,-2],[2,0],[-1,0],[0,-2],[-2,1],[0,-3],[-3,1],[1,1],[-2,0],[-1,2],[1,1],[-2,2],[1,1],[-1,4],[2,2],[2,0],[0,1],[0,-1],[2,2],[0,-1],[1,2],[0,0],[0,-1],[1,1],[0,-1],[0,1],[-1,0],[0,0],[2,1],[1,1],[1,-1],[-1,1],[2,2],[-1,3],[1,-1],[1,-1],[-1,1],[0,2],[2,-1],[2,2],[0,-1],[1,0],[0,2],[2,1],[1,-1],[-1,1],[-1,0],[-1,-1],[-2,0],[-1,1],[2,3],[1,0],[0,6],[2,3],[1,0],[0,0],[0,-1],[0,0],[1,0],[-1,1],[-1,1],[2,1],[-1,0],[0,1],[2,-1],[0,1],[1,1],[1,-1],[1,2],[1,-2],[1,0],[0,-1],[1,0],[0,-1],[-2,-1],[0,-2],[-1,2],[-1,-1],[1,-1],[-1,-1],[0,-1],[1,0],[-1,1],[1,0],[0,2],[1,-2],[1,0],[0,-1],[0,0],[1,0],[-1,1],[-1,0],[0,1],[0,2],[1,0],[1,-1],[3,4],[2,-1],[-1,-2],[0,-1],[-1,-1],[1,0],[0,-2],[1,3],[1,-1],[0,1],[1,3],[2,0],[-1,-3],[1,2],[2,-1],[-2,-1],[0,-3],[0,2],[2,1],[3,-1],[1,-2],[-1,-2],[-1,-1],[-1,2],[-2,0],[2,-1],[-1,0],[0,-2],[-1,-1],[-1,0],[-1,0],[2,0],[-2,-2],[1,0],[-2,-2],[0,-3],[0,0],[0,0],[-1,1],[0,0],[0,0],[0,-1],[-3,-2],[-2,-1],[0,0],[0,0],[1,1],[2,0],[3,2],[2,-11],[2,-1],[1,0],[-3,2],[-1,9],[1,-2],[0,-1],[0,0],[0,1],[6,-5],[2,0],[2,-1],[1,0],[-9,5],[-2,3],[0,1],[1,0],[0,0],[0,-1],[0,0],[0,1],[1,2],[1,-1],[-1,1],[4,5],[6,4],[1,0],[-1,-3],[-2,0],[0,-2],[-1,0],[-2,-1],[2,1],[3,0],[-1,-1],[1,0],[0,1],[2,-2],[1,0],[0,0],[1,1],[-2,-1],[-1,2],[-3,0],[0,1],[2,0],[1,2],[0,0],[0,0],[1,0],[0,0],[0,0],[-1,1],[2,2],[-1,0],[0,0],[1,0],[0,0],[1,0],[1,0],[0,0],[0,0],[1,0],[0,0],[-1,0],[-2,1],[1,0],[-1,1],[1,1],[0,1],[0,1],[1,-2],[2,-1],[-2,3],[2,1],[1,2],[1,0],[0,-1],[0,0],[2,0],[-1,0],[0,1],[-2,1],[1,0],[0,1],[-1,0],[1,1],[-1,-1],[0,-1],[-1,-1],[-1,0],[1,-1],[-2,1],[1,-1],[-2,-1],[0,0],[-3,-1],[1,1],[-2,7],[3,4],[2,0],[7,3],[1,-1],[-1,-1],[1,0],[0,1],[1,-1],[-1,3],[1,-1],[1,0],[1,0],[0,-1],[0,0],[0,0],[1,0],[0,-1],[0,1],[-3,2],[2,0],[0,1],[1,-1],[0,0],[-1,1],[2,0],[-1,1],[1,-1],[0,3],[1,-1],[-1,1],[2,0],[0,1],[1,0],[1,0],[0,2],[0,-1],[2,2],[0,-1],[-1,-1],[1,0],[-1,-2],[1,1],[0,-1],[1,0],[1,2],[1,-1],[-2,-1],[3,-1],[0,-1],[0,1],[2,0],[1,0],[0,0],[5,-1],[0,1],[-4,0],[4,0],[1,-2],[-4,-3],[1,-1],[-2,-1],[-2,-2],[0,-2],[0,2],[2,2],[3,1],[-1,2],[3,1],[-2,-2],[1,-2],[-2,-2],[0,-2],[2,-1],[0,-2],[1,-1],[0,3],[-3,1],[0,2],[1,-1],[0,1],[1,2],[2,0],[0,1],[1,-1],[-1,1],[-1,-1],[1,2],[0,-1],[4,4],[1,0],[-1,-1],[0,0],[0,0],[1,1],[0,-1],[0,0],[0,0],[0,0],[0,1],[-1,1],[1,0],[1,-1],[0,1],[1,1],[1,-1],[0,-1],[1,-1],[-1,-1],[1,-1],[0,0],[1,0],[-2,1],[1,1],[-1,3],[1,0],[-1,0],[1,2],[-1,0],[-1,-1],[-1,0],[-1,-1],[-1,0],[-1,-2],[-2,0],[-3,4],[-8,2],[-1,2],[0,3],[1,0],[2,-1],[0,1],[0,-1],[1,0],[0,-1],[2,0],[3,2],[0,1],[2,0],[0,-1],[2,1],[1,1],[1,-1],[0,-1],[0,-2],[0,2],[2,0],[0,0],[-2,0],[1,1],[-1,1],[0,0],[1,0],[0,0],[0,-1],[0,0],[4,4],[-1,-1],[2,2],[1,0],[1,-2],[2,-1],[-1,-3],[1,0],[0,-2],[-2,0],[0,2],[-1,1],[-2,0],[0,-1],[1,0],[-1,-1],[2,0],[0,-1],[1,1],[0,-2],[1,0],[-1,-1],[-1,1],[0,0],[-1,0],[1,-1],[0,-1],[-3,-1],[1,-3],[2,1],[1,0],[0,-1],[1,0],[0,-1],[0,1],[-1,1],[1,0],[1,1],[1,-1],[1,0],[1,0],[1,-1],[0,0],[-3,1],[-1,1],[-3,0],[6,5],[1,-4],[-1,4],[2,-1],[-1,2],[1,0],[0,-4],[1,1],[1,-2],[2,-1],[-2,-1],[1,-1],[-2,-2],[1,-2],[1,1],[-1,1],[1,1],[0,-1],[2,1],[0,-1],[0,-1],[1,2],[1,1],[-1,-3],[1,1],[-1,-1],[3,0],[-1,0],[1,0],[0,-1],[2,1],[-1,-2],[2,3],[0,-1],[1,1],[1,-1],[-1,-2],[1,2],[2,-1],[-2,-1],[-2,0],[1,-1],[-2,0],[1,-1],[-2,-2],[0,2],[-2,-1],[1,1],[-1,0],[-1,1],[0,0],[0,0],[1,-3],[1,1],[1,-2],[1,1],[0,-2],[-1,0],[1,-1],[-3,1],[-3,-1],[0,3],[-2,1],[0,0],[0,-1],[0,-1],[0,1],[-2,-1],[2,0],[-1,-1],[0,-1],[-1,0],[0,0],[1,0],[1,2],[0,0],[-1,1],[1,-1],[2,1],[-1,-1],[2,-2],[-1,-2],[0,0],[0,1],[1,-1],[0,-1],[-1,0],[1,-1],[0,1],[1,1],[-1,1],[0,1],[3,0],[0,-1],[0,0],[-1,0],[0,-1],[1,1],[0,-1],[1,1],[0,1],[1,-1],[1,2],[0,0],[0,-2],[2,-1],[-1,0],[1,-1],[1,3],[2,-1],[-1,2],[1,-1],[1,1],[0,-1],[1,0],[2,-1],[0,1],[1,-1],[-1,0],[0,-1],[1,0],[-1,0],[1,0],[-1,-1],[1,0],[-1,-1],[1,-1],[-1,-2],[1,1],[1,-1],[-2,0],[0,-2],[3,-1],[1,-3],[-1,-5],[-6,2],[-1,-4],[-4,-4],[-3,-7],[-4,-2],[-1,0],[-2,-4],[-4,-3],[0,-11],[-1,-3],[-4,-3],[3,-5],[0,-8],[-1,-9],[-2,-3],[-2,-2],[1,-6],[15,0],[2,3],[3,1],[1,6],[2,4],[3,1],[5,0],[2,4],[4,1],[1,6],[4,5],[0,4],[3,3],[4,2],[7,-1],[0,2],[-10,0],[-3,1],[-4,3],[-1,3],[8,2],[0,1],[1,0],[4,3],[2,5],[5,8],[3,1],[3,0],[3,0],[2,-5],[3,-2],[-1,0],[1,-1],[0,1],[1,0],[0,1],[3,-2],[4,0],[3,1],[1,1],[1,0],[-2,-1],[1,2],[-1,-2],[-2,0],[-1,0],[0,0],[0,1],[0,-1],[-3,1],[-6,2],[0,5],[4,-4],[1,1],[-5,4],[0,-1],[0,1],[-2,1],[3,5],[0,2],[0,-2],[-2,-1],[0,-1],[-2,-1],[0,-2],[-7,1],[-2,1],[0,-1],[-2,2],[1,1],[1,-1],[1,1],[0,1],[0,0],[1,0],[-1,0],[0,-1],[-1,0],[0,1],[0,0],[0,0],[0,0],[-1,0],[0,-1],[-1,1],[0,0],[1,-1],[-2,-1],[0,0],[1,0],[0,-2],[-1,0],[1,-1],[-3,0],[-1,1],[0,-2],[-2,1],[2,-1],[-2,-1],[-5,-6],[0,0],[0,-1],[-1,-5],[-3,-3],[-3,0],[0,-1],[0,1],[-2,1],[-3,2],[0,2],[0,-1],[-1,0],[0,1],[1,0],[-1,0],[0,4],[1,-1],[0,1],[-2,2],[1,0],[1,2],[1,2],[1,12],[1,-4],[2,3],[2,-1],[0,-1],[2,0],[-1,1],[1,2],[1,-1],[0,0],[0,2],[1,0],[0,1],[3,-2],[1,3],[1,-1],[2,0],[0,0],[0,-1],[1,1],[0,-1],[0,1],[-1,0],[1,0],[-1,1],[1,1],[-2,2],[1,1],[1,-1],[1,0],[1,-3],[2,2],[1,-1],[0,1],[1,0],[-2,2],[1,0],[0,1],[1,0],[-2,2],[1,0],[1,1],[1,-1],[0,2],[2,-1],[0,1],[2,-1],[1,0],[-1,2],[1,1],[2,-1],[1,2],[1,-1],[0,1],[-3,2],[1,1],[2,0],[1,-1],[1,0],[-1,-2],[1,0],[0,-1],[0,-1],[0,-1],[1,3],[1,0],[-1,-1],[1,-1],[1,0],[-1,0],[2,1],[0,-2],[1,-1],[0,-2],[2,1],[0,-2],[2,0],[-1,0],[0,-1],[3,2],[1,-4],[1,0],[0,-1],[-3,7],[1,1],[0,1],[1,0],[0,0],[-1,0],[0,-1],[-1,-2],[-1,1],[-1,-1],[-2,2],[-1,3],[0,1],[-1,0],[1,1],[-2,0],[1,1],[-1,1],[1,1],[-4,0],[1,2],[2,0],[0,1],[-1,1],[-1,2],[0,1],[2,-1],[1,3],[1,0],[0,1],[-2,1],[2,0],[0,2],[0,-2],[2,0],[0,-1],[2,3],[0,-1],[1,0],[2,-2],[-1,-1],[0,0],[1,0],[4,-1],[0,-3],[0,0],[0,-1],[-1,1],[0,0],[1,-1],[0,0],[1,-2],[0,0],[0,0],[0,-1],[0,0],[0,-1],[1,2],[-1,4],[1,3],[0,2],[1,1],[-1,-1],[-1,-3],[-1,1],[-3,1],[-1,1],[1,0],[-2,3],[-1,1],[-1,-1],[0,1],[-1,-1],[-1,3],[0,-1],[-2,1],[1,-2],[-4,3],[6,1],[0,1],[2,0],[0,1],[0,-1],[0,2],[-1,1],[0,1],[2,-1],[0,-2],[4,-2],[-3,3],[2,1],[-1,1],[0,1],[-1,1],[1,2],[2,0],[0,3],[3,-1],[-1,-2],[0,-2],[0,-1],[-1,0],[0,-1],[0,0],[0,0],[0,-1],[2,3],[0,9],[-2,2],[-1,0],[-1,-1],[0,0],[1,2],[1,-1],[1,1],[-2,0],[1,1],[-1,1],[2,1],[0,3],[1,0],[1,1],[1,-1],[0,0],[0,1],[-3,-1],[1,3],[0,1],[1,2],[-1,-1],[2,9],[-1,8],[1,0],[-1,1],[0,1],[-1,-1],[0,1],[-2,4],[-2,0],[0,2],[-2,0],[-2,2],[1,1],[-1,-1],[0,-1],[-6,4],[2,0],[1,0],[-2,0],[-1,1],[3,0],[0,1],[0,0],[-2,0],[-1,3],[-9,2],[0,0],[-2,0],[0,0],[0,-1],[-2,1],[-1,-2],[0,-1],[2,2],[-3,-6],[-2,-1],[-2,-1],[-9,3],[-1,4],[8,7],[9,-1],[1,-2],[-1,0],[2,-1],[6,-2],[4,1],[0,1],[1,0],[-1,4],[-5,1],[3,3],[0,0],[0,-1],[0,0],[1,0],[-1,1],[1,2],[2,-1],[0,-2],[1,2],[3,0],[0,2],[3,0],[-1,-2],[1,0],[0,2],[0,0],[2,-1],[-1,-2],[0,-1],[2,3],[1,0],[-1,0],[0,-1],[1,1],[-3,1],[-1,1],[1,0],[1,1],[-1,-1],[-2,2],[-1,0],[2,-2],[-3,-1],[-1,-2],[-2,0],[1,1],[-1,-1],[-3,2],[2,2],[0,2],[0,1],[0,2],[1,0],[0,9],[-2,2],[-5,18],[-14,23],[-2,7],[-1,9],[-14,27],[-8,7],[0,2],[-1,1],[0,1],[0,3],[-1,2],[-2,2],[-6,2],[-2,1],[0,1],[1,1],[-2,-1],[0,-1],[1,-1],[8,-3],[2,-2],[0,-5],[2,-1],[0,-2],[-20,14],[-16,7],[-5,1],[-4,0],[-6,2],[2,1],[0,0],[1,0],[0,2],[-1,0],[0,-1],[0,2],[-1,-1],[-2,3],[-2,-1],[0,1],[-7,3],[-1,2],[-1,1],[1,1],[-3,1],[0,2],[-1,0],[-1,3],[1,1],[-2,0],[0,2],[-3,1],[1,1],[-1,0],[0,2],[-1,-2],[-2,1],[1,1],[-2,0],[0,1],[1,0],[0,0],[0,0],[-2,1],[1,1],[-2,3],[2,-1],[0,1],[0,-2],[1,0],[0,4],[0,-1],[-1,1],[0,0],[0,0],[-2,-1],[-2,1],[0,3],[1,1],[1,-2],[1,2],[0,-2],[0,2],[2,0],[1,0],[-1,2],[-1,-1],[-3,2],[1,4],[1,-1],[0,1],[0,-1],[-2,3],[-1,2],[1,1],[-1,0],[1,0],[-1,2],[1,0],[-1,2],[3,-1],[0,2],[3,0],[-2,1],[-1,-1],[-1,-1],[-2,3],[-2,-1],[0,1],[0,0],[0,1],[-1,0],[1,0],[-1,1],[0,1],[0,0],[0,1],[1,0],[0,1],[1,0],[0,1],[0,-1],[1,0],[-1,1],[-1,0],[-2,-1],[-3,7],[1,-1],[0,2],[0,1],[0,0],[0,-1],[1,0],[0,1],[1,0],[0,1],[-1,1],[-1,-1],[1,1],[-1,-1],[0,0],[0,0],[1,0],[0,1],[1,-1],[-1,-1],[0,-1],[0,1],[-1,1],[-1,-1],[1,-1],[-1,0],[0,1],[-2,0],[-2,4],[0,0],[0,4],[-3,3],[-14,36],[0,16],[-2,13],[-6,23],[0,10],[-7,38],[-11,39],[-8,12],[-2,8],[0,0],[1,-1],[0,-1],[1,-1],[-4,7],[-2,1],[0,14],[-1,3],[0,0],[-6,16],[-3,13],[-1,5],[1,0],[1,0],[1,0],[0,0],[1,0],[-1,1],[-1,0],[1,2],[1,-1],[0,-1],[0,0],[1,0],[1,1],[0,0],[0,1],[-1,1],[1,1],[0,0],[0,1],[0,0],[0,-1],[-1,-1],[0,-1],[1,0],[0,-1],[-2,-1],[0,1],[-1,1],[-1,-2],[1,-1],[-1,0],[-2,0],[-3,30],[91,0],[-4,7],[-10,37],[1,16],[-1,6],[-12,29],[-1,14],[-5,14],[1,16],[-4,17],[3,20],[-1,16],[-17,58],[-11,0],[0,284],[69,-1],[0,-4],[51,0],[3,-15],[-1,0],[0,-1],[2,0],[0,1],[89,0],[1,3],[3,-3],[15,0],[7,-7],[9,1],[11,6],[3,3],[5,1],[7,-8],[17,-10],[47,-22],[0,192],[269,0],[0,156],[42,-3],[28,0],[2,5],[69,0],[-2,-1064],[407,2],[2,-220],[-5,-2],[-6,-6],[-8,-2],[-2,-3],[-3,-9],[-3,-8],[-5,-5],[-2,-6],[0,-13],[84,1],[0,-17],[7,-44],[2,-2],[-1,-3],[3,-43],[-2,-29],[-6,-19],[-8,-35],[2,-13],[-1,-6],[0,-19],[-3,-14],[10,-32],[4,-4],[18,-6],[6,-1],[11,-10],[3,-6],[6,-6],[-11,-47],[-12,-12],[-8,-17],[-53,-1],[1,-4],[-3,-10],[0,-4],[-3,-2],[1,-6],[-3,0],[-1,-4],[1,-1],[-2,-3],[0,-4],[1,-1],[-3,-5],[2,-13],[-2,-3],[2,-2],[0,-8],[6,-2],[-1,-3],[4,-3],[-5,-7],[-1,-4],[1,-6],[3,-4],[-2,-13],[-2,-6],[0,-6],[-5,-6],[-2,-3],[3,-12],[-3,-13],[1,-8],[-1,-6],[-3,-1],[-2,-3],[7,-11],[-1,-4],[1,-2],[-8,-8],[1,-6],[-1,-6],[2,0],[0,-3],[-5,-15],[0,-3],[-3,-16],[1,-2],[-3,-3],[0,-10],[-2,-4],[1,-2],[0,-3],[2,-3],[0,-9],[1,-3],[0,-5],[-4,-6],[-2,-7],[0,-4],[-5,-5],[-7,-13],[-2,0],[-2,-3],[1,-3],[0,-2],[-6,-6],[-9,-18],[-5,-2],[1,-4],[-2,-8],[-2,-17],[-3,-1],[0,-9],[-2,-4],[1,0],[-1,-3],[3,-3],[-3,-5],[2,-6],[-2,-2],[-5,-1],[-3,-20],[-2,-5],[9,-49],[16,-9],[1,-13],[-5,-13],[1,-11],[15,-36],[3,-15],[2,-17],[5,-13],[5,-19],[7,-14],[6,-22],[1,-11],[6,-17],[1,-7],[2,-2],[-1,-2],[4,-9],[2,-9],[3,-21],[1,-3],[-1,-2],[1,-26],[-1,-10],[-3,-14],[0,-10],[-3,-23],[-5,-12],[0,-3],[-1,-2],[-4,-11],[120,-14],[2,-4],[3,-2],[9,-2],[10,5],[111,-13],[10,-11],[6,-12],[8,-5],[0,-5],[3,-2],[3,2],[3,-1],[9,-7],[-2,-5],[-6,0],[-6,1],[-2,-1],[-2,-3],[1,-4],[-5,-5],[2,-14],[-7,-4],[2,-8],[-1,-3],[0,-6],[2,-2],[0,-7],[2,-9],[-1,-2],[1,-2],[-1,-4],[5,-8],[2,-17],[-1,-11],[2,-6],[-1,-4],[1,-3],[-2,-5],[2,-3],[-1,-3],[1,-6],[4,-6],[4,0],[3,1],[14,-1],[5,2],[9,2],[2,0],[2,-1],[7,2],[4,-1],[6,-4],[3,-19],[-1,-4],[1,-7],[1,-9],[5,-5],[0,-2],[-4,-5],[0,-4],[1,-3],[3,-2],[1,-7],[-1,-18],[-1,-4],[1,-4],[-6,-11],[0,-4],[1,-1],[0,-5],[3,-7],[-2,-4],[0,-10],[-1,-2],[-2,-21],[1,-6],[0,-12],[-2,-9],[2,-6],[-1,-7],[1,-18],[3,-5],[0,-23],[1,-12],[0,-3],[0,-4],[-3,-3],[1,-10],[2,-11],[-2,-7],[3,-2],[2,-3],[-2,-11],[1,-2],[3,-10],[0,-6],[1,-6],[-3,-17],[-5,-8],[21,-15],[-8,-24],[-3,-1],[-4,-6],[10,-28],[4,-15],[4,-49],[2,1],[1,2],[4,1],[4,0],[0,-3],[-3,-4],[3,-4],[1,2],[0,3],[4,1],[2,3],[4,1],[2,-3],[5,0],[1,1],[0,4],[3,8],[5,6],[4,3],[2,0],[0,-4],[1,-2],[4,1],[2,2],[6,4],[2,-3],[3,-2],[10,5],[11,0],[4,-1],[6,2],[1,-1],[3,-4],[3,0],[2,0],[1,-3],[-2,-4],[1,-1],[3,-2],[0,-1],[-3,-5],[2,-4],[-3,-4],[1,-3],[-2,-1],[-2,1],[-1,-2],[1,-4],[3,-1],[1,-3],[0,-2],[-2,-4],[-4,-1],[0,-4],[-4,-2],[1,-5],[1,-9],[-1,-3],[-3,-10],[4,-3],[-4,-4],[-6,-6],[-1,-7],[0,-5],[-2,-4],[135,-15],[-8,-5],[-9,-1],[-4,-2],[-5,-9],[-3,-1],[-4,-8],[63,-6],[1,1],[10,-4],[0,5],[4,2],[6,7],[8,3],[5,-2],[7,3],[2,-1],[19,7],[12,16],[14,4],[8,-2],[72,26],[0,-40],[125,0],[0,184],[11,63],[-1,50],[-2,34],[-1,554],[498,5],[-1,-128],[228,-1],[1,-486],[-282,-1],[1,3],[-2,0],[0,-3],[-4,0],[1,-7],[-1,-4],[-2,-3],[-7,-3],[-2,-2],[-2,-26],[-2,-11],[-3,-9],[-11,-20],[-8,-8],[6,-22],[5,-13],[0,-5],[-2,-4],[-7,-9],[-3,-6],[0,-13],[-1,-6],[-4,-4],[-6,-3],[-2,-3],[3,-8],[6,-9],[5,-3],[10,-2],[1,-7],[0,-4],[-4,-4],[-8,-2],[1,-6],[4,-9],[6,-2],[7,-1],[0,-2],[-5,-8],[-4,-8],[-15,-12],[-13,-18],[-3,-6],[-1,-9],[1,-11],[-2,-11],[1,-7],[5,-7],[3,-3],[9,-5],[2,-2],[0,-2],[-9,-28],[-4,-19],[-6,-10],[0,-9],[-2,-27],[-6,-15],[-1,-5],[0,-14],[1,-8],[-3,-20],[0,-13],[-2,-8],[-8,-10],[-3,-9],[228,0],[2,-671],[-182,0],[4,-7],[10,-12],[1,-4],[0,-4],[-5,-4],[-4,-2],[-7,0],[3,-8],[-2,0],[-4,-2],[-2,1],[-8,-2],[-6,-6],[0,-491],[-379,0],[11,-9],[-6,-15],[16,-9],[18,-14],[15,-7],[10,-6],[4,-7],[20,-20],[40,-28],[7,-8],[4,-7],[3,-12],[1,-14],[-3,-8],[-7,-10],[-26,-18],[-12,-4],[-39,-6],[-9,-3],[-8,-8],[-6,-11],[-1,-11],[2,-7],[7,-11],[3,-7],[1,-12],[-1,-10],[-4,-6],[-14,-14],[-9,-6],[-9,-2],[-5,-4],[-4,-8],[-9,-23],[-11,-20],[-6,-6],[-6,-4],[-4,-4],[-2,-16],[-2,-5],[-5,-2],[-12,-3],[-15,-1],[-2,1],[-233,-90],[-140,-50],[-1,-2],[-4,-2],[-15,-17],[-6,-2],[-10,2],[-10,-4],[-19,3],[-17,-5],[-2,-2],[0,-3],[-4,-2],[-3,3],[-4,0],[-2,1],[-22,-18],[1,-21],[-5,-7],[-13,-10],[-8,-3],[-8,-5],[-8,0],[-3,0],[-2,-2],[-1,-7],[-2,-3],[-4,2],[-2,3],[-2,1],[-4,0],[-5,-3],[-3,-1],[-3,2],[-3,2],[-9,5],[-12,2],[-24,-1],[-1,1],[-4,-1],[-2,-3],[-2,-1],[-12,5],[-59,26],[-43,17],[-38,12],[-5,3],[-42,9],[-42,5],[-2,-3],[-4,0],[-19,-13],[0,-7],[1,-2],[2,1],[-6,-11],[-4,2],[-5,-2],[-1,-2],[1,-2],[0,-4],[-2,1],[-4,0],[0,2],[0,-1],[-2,0],[0,1],[-19,0],[-27,-4],[0,2],[1,5],[4,3],[-2,3],[-5,3],[-10,-2],[-6,-2],[-4,-4],[-2,-7],[-4,-6],[-5,-4],[-6,-3],[-1,-2],[-4,-7],[0,-3],[-5,-6],[-4,-2],[-5,0],[-1,-3],[-4,-3],[-5,0],[0,-3],[5,-7],[-1,-5],[-8,-8],[-4,-5],[3,-2],[-1,-7],[2,0],[1,-6],[6,-3],[1,-2],[3,0],[2,-6],[-3,-1],[0,-2],[-1,-1],[-3,4],[-2,0],[-12,-4],[-2,-3],[-10,-5],[-3,-4],[1,-5],[-19,-4],[-6,-3],[-8,-8],[-5,-10],[-12,-10],[-9,-6],[-7,-7],[-2,-1],[-2,-3],[-6,-4],[-6,-6],[-9,-1],[0,1],[-2,-1],[-2,3],[-12,5],[-20,6],[-11,2],[-5,0],[-3,-4],[-1,1],[-2,-1],[-1,1],[-1,-1],[-1,1],[-1,0],[-2,0],[0,2],[-13,5],[-3,-1],[-2,1],[-4,-3],[-5,-1],[-9,4],[-15,-2],[0,1],[-2,0],[-1,1],[-3,0],[-3,1],[-2,-1],[0,2],[-1,-1],[-3,0],[-5,-4],[-7,-3],[-8,-9],[-8,-3],[-10,2],[-2,2],[1,0],[-1,2],[0,-2],[-1,0],[-2,-3],[-9,0],[-5,-1],[-4,5],[0,-1],[1,-1],[-9,-1],[-2,1],[-1,-2],[-9,0],[-5,-2],[-1,-1],[-1,0],[0,-1],[-9,2],[-6,2],[-3,-1],[-27,2],[-15,-1],[-30,2],[-10,0],[-6,-2],[-2,1],[-2,-1],[-2,1],[-4,-2],[-8,3],[-4,-2],[-6,1],[-1,-1],[-2,-1],[0,1],[-4,-2],[-3,-1],[-1,1],[-1,-1],[-3,0],[-2,-1],[-1,0],[-3,-3],[0,-2],[-9,-8],[-1,-1],[-2,1],[-2,-3],[-3,0],[0,-2],[-4,-2],[0,1],[-3,0],[0,2],[-1,-2],[1,-1],[-1,-2],[-3,-1],[-1,2],[-1,-1],[0,1],[-5,-6],[-1,1],[-3,-1],[-3,-3],[-3,0],[-5,1],[-6,-5],[-7,1],[-1,1],[-8,-4],[0,1],[-2,-2],[-1,1],[-1,0],[0,1],[-2,-2],[-3,1],[-6,-1],[-1,1],[-3,-2],[-8,-1],[0,1],[-3,-1],[-3,0],[-2,1],[-3,-1],[-1,2],[-3,-1],[-5,3],[-2,-2],[-9,4],[0,1],[-3,-1],[1,1],[-2,-1],[-2,0],[1,1],[-3,-1],[0,1],[-2,-1],[-3,1],[0,1],[-3,1],[0,1],[0,-1],[-1,1],[-1,0],[-2,2],[-1,-1],[-1,7],[-5,-1],[0,1],[-2,0],[-3,-1],[-8,4],[0,3],[-1,1],[0,2],[-6,0],[-3,4],[-2,0],[1,2],[-4,-1],[-9,3],[0,1],[1,1],[-2,1],[0,1],[-1,0],[-1,2],[-11,6],[-2,7],[-4,1],[-15,3],[-8,8],[-2,4],[0,23],[-2,8],[0,1],[-1,3],[0,1],[3,4],[12,8],[7,6],[8,17],[13,37],[17,21],[7,4],[9,10],[7,6],[0,4],[10,7],[8,12],[0,0],[0,1],[3,5],[5,2],[15,-3],[12,-6],[9,1],[26,17],[2,4],[7,0],[9,3],[10,8],[3,0],[9,5],[3,0],[3,1],[-1,1],[2,1],[2,0],[0,2],[1,1],[2,3],[6,4],[12,6],[29,25],[3,2],[4,0],[7,4],[7,11],[1,0],[3,1],[1,-1],[0,2],[2,0],[0,0],[-1,0],[-5,-2],[13,28],[17,31],[4,4],[4,12],[6,9],[4,15],[5,7],[0,4],[2,1],[1,3],[6,6],[0,2],[3,1],[1,3],[9,4],[6,6],[10,6],[7,8],[13,6],[0,2],[1,1],[13,5],[1,-2],[2,-1],[0,0],[0,-1],[2,-1],[-2,2],[3,0],[4,4],[9,4],[13,0],[9,2],[7,4],[8,9],[14,9],[6,2],[4,0],[5,3],[4,16],[4,7],[2,32],[0,24],[-4,24],[-4,13],[0,11],[1,2],[1,8],[9,4],[12,8],[4,10],[1,19],[2,2],[5,1],[2,1],[4,11],[-4,33],[3,11],[1,2],[-1,21],[1,0],[-3,15],[-3,11],[2,6],[-3,12],[0,11],[8,5],[0,4],[3,6],[2,7],[-1,-1],[0,1],[-2,3],[0,-1],[-1,0],[1,0],[0,-1],[0,1],[-1,0],[1,-1],[-1,0],[0,1],[1,1],[-1,-1],[0,1],[2,1],[3,-1],[1,-6],[3,-3],[1,-3],[-2,-4],[1,-5],[-1,-3],[-7,-5],[-1,-6],[3,-13],[-1,-6],[2,-8],[2,-9],[9,-9],[2,-4],[0,-9],[-4,-4],[-5,-1],[-1,-6],[14,1],[-1,12],[1,3],[4,3],[8,1],[5,8],[-4,5],[-6,5],[-1,4],[1,4],[-2,4],[0,5],[1,4],[3,3],[0,5],[3,5],[0,-1],[10,-13],[-2,-2],[-6,0],[-1,-4],[3,-3],[2,0],[3,1],[4,2],[-8,-3],[-4,3],[1,3],[6,0],[2,3],[-9,13],[0,2],[6,8],[4,2],[7,7],[9,5],[4,6],[6,2],[3,3],[5,2],[3,3],[6,5],[3,5],[6,2],[5,11],[-3,3],[0,4],[1,3],[4,3],[-1,12],[1,5],[2,3],[-2,0],[-4,-2],[-7,-1],[-5,2],[-3,5],[-1,8],[1,4],[5,3],[5,7],[4,2],[9,0],[4,-3],[2,-4],[0,-9],[4,2],[6,1],[5,4],[2,6],[-3,6],[-4,5],[0,4],[2,4],[7,5],[0,1],[-4,2],[-2,3],[-1,4],[-1,11],[-2,3],[-2,13],[-2,2],[-1,4],[0,3],[2,4],[-1,15],[3,10],[-3,5],[1,6],[-5,6],[-1,5],[5,11],[28,29],[4,2],[19,1],[8,8],[3,5],[7,3],[11,9],[2,9],[2,4],[4,1],[3,1],[8,6],[11,1],[2,1],[3,5],[5,11],[9,8],[2,0],[-1,2],[4,8],[4,2],[7,10],[9,6],[2,5],[6,4],[2,4],[7,8],[1,10],[2,3],[4,1],[-2,4],[1,4],[2,3],[4,2],[-1,11],[1,4],[3,3],[6,1],[1,3],[-2,5],[-1,14],[1,4],[2,3],[3,1],[4,0],[4,-1],[1,5],[-1,23],[0,3],[2,3],[3,2],[10,1],[4,7],[4,3],[2,5],[0,7],[-1,9],[2,4],[4,2],[0,11],[4,7],[2,3],[3,20],[4,6],[7,6],[-2,4],[0,4],[2,5],[1,4],[4,7],[-2,4],[0,7],[-2,4],[0,5],[1,3],[5,4],[0,5],[3,4],[3,3],[-14,16],[-5,3],[-2,3],[-10,5],[-4,0],[0,-5],[-2,-3],[2,-3],[-1,-5],[2,-10],[-1,-3],[-3,-3],[-4,-1],[-4,1],[-3,-2],[-3,-6],[-3,-2],[-5,-1],[-3,-6],[-6,-4],[-5,0],[-23,-1],[-4,2],[-2,3],[-1,13],[1,3],[2,2],[-1,4],[0,3],[11,14],[1,3],[6,7],[-3,5],[2,9],[-1,4],[0,4],[5,9],[-1,2],[-3,2],[-2,4],[0,7],[-2,4],[0,4],[4,7],[6,1],[4,3],[4,7],[4,3],[7,13],[4,2],[4,0],[6,4],[4,9],[10,12],[0,24],[2,19],[1,4],[-39,18],[-2,3],[0,3],[0,3],[4,6],[-21,20],[-10,-3],[-4,0],[-5,-2],[-3,1],[-3,1],[-3,5],[0,10],[-6,-1],[-6,-4],[-6,-3],[-14,-1],[0,-11],[-2,-6],[28,-14],[7,-7],[1,-3],[0,-4],[-10,-27],[-4,-5],[-9,-5],[-1,-2],[14,-7],[3,-4],[0,-6],[-9,-16],[-4,-4],[-6,0],[-34,18],[-21,-38],[-2,-8],[-7,-9],[-3,-2],[-4,0],[-2,1],[-20,14],[-50,-14],[-6,-2],[-1,-3],[-8,2],[2,3],[-5,0],[-3,2],[-9,-3],[-4,4],[-6,2],[-6,4],[-5,0],[-6,1],[-10,7],[-7,8],[2,-4],[0,-2],[-9,12],[1,-1],[1,1],[5,-6],[1,8],[-3,3],[-3,-2],[3,2],[-8,9],[-5,13],[0,0],[-1,-1],[1,2],[-13,5],[-19,9],[6,8],[2,8],[5,3],[3,-1],[0,1],[-2,1],[-4,8],[-2,-1],[-1,1],[0,-1],[-1,-1],[-1,1],[-4,1],[0,1],[-1,3],[0,-2],[-1,2],[-1,-1],[0,2],[1,0],[-2,3],[-1,-1],[-2,1],[-2,3],[-2,-4],[-1,1],[-2,-1],[0,3],[-1,0],[1,1],[-2,0],[1,1],[-5,-1],[1,1],[-1,2],[1,1],[5,0],[-2,-1],[5,0],[1,1],[-2,0],[0,2],[-4,-1],[0,1],[-1,-1],[-1,1],[0,1],[6,3],[-1,3],[1,2],[-2,2],[1,-1],[-2,0],[0,1],[-9,-25],[-1,0],[7,17],[-2,-4],[-1,1],[-1,2],[2,0],[-1,1],[3,1],[-3,0],[-3,2],[0,2],[3,-1],[-1,1],[-1,4],[-3,-2],[0,1],[3,1],[1,-1],[-1,1],[2,1],[-3,9],[-5,11],[-1,1],[1,0],[0,0],[-1,0],[-5,9],[1,0],[1,1],[-2,-1],[-6,13],[-9,12],[-5,4],[-1,0],[0,1],[1,0],[0,1],[-5,2],[1,3],[0,-3],[4,-1],[-2,4],[1,2],[-3,2],[-1,3],[-2,-2],[2,2],[-1,5],[2,-1],[-2,0],[1,-1],[1,0],[2,1],[-2,1],[2,1],[5,1],[1,1],[0,0],[0,1],[0,1],[-2,-3],[-3,0],[-2,-1],[-1,-1],[-2,1],[-3,5],[2,0],[1,0],[-2,0],[0,2],[0,0],[-2,-1],[0,2],[-3,0],[1,-3],[1,-2],[-1,0],[0,-1],[2,-2],[-1,0],[1,-1],[0,-3],[-2,-2],[-2,7],[-9,12],[1,-1],[2,1],[0,1],[1,0],[1,0],[-2,0],[-1,-1],[-2,1],[0,0],[0,2],[1,0],[0,1],[1,1],[-1,-1],[-1,-1],[0,-2],[-7,7],[-2,1],[0,-2],[-1,-1],[1,2],[-2,1],[0,1],[1,0],[1,2],[2,0],[1,1],[1,0],[-1,0],[-1,-1],[-2,0],[-2,-2],[-1,-1],[-2,0],[0,4],[0,2],[1,0],[2,4],[-4,-5],[0,-3],[-1,2],[-1,1],[0,-2],[2,-2],[-3,1],[0,1],[-1,0],[1,1],[0,0],[-1,-1],[-2,2],[3,2],[-2,2],[0,2],[1,0],[1,1],[-2,-1],[-1,0],[2,4],[-2,-2],[-1,1],[0,0],[-2,0],[0,1],[1,1],[1,0],[-1,1],[2,1],[-1,1],[0,1],[1,1],[3,0],[1,0],[-4,1],[-1,-2],[0,3],[-3,0],[-1,1],[1,1],[1,0],[0,1],[-1,-1],[-2,-2],[0,1],[-2,0],[1,2],[-5,3],[2,2],[1,0],[1,0],[-2,0],[-2,-1],[-3,1],[2,0],[0,2],[0,1],[1,1],[-1,0],[0,1],[0,-2],[0,-1],[-1,-2],[-1,2],[-1,-1],[0,1],[-3,2],[-1,-1],[0,2],[-2,-1],[0,2],[0,-2],[-2,0],[-1,-3],[-2,-1],[-2,0],[-2,1],[-1,1],[1,0],[5,0],[0,4],[2,1],[0,2],[-1,-2],[-2,-1],[-1,-4],[-1,1],[-4,-1],[1,2],[1,0],[1,1],[-2,1],[0,1],[-2,-1],[-1,1],[0,-1],[0,0],[-2,1],[0,1],[5,5],[0,0],[0,0],[1,-1],[0,0],[0,0],[-1,1],[0,0],[0,1],[0,1],[3,1],[2,-1],[-2,1],[-5,-1],[0,-2],[-2,0],[0,0],[0,-1],[-1,0],[0,-2],[-1,0],[-1,-2],[-1,0],[-3,2],[0,1],[3,1],[1,2],[-1,3],[-1,2],[2,2],[2,0],[0,0],[1,1],[0,1],[2,1],[-2,-1],[-1,-2],[-2,0],[0,1],[0,0],[-3,-3],[2,-4],[-1,-2],[-2,-1],[-3,4],[1,1],[-1,-1],[0,1],[0,1],[0,-1],[-1,0],[-1,2],[-1,1],[0,1],[-5,2],[1,1],[-2,-1],[-2,2],[-1,2],[1,0],[0,1],[-1,-1],[-2,5],[4,3],[0,2],[-1,1],[1,0],[3,1],[0,0],[1,-1],[0,-1],[-1,3],[-3,-2],[-1,1],[0,-1],[0,-1],[1,0],[-1,-2],[-2,-1],[0,-1],[-2,0],[-1,3],[2,5],[-5,17],[-7,17],[1,2],[-2,-1],[-13,20],[0,2],[0,-1],[-3,3],[-3,3],[1,1],[-3,1],[-2,0],[0,1],[-2,1],[-1,0],[-9,4],[2,-1],[-1,-1],[-10,7],[-3,3],[0,2],[0,-2],[-6,5],[-1,2],[2,1],[0,0],[0,0],[0,2],[0,-2],[-2,-2],[-9,11],[-8,8],[-12,9],[-19,10],[-8,9],[-2,6],[-5,22],[7,2],[0,0],[0,0],[-4,-1],[0,1],[0,0],[-2,0],[-1,1],[1,10],[-3,18],[1,0],[1,1],[1,-1],[1,0],[0,0],[1,0],[-1,0],[-2,1],[-1,-1],[-1,3],[0,2],[1,-1],[1,1],[1,0],[-1,0],[3,1],[1,1],[-3,-1],[0,1],[-2,-2],[-1,2],[-3,14],[-11,29],[-4,22],[-9,24],[-22,35],[7,30],[1,11],[-1,7],[-3,9],[-2,5],[0,14],[-7,21],[-5,9],[-7,6],[-9,12],[-17,33],[-10,7],[2,0],[-6,2],[-9,0],[-3,-1],[-1,-3],[-6,3],[-3,0],[1,1],[1,-1],[1,1],[2,0],[2,1],[-1,0],[1,0],[0,-1],[4,1],[-1,1],[3,1],[-1,0],[0,4],[-4,-3],[-1,-2],[-1,0],[-1,-1],[0,1],[-2,-1],[1,1],[-1,0],[0,1],[1,-1],[1,1],[-3,1],[2,0],[-14,-1],[0,-3],[-2,0],[0,1],[-1,-1],[-4,-1],[0,-2],[4,1],[1,1],[1,-1],[1,2],[2,-2],[5,1],[-3,-1],[-14,-2],[-10,5],[0,1],[-3,2],[-2,6],[0,0],[1,-1],[1,4],[1,0],[-1,-5],[1,1],[0,-2],[2,-2],[2,1],[-1,-1],[5,5],[4,0],[3,3],[2,0],[1,-2],[0,0],[-2,3],[3,2],[4,4],[2,0],[2,4],[0,2],[-1,1],[1,1],[-1,1],[2,2],[-1,2],[-2,0],[0,2],[3,0],[-1,1],[2,1],[-1,3],[4,3],[-2,1],[2,2],[0,0],[0,-1],[-2,0],[-2,1],[2,0],[2,3],[-1,3],[-2,-1],[1,1],[-1,1],[-1,-1],[2,3],[-2,-1],[1,1],[-1,0],[1,0],[0,3],[3,0],[0,-4],[0,0],[1,2],[-1,0],[0,1],[2,1],[-1,8],[0,2],[-2,0],[0,2],[1,0],[-3,2],[1,0],[-1,1],[0,2],[2,1],[0,2],[-2,7],[-3,2],[0,-1],[-1,2],[-2,0],[1,2],[-2,1],[0,6],[-2,0],[-3,-4],[-1,1],[0,-3],[2,-1],[-1,-1],[-1,4],[-1,4],[0,2],[0,-2],[1,1],[1,0],[1,0],[-1,0],[-2,2],[1,4],[1,-1],[0,0],[0,1],[1,-1],[0,0],[-1,1],[-1,0],[-1,1],[1,0],[0,1],[0,0],[1,0],[0,0],[-1,0],[-1,-1],[0,3],[-2,2],[1,1],[-1,-1],[2,3],[1,-1],[0,1],[-2,7],[-1,0],[-2,2],[1,1],[-4,6],[-1,5],[-1,0],[-1,-1],[-4,3],[0,1],[1,1],[-2,2],[-3,1],[-1,-4],[4,-2],[-2,-1],[-2,0],[0,2],[-1,-1],[-1,0],[1,5],[0,4],[0,-4],[-3,2],[-1,0],[4,-3],[-3,0],[-1,-1],[0,1],[-2,1],[-1,4],[-2,0],[2,1],[1,-1],[1,1],[-2,2],[0,1],[1,0],[-1,1],[0,3],[-5,0],[-1,-2],[-1,1],[1,2],[9,-1],[3,0],[2,1],[-14,0],[2,3],[-2,-1],[1,2],[-1,2],[2,1],[0,0],[0,0],[1,0],[2,-2],[1,2],[-3,1],[0,2],[-1,-2],[-1,1],[-1,-1],[0,1],[-1,1],[-1,3],[-2,0],[0,2],[-2,3],[1,0],[-3,6],[-1,0],[-2,6],[-1,1],[0,-2],[-2,0],[1,2],[0,1],[-1,0],[0,1],[0,0],[0,0],[-1,-1],[-2,-1],[2,3],[0,-1],[1,1],[-4,3],[1,1],[-1,0],[1,0],[-3,3],[0,1],[-1,0],[0,1],[-1,0],[1,1],[-1,1],[2,0],[-1,1],[1,1],[-1,1],[-1,-1],[-1,3],[-3,-1],[-2,3],[-4,3],[1,3],[-2,0],[-1,4],[-3,1],[0,1],[1,1],[-1,0],[3,1],[0,2],[-1,-2],[-2,3],[-3,0],[0,-2],[-1,2],[-3,0],[1,-2],[0,0],[0,-1],[2,0],[-1,-3],[2,-1],[-1,-1],[-2,-2],[0,-2],[2,-1],[-2,-1],[2,-3],[0,-2],[-1,2],[-2,9],[1,4],[-2,3],[-12,9],[-10,6],[2,0],[0,1],[3,-1],[2,4],[-1,-2],[1,1],[2,-2],[3,2],[0,-1],[-2,-2],[1,0],[0,-1],[1,-2],[1,1],[0,-1],[3,0],[-1,-2],[1,-1],[1,2],[0,1],[2,-1],[0,2],[-3,1],[-2,-1],[3,4],[-1,0],[-2,-1],[-2,2],[2,1],[-2,-1],[0,2],[2,1],[-1,0],[-1,3],[-2,1],[-1,0],[0,-2],[-2,-1],[1,1],[-1,1],[-1,-4],[0,1],[-3,0],[0,2],[-1,-1],[-3,0],[0,8],[-1,1],[0,-1],[-1,1],[-2,-1],[-1,2],[-1,-1],[-1,1],[-2,-3],[-3,-1],[-1,0],[1,-1],[-1,-2],[-1,1],[-1,-1],[-1,1],[-1,-2],[-1,0],[2,0],[-2,-7],[1,-1],[-4,-3],[-1,-1],[-1,-1],[2,2],[0,0],[-4,-4],[2,2],[-6,-3],[-3,-5],[-3,-8],[1,-5],[0,1],[-1,-4],[1,4],[1,0],[-1,-4],[-3,-5],[-4,-3],[0,-1],[-2,-1],[1,1],[1,2],[-1,-1],[-1,1],[1,-1],[-7,-10],[-3,-2],[1,-4],[1,1],[-2,-3],[0,-3],[-1,-1],[-3,2],[-4,-2],[-4,-4],[-2,-1],[-1,-2],[1,-4],[-2,-3],[1,0],[0,-3],[1,-1],[-2,1],[-1,-1],[0,-4],[-3,-3],[1,-1],[-4,-1],[-4,-3],[-2,-3],[1,-3],[0,2],[1,0],[-2,-4],[1,-1],[-4,-5],[0,-1],[3,-1],[-3,0],[0,-6],[2,3],[-2,-5],[4,8],[1,0],[-3,-7],[2,5],[-2,-3],[0,-3],[-2,0],[2,0],[0,-2],[-1,0],[0,1],[-1,-2],[1,2],[-1,1],[-1,-3],[-3,-3],[-1,-3],[0,-2],[2,-1],[2,3],[-1,-6],[-1,0],[1,3],[-2,0],[-1,-5],[1,-2],[-1,-7],[1,-5],[0,4],[2,1],[-2,-9],[-1,-4],[1,5],[-7,-7],[0,-1],[1,-1],[1,1],[0,-1],[1,2],[1,0],[2,2],[1,-1],[-1,-3],[-7,-5],[-7,-2],[-7,-7],[-7,-9],[-6,-16],[1,-1],[-2,-12],[-2,-3],[-1,-3],[-1,0],[-1,-3],[1,-2],[-1,-1],[1,0],[-1,0],[1,-1],[-1,-4],[1,-1],[-2,-4],[3,-3],[1,0],[0,-3],[-1,0],[2,-2],[-1,-7],[0,-2],[-2,-5],[1,-4],[-1,-1],[2,-1],[-2,-3],[1,-1],[-1,-3],[-2,-3],[19,-2],[-1,-2],[-3,-3],[-7,-2],[0,1],[-1,0],[1,-1],[-2,-2],[-1,-5],[-1,4],[1,-5],[0,1],[2,-1],[2,-1],[-4,2],[2,5],[2,1],[4,1],[-1,-3],[4,0],[0,1],[1,-1],[4,-2],[-1,3],[0,3],[1,0],[3,1],[0,3],[-2,-1],[2,5],[1,-2],[-1,-10],[-1,-5],[2,-6],[1,2],[1,0],[0,4],[0,-1],[0,-2],[2,4],[-2,-9],[-2,-5],[0,1],[1,2],[-3,1],[0,-4],[-1,-1],[1,1],[1,-1],[-2,0],[0,-6],[1,-2],[-1,-1],[1,-1],[0,2],[1,0],[1,-3],[-1,-4],[-2,-1],[0,1],[-3,1],[1,1],[-1,-1],[1,-1],[-1,0],[0,-2],[1,3],[2,-1],[-1,-2],[2,0],[-1,-6],[-1,-1],[1,-4],[-1,-5],[-1,-2],[-1,1],[1,2],[-1,-1],[-1,0],[0,-1],[1,-1],[0,-1],[1,1],[-1,-1],[-5,1],[2,-1],[-3,0],[-1,-4],[2,1],[-1,-4],[-2,0],[1,-3],[1,-2],[-3,0],[0,0],[4,0],[3,-1],[-2,0],[-1,-6],[0,-1],[-2,1],[1,-1],[1,0],[-1,0],[-1,0],[-2,-10],[0,1],[-1,-1],[0,1],[-1,-2],[0,0],[0,-4],[2,4],[0,-1],[0,1],[-1,-4],[0,-2],[1,1],[-1,-1],[0,0],[-1,-1],[1,0],[-2,-4],[5,10],[1,4],[-1,-10],[-16,-20],[-15,-15],[-20,-16],[-36,-32],[-16,-20],[-17,-17],[-9,3],[-7,-19],[5,-1],[-2,-4],[1,-5],[1,-2],[-1,-1],[1,-1],[-8,-19],[-2,-8],[2,-8],[-2,-6],[-7,-14],[0,-7],[-6,-8],[-3,-7],[-3,-14],[1,-8],[-7,-8],[0,-3],[-4,-4],[-4,-8],[1,-4],[-4,-7],[0,-6],[1,-1],[1,-1],[1,-2],[-2,-3],[0,-2],[-2,-5],[2,-10],[0,-23],[-4,-16],[1,-4],[-1,-12],[1,-4],[1,-2],[-7,-14],[-2,-3],[0,-1],[-3,-8],[0,-4],[-2,-3],[1,-20],[2,-5],[4,-6],[9,-8],[10,-6],[21,-5],[-8,-12],[-1,-19],[-6,-7],[-1,-3],[-10,-7],[-5,-5],[0,-6],[-6,-16],[1,-4],[-9,-11],[2,-13],[2,-8],[1,-9],[1,-6],[-1,-4],[1,-9],[-4,-4],[-1,-4],[0,-11],[-5,-7],[-7,-19],[2,-6],[-5,-23],[1,-10],[-1,-7],[-7,-22],[2,-2],[-2,1],[1,-2],[-2,0],[1,-2],[-2,-2],[1,-1],[4,1],[-4,-2],[-2,1],[1,-1],[-3,-1],[0,-5],[0,-6],[4,-5],[0,-4],[-3,-7],[-8,-8],[-3,-9],[-2,-3],[-2,-4],[-12,-11],[-2,-4],[-11,-12],[-1,-5],[-8,-18],[-3,-21],[-7,-6],[-7,-11],[-9,-22],[1,-4],[-3,-9],[-9,-15],[-2,-6],[-4,-21],[1,-20],[3,-6],[9,-5],[-3,-4],[-16,-12],[-4,-9],[0,-6],[-5,-8],[-2,-9],[0,-12],[-5,-6],[-1,-5],[-4,-3],[-4,-7],[-5,-12],[-3,-10],[-7,-12],[-5,-15],[1,-2],[-10,0],[0,-6],[7,0],[-2,-2],[0,-7],[2,-14],[2,-6],[2,-2],[-1,-9],[2,-10],[-1,-6],[1,-10],[3,-7],[-1,-10],[-7,-6],[-7,0],[-17,4],[-12,-4],[-6,-2],[-4,-5],[-1,-2],[3,-5],[-1,-1],[-2,0],[-3,-1],[-2,0],[-3,3],[-2,-1],[1,0],[-5,0],[-6,-3],[0,-4],[-5,-5],[1,0],[0,0],[-2,-3],[2,1],[1,-2],[5,-4],[2,0],[-1,-1],[0,0],[0,0],[0,0],[0,0],[0,0],[1,1],[0,-1],[1,0],[0,1],[2,-1],[-2,1],[1,1],[0,0],[2,0],[0,1],[-2,1],[1,1],[1,0],[-1,-1],[1,0],[0,-1],[2,1],[2,-1],[-1,2],[-2,-1],[0,1],[0,1],[-1,-1],[0,1],[0,-1],[-1,0],[2,3],[-1,1],[2,0],[0,1],[1,0],[1,3],[-1,0],[0,0],[-1,1],[-1,0],[0,0],[-1,-2],[-1,2],[0,1],[1,1],[-2,0],[1,1],[-1,1],[3,0],[0,-4],[2,-1],[1,1],[-2,2],[1,1],[4,1],[1,-2],[2,0],[0,3],[1,-1],[3,0],[0,2],[1,-1],[1,-1],[12,-25],[12,-10],[4,-13],[-5,0],[-3,-4],[2,-7],[5,0],[1,0],[-3,-6],[-1,-1],[-4,-8],[0,-5],[0,-6],[21,-14],[2,-4],[-16,-8],[-6,-7],[-2,-4],[-13,-9],[-14,-5],[-21,-4],[-3,-3],[-14,-6],[-13,-11],[-4,-6],[-1,-3],[0,-5],[-1,-5],[-2,-3],[0,-2],[-1,-5],[-1,-2],[-6,-3],[-9,-1],[-2,2],[-2,-1],[-2,1],[-3,-2],[-2,1],[-3,-1],[-5,2],[-7,-1],[-1,2],[-8,-2],[-6,3],[-7,-3],[-2,2],[-5,4],[-2,4],[-6,3],[-2,0],[-3,1],[-4,5],[-3,0],[1,2],[-2,4],[-9,10],[-10,8],[-13,6],[-17,14],[-3,1],[-1,-1],[-1,0],[-2,2],[-5,2],[-9,7],[-22,13],[-27,5],[-8,-1],[-7,3],[-7,-1],[-5,-3],[-4,-5],[-6,-2],[-7,3],[-12,11],[-47,21],[-21,2],[-38,0],[-15,-7],[-8,-7],[-5,-3],[-5,-2],[-40,-21],[-32,-22],[-12,-17],[-5,-12],[3,-17],[1,-2],[-6,-2],[1,2],[-1,-2],[-10,-3],[3,0],[0,-3],[1,0],[0,-2],[3,3],[1,0],[2,1],[-7,-4],[-8,0],[-13,3],[-14,1],[-6,0],[-7,-6],[-12,6],[-10,1],[-12,6],[-8,0],[-7,3],[-3,0],[-9,0],[-29,-8],[-4,-5],[-3,-3],[-16,-9],[-5,-4],[-23,-27],[-1,-4],[-3,-4],[-4,-5],[-11,-16],[0,-3],[4,-5],[-4,-6],[0,-14],[-1,-1],[2,-6],[-1,1],[-2,-3],[-3,2],[-4,0],[-2,-1],[-1,-3],[-5,0],[-1,-1],[-1,-4],[-2,-1],[-1,-2],[-6,2],[-10,-4],[-5,0],[-2,-4],[-1,0],[-9,2],[-9,-4],[-2,-4],[-3,0],[1,1],[-1,1],[-3,-1],[1,-2],[-3,1],[-1,2],[-2,0],[1,1],[-1,1],[-2,0],[-1,-2],[-8,1],[0,1],[-3,1],[0,1],[-1,-1],[-2,2],[0,-1],[-1,1],[-2,0],[1,0],[-1,1],[-6,2],[-5,-1],[-10,-3],[-9,6],[-5,5],[-3,0],[-4,4],[-3,-1],[-10,5],[-3,0],[-2,2],[-7,2],[-8,-3],[-34,10],[-16,3],[-9,-2],[-20,1],[-21,-4],[-6,-4],[-7,-3],[-8,-9],[-3,-2],[-3,-3],[-5,-17],[0,-3],[4,-4],[-12,-1],[-6,-3],[-1,-4],[-2,-3],[-2,-8],[0,-2],[2,0],[-2,-6],[0,-2],[-12,0],[-10,-1],[-5,-2],[-4,-2],[1,-2],[-4,-6],[2,-3],[-3,-4],[2,-6],[-1,-2],[-1,1],[-1,-2],[-6,3],[-3,-1],[-10,-2],[-4,-2],[-1,1],[-1,-2],[-1,-1],[-2,1],[-3,0],[-11,-3],[-9,2],[-10,0],[-5,-5],[1,-8],[-2,-1],[-1,0],[0,-2],[-4,-2],[0,-2],[-1,-1],[-2,-1],[-1,1],[0,1],[-2,0],[0,2],[-1,-2],[-2,1],[-1,-2],[-2,0],[0,-2],[-1,-2],[-3,6]],[[5110,5645],[1,-7],[10,1],[-5,9],[-2,-2],[-4,-1]],[[5222,6324],[-1,-3],[3,-4],[5,-2],[4,11],[-5,2],[-2,-2],[-4,-2]],[[5789,8356],[-10,0],[0,-3],[10,-1],[0,4]],[[6506,5812],[-6,0],[1,-4],[4,2],[1,2]],[[6449,5852],[-8,-5],[-2,-5],[-4,-4],[-5,-2],[-4,0],[-5,-2],[5,-10],[0,-4],[4,-6],[0,-5],[-2,-3],[2,-2],[5,2],[1,5],[-1,12],[0,5],[-1,4],[1,4],[4,3],[18,8],[-5,10],[-3,-5]],[[6442,5957],[-5,1],[-3,3],[-1,14],[-16,-1],[30,-31],[2,1],[-1,13],[-6,0]],[[6289,6702],[16,-1],[4,2],[4,0],[1,12],[-5,-1],[-3,2],[-4,0],[-9,1],[-1,-6],[-3,-4],[0,-5]],[[6349,7705],[-8,-2],[0,-5],[9,3],[-1,4]],[[6025,7756],[-5,1],[0,-3],[3,-1],[2,3]],[[6348,4766],[6,-2],[18,1],[0,7],[1,4],[4,3],[7,1],[3,4],[-5,1],[-9,6],[-3,3],[-3,-3],[-4,-3],[-7,-7],[-7,-2],[-2,-6],[1,-7]],[[6498,4780],[5,-1],[1,3],[0,5],[-3,-2],[-4,-1],[1,-4]],[[6275,8063],[-7,0],[-4,-1],[3,-5],[8,0],[0,6]],[[5995,8081],[-8,-2],[7,-12],[5,4],[2,4],[-6,6]],[[6555,5141],[0,-10],[-2,-4],[0,-9],[11,0],[-3,6],[2,5],[3,2],[5,1],[7,4],[2,2],[1,3],[-11,0],[-7,4],[-3,-3],[-5,-1]],[[6764,5947],[-7,-17],[3,-4],[2,-7],[-3,-17],[-4,-4],[-5,-1],[0,-6],[-8,-11],[17,-12],[12,17],[-2,3],[-1,4],[3,9],[2,9],[4,4],[-2,9],[1,5],[3,3],[4,1],[4,-1],[3,-3],[3,1],[1,1],[1,4],[3,3],[3,1],[6,0],[-7,6],[-12,1],[-4,4],[-9,3],[-2,3],[-1,11],[-7,-7],[-1,-12]],[[6580,8322],[5,1],[1,4],[-3,-1],[-4,0],[-3,1],[-3,4],[-3,-2],[-6,0],[0,-3],[11,0],[3,-2],[2,-2]],[[6867,4366],[4,-4],[5,4],[-9,0]],[[6825,4390],[-4,-7],[2,-1],[2,8]],[[6819,4366],[3,-1],[3,-2],[-1,3],[-2,3],[-3,-3]],[[6784,6038],[0,2],[-1,0],[-3,-7],[6,-1],[-2,6]],[[6769,6001],[0,-4],[1,0],[3,23],[-9,-13],[3,-3],[2,-3]],[[6872,6184],[9,3],[-1,4],[-5,-5],[-3,-2]],[[6995,4813],[-5,-5],[0,-4],[-3,-4],[-5,-3],[-6,0],[-1,-2],[4,-2],[2,-3],[5,2],[4,5],[16,8],[-2,3],[-7,11],[-2,-1],[0,-5]],[[7514,5035],[-2,-4],[-6,-2],[-1,-4],[-4,-2],[0,-4],[16,6],[5,0],[10,-7],[6,-9],[1,-4],[15,-4],[4,1],[11,13],[-6,3],[-5,4],[-3,6],[-4,0],[-5,3],[-5,7],[0,7],[-4,-2],[-10,2],[-5,4],[-8,2],[-3,-1],[1,-6],[3,-5],[-1,-4]],[[7570,5054],[2,-6],[3,0],[5,5],[-6,6],[-1,3],[2,4],[-5,1],[-11,-2],[5,-6],[1,-3],[5,-2]],[[7584,5388],[8,14],[-13,4],[-8,6],[-1,-2],[13,-17],[1,-5]],[[6972,5933],[-3,2],[0,-4],[1,-1],[7,1],[-1,2],[-4,0]],[[7090,6064],[5,3],[3,-1],[5,14],[-9,3],[-1,-6],[-11,-12],[4,-1],[4,0]],[[7204,6096],[-3,-6],[-2,-3],[0,-5],[7,1],[11,4],[5,-1],[4,4],[-3,3],[-6,18],[1,4],[3,3],[0,3],[-5,2],[-5,-19],[-3,-3],[-4,-1],[0,-4]],[[7121,6163],[-2,-5],[12,-4],[7,5],[6,0],[8,1],[3,7],[-12,4],[-17,-5],[-5,-3]],[[7025,6385],[6,-3],[4,-4],[4,8],[-9,5],[-3,-4],[-6,0],[-1,-3],[5,1]],[[5523,8106],[-2,-6],[5,-9],[-2,-4],[-5,4],[-2,9],[2,4],[4,2]]],"transform":{"scale":[0.0006913238888805844,0.0005829664879533005],"translate":[134.06081503206602,-38.06007424542354]},"objects":{"SA-bushfire_prone":{"type":"GeometryCollection","geometries":[{"arcs":[[[0]],[[1]],[[2]],[[3],[4]],[[5]],[[6],[7],[8],[9],[10],[11],[12],[13]],[[14]],[[15]],[[16]],[[17],[18],[19],[20]],[[21]],[[22]],[[23],[24]],[[25]],[[26]],[[27]],[[28]],[[29]],[[30]],[[31]],[[32]],[[33]],[[34]],[[35]],[[36]],[[37],[38],[39],[40],[41],[42],[43],[44],[45],[46],[47],[48],[49],[50],[51],[52],[53],[54],[55],[56],[57],[58],[59],[60],[61],[62],[63],[64],[65],[66],[67],[68]],[[69]]],"type":"MultiPolygon","properties":{"layer":"bushfire_prone"}}]}},"properties":{"layer":"bushfire_prone","state":"SA","source":"Planning and Design Code overlays Hazards (Bushfire) High/Medium/General/Urban Interface (PlanSA)","licence":"CC-BY-3.0-AU","asOf":"2026-09-23","simplify":"100%"}}