{"type":"Topology","arcs":[[[34895,3530],[-328,72],[-253,28],[-431,-26],[-337,-58],[-490,-147],[-247,-412],[-667,65],[-94,-6],[-399,170],[50,154],[-165,161],[-21,165],[-388,238],[-486,200],[-314,239],[-197,100],[-226,169],[-202,101],[-411,274],[-40,68],[-220,162],[-305,307],[-81,183],[-524,142],[-189,10],[-74,52],[-230,13],[-211,66],[-124,92],[6,306],[-295,303],[-211,48],[-166,78],[-236,179],[-28,102],[-218,156],[-223,106],[-222,69],[-229,145],[-165,67],[-62,134],[162,132],[-65,184],[-580,188],[-554,32],[-209,123],[-172,169],[-192,24],[-119,177],[-138,122],[17,116],[-49,125],[46,74],[-8,58],[-86,112],[-143,91],[3,54],[-66,114],[-191,103],[-12,102],[-136,111],[38,160],[173,209],[-116,80],[-142,220],[-89,267],[12,133],[97,125],[214,17],[234,142],[75,312],[-132,196],[-414,242],[-272,-33],[-349,62],[-348,154],[5,191],[-174,682],[-112,37],[-137,-5],[-205,50],[-202,84],[-62,65],[-44,153],[-122,137],[-328,229],[-213,109],[-176,158],[125,164],[278,155],[42,49],[131,344],[82,123],[354,266],[42,146],[-8,138],[229,103],[101,76],[186,156],[224,257],[-113,142],[-79,245],[-66,409],[-116,221],[-19,155],[-54,113],[71,368],[-95,163],[104,160],[-127,207],[58,86],[33,216],[-74,262],[10,181],[42,147],[318,236],[365,162],[122,148],[56,121],[293,290],[-78,198],[244,488],[-66,170],[-272,187],[-382,484],[-197,34],[-386,-59],[-181,27],[-178,673],[-200,241],[-137,456],[-87,151],[-370,317],[-5,171],[54,265],[659,415],[-25,256],[-275,463],[-196,256],[-189,112],[-151,170],[-90,175],[-269,165],[-195,90],[-515,172],[-385,63],[-65,47],[-576,-659],[-253,-158],[-38,-227],[-106,-303],[-186,-267],[-161,-187],[-123,-104],[-13,-147],[-231,-116],[-225,37],[-270,-279],[428,-414],[113,-205],[-112,-257],[-302,-221],[9,-143],[-162,-578],[-204,-191],[-202,-93],[-109,-336],[56,-170],[220,-433],[-184,-199],[-270,-209],[-360,-107],[-305,66],[-127,228],[185,732],[-321,293],[-92,18],[-391,-32],[-227,46],[-118,-17],[-290,71],[-170,130],[-213,55],[-291,184],[-318,138],[-199,138],[-178,166],[-458,299],[-176,182],[-98,285],[-158,237],[-36,185],[-224,120],[-217,244],[-187,576],[-180,192],[-312,113],[-147,30],[-235,111],[-175,417],[-285,183],[-303,100],[-728,-147],[-239,15],[-145,93],[-65,101],[-172,25],[-303,110],[-202,215],[-322,194],[-179,-2],[-386,250],[-263,83],[-189,125],[-149,24],[-291,123],[37,76],[-57,104],[-475,284],[14,81],[-78,65],[-275,150],[-2,75],[-77,64],[-81,173],[-271,421],[46,81],[102,89],[45,82],[281,322],[-38,73],[3,72],[55,59],[-56,114],[36,159],[162,43],[139,324],[535,530],[149,284],[26,95],[-22,62],[74,106],[64,283],[-48,94],[-12,165],[-115,213],[-21,103],[60,377],[158,228],[-10,42],[-168,82],[-171,144],[10,77],[-249,91],[-167,183],[-343,256],[-168,94],[-113,-52],[-370,-109],[-106,26],[-106,248],[16,83],[-51,56],[-298,69],[-142,72],[-253,58],[-122,-19],[-435,3],[-480,17],[-292,41],[-78,57],[-144,187],[140,222],[-38,237],[-158,37],[-259,-16],[-286,162],[-158,165],[271,207],[220,-47],[135,47],[58,121],[-52,195],[86,266],[-113,70],[-62,93],[780,449],[94,16],[663,440],[212,279],[202,124],[75,167],[-53,140],[-115,147],[-270,29],[-44,132],[-132,161],[-22,152],[182,291],[-38,344],[-127,181],[-85,180],[-141,174],[-306,224],[-581,288],[-169,166],[-162,234],[-279,268],[-75,130],[106,78],[309,88],[188,83],[57,133],[125,110],[54,123],[149,74],[619,177],[775,155],[121,251],[571,361],[202,288],[-89,241],[-67,40],[-91,130],[-176,334],[-573,156],[-62,127],[-8,136],[-243,176],[-46,77],[-526,481],[-303,339],[-256,209],[-110,188],[898,556],[-90,637],[-90,178],[-202,260],[-115,78],[-33,173],[-317,546],[-295,195],[-229,230],[-97,246],[70,220],[-7,494],[32,151],[113,211],[0,81],[101,67],[61,136],[80,232],[9,185],[-421,404],[-267,218],[-52,201],[56,240],[-81,177],[-97,629],[54,243],[-39,177],[-152,149],[363,338],[-72,146],[-430,234],[-133,275],[-17,226],[26,226],[-62,218],[-175,170],[-26,146],[280,467],[113,131],[576,272],[179,111],[170,9],[552,217],[12,134],[-236,304],[-347,331],[-97,198],[51,376],[-197,162],[-188,238],[-213,165],[-18,523],[70,222],[303,77],[196,138],[235,46],[185,134],[-28,190],[120,218],[199,195],[36,211],[168,145],[-131,98],[-83,161],[-139,155],[-121,278],[255,441],[-39,253],[78,294],[465,235],[158,319],[256,299],[120,241],[417,84],[100,44],[136,100],[40,154],[327,361],[245,133],[-50,62],[-39,146],[-117,215],[205,146],[4,130],[67,182],[-64,209],[130,129],[66,167],[-213,108],[-254,84],[-152,175],[-83,277],[3,231],[287,52],[129,44],[681,106],[446,38],[98,54],[32,80],[-16,133],[44,139],[-87,178],[49,127],[-70,172],[61,210],[-41,262],[-18,451],[170,168],[435,190],[674,182],[182,227],[8,249],[205,136],[414,202],[-5,220],[-265,169],[-267,52],[-119,161],[-84,192],[15,129],[-42,152],[4,223],[59,255],[-9,123],[32,134],[208,287],[-5,114],[-121,57],[-259,191],[-293,77],[-126,123],[9,180],[-191,162],[-467,78],[160,214],[160,149],[88,173],[26,114],[-18,386],[-89,281],[-293,226],[-228,573],[-315,370],[136,125],[143,214],[385,343],[136,222],[516,375],[91,452],[-31,161],[-165,335],[287,254],[102,223],[41,167],[257,268],[325,483],[74,68],[26,79],[279,217],[73,86],[11914,5556],[4922,-501],[24,-30],[-122,10],[8,-393],[-106,-269],[-102,-513],[-251,-245],[-197,-106],[-540,-494],[-208,-279],[-295,-130],[-253,-299],[-23,-229],[-289,-503],[-406,-440],[419,-81],[8,-27],[701,88],[474,170],[597,84],[188,178],[573,-28],[432,-46],[-67,-108],[809,-536],[345,-46],[248,2],[175,55],[326,-45],[326,43],[181,-14],[258,-360],[494,-61],[41,-28],[198,-45],[56,-117],[179,-59],[305,-30],[664,263],[298,-292],[14,-110],[123,-51],[13,-80],[135,-118],[92,-168],[-45,-37],[-66,-15],[29,-63],[94,27],[45,37],[10,80],[-171,213],[-56,110],[-148,110],[-24,72],[-310,309],[247,76],[239,-48],[195,-13],[192,76],[84,11],[194,-21],[206,-82],[157,2],[4,-27],[-182,-274],[265,-147],[629,-248],[65,-21],[103,66],[39,-38],[-108,-67],[-58,-113],[-136,-159],[-49,-118],[3,-68],[58,-53],[23,-69],[90,-46],[142,-179],[1,-97],[-59,-134],[-232,-117],[-17,-56],[-388,-98],[-183,-105],[-20,17],[93,55],[-15,30],[-481,40],[-3,-20],[466,-23],[25,-22],[-98,-48],[-52,54],[-59,18],[-297,-5],[1,-49],[-27,-13],[252,8],[80,-29],[0,-29],[-11,-30],[-123,19],[-137,-4],[-88,-30],[-56,-95],[-34,-147],[56,-110],[113,-125],[241,-144],[-38,-38],[-413,-137],[215,-271],[33,-92],[139,-168],[29,-83],[112,-84],[94,-135],[157,-151],[316,-240],[137,-186],[40,-337],[146,-222],[-87,-31],[-64,75],[-66,159],[-81,365],[-56,107],[-69,100],[-419,336],[-216,231],[-245,364],[-121,119],[-109,154],[-124,222],[-95,253],[-59,-36],[22,145],[-138,11],[-41,-19],[-31,-42],[22,-152],[-111,-94],[-466,-115],[-126,15],[-81,108],[-242,41],[-31,14],[-17,47],[156,76],[158,-7],[59,27],[-74,104],[5,38],[66,38],[92,6],[69,57],[17,73],[-34,191],[-787,83],[-37,-10],[-168,64],[-64,61],[-139,6],[-43,51],[-201,55],[-139,74],[-66,-53],[-98,25],[-111,-7],[-181,156],[-26,102],[45,34],[-134,-2],[-32,-40],[-108,-40],[-69,34],[10,38],[40,22],[225,55],[38,62],[89,51],[17,40],[-184,-2],[-68,88],[201,119],[-141,-8],[-125,113],[-30,-94],[-191,-168],[-47,83],[-133,43],[-51,-64],[-62,12],[-143,-32],[-104,51],[-91,17],[45,93],[-78,12],[-60,58],[97,123],[-39,22],[12,57],[95,79],[-126,-6],[-30,42],[49,68],[20,198],[27,44],[-148,-119],[-64,-26],[-23,-72],[-118,-43],[5,-107],[-60,-47],[-44,-13],[-130,73],[-25,-59],[-136,-2],[-55,42],[-60,-6],[-76,31],[29,139],[-119,68],[37,72],[110,56],[-11,56],[-50,-36],[-97,1],[-111,60],[-66,8],[-52,-17],[-57,77],[-50,-72],[8,-39],[166,-22],[34,-20],[19,-45],[-60,-96],[77,-83],[-19,-23],[-195,-73],[-146,5],[66,-69],[-46,-70],[221,32],[57,-9],[107,-92],[-24,-44],[-143,-115],[-125,2],[-100,-39],[-11,-16],[80,-103],[-70,-77],[-26,-110],[-41,-26],[-99,21],[-139,-179],[-52,-1],[-154,62],[-89,-1],[-104,-38],[-112,31],[-27,-6],[60,-40],[84,-19],[87,13],[64,-47],[71,-182],[-46,-48],[81,-70],[24,-84],[-44,-3],[-106,-60],[-83,-86],[-227,-28],[17,-47],[-51,-41],[95,-49],[-19,-85],[26,-29],[-90,-52],[-60,-90],[-39,6],[-57,70],[-65,1],[17,37],[-31,75],[-188,-7],[-80,57],[-18,-71],[-125,-104],[123,20],[127,-25],[74,-121],[-32,-86],[316,-21],[36,-26],[-138,-185],[-157,-93],[30,-76],[-116,-169],[-25,-128],[55,-114],[-67,-125],[40,-6],[11,-53],[-11,-129],[-67,-50],[30,-23],[-5,-57],[-210,-135],[-189,-40],[-108,-66],[-141,-155],[-16,-86],[-161,-169],[-216,-27],[-108,-42],[-81,1],[32,-62],[-24,-85],[-107,-107],[-48,-104],[-94,-40],[-57,-1],[-59,51],[-76,29],[-298,302],[-24,57],[-129,86],[-7,148],[102,81],[-19,7],[22,31],[-13,17],[-18,-33],[-9,45],[-129,-168],[44,-155],[87,-64],[51,-102],[116,-102],[168,-215],[113,-101],[140,-2],[109,49],[88,75],[55,85],[97,59],[83,156],[193,54],[17,-23],[113,76],[188,179],[-1,55],[198,171],[131,50],[89,14],[36,-11],[207,92],[94,92],[96,2],[-2,22],[-96,47],[32,211],[80,54],[69,13],[17,87],[-38,36],[16,61],[-51,152],[26,83],[234,225],[77,23],[86,-7],[14,112],[45,52],[200,91],[78,206],[142,79],[-141,-2],[0,75],[38,72],[77,33],[86,9],[66,44],[150,3],[-11,69],[-75,18],[-18,26],[-116,17],[-11,55],[25,43],[61,16],[19,57],[109,63],[35,49],[134,58],[12,104],[114,44],[11,-45],[-145,-304],[-8,-242],[-110,-302],[-122,-89],[-65,-258],[-302,-206],[-458,-167],[112,-202],[-64,-176],[228,-389],[-6,-337],[-192,109],[-104,139],[-136,-37],[25,-59],[-179,-89],[-316,-75],[-109,-309],[-55,-96],[-111,-73],[-394,-53],[-157,-1],[238,-264],[205,-72],[-191,-162],[-480,-253],[-235,-192],[-135,-30],[-514,-317],[-45,-81],[-225,-82],[23,-302],[155,-182],[21,-137],[219,-151],[-99,-96],[71,-182],[-256,-359],[-86,-68],[43,-148],[-208,-256],[-140,-294],[188,-211],[373,-175],[154,-11],[189,49],[130,81],[297,-34],[340,-117],[152,-192],[102,-77],[209,-49],[201,-117],[242,-60],[144,-91],[199,-70],[47,-59],[614,51],[11,-102],[-133,-143],[8,-77],[-74,-120],[51,-186],[97,-143],[178,-88],[131,-116],[2,-156],[-347,-155],[65,-72],[18,-105],[-110,-15],[-105,-89],[-21,-64],[-134,-63],[-109,-82],[-43,-98],[-80,-78],[96,-147],[-68,-167],[-182,-138],[-23,-173],[152,-70],[138,36],[712,113],[238,9],[392,-24],[-41,-63],[61,-52],[70,-138],[-59,-73],[55,-122],[-10,-205],[-37,8],[-46,-55],[-167,-71],[-102,-69],[150,-92],[-109,-352],[37,-86],[157,-117],[-18,-107],[95,-139],[130,-294],[-53,-127],[65,-26],[-123,-321],[1583,-192],[-276,-1024],[-68,7],[-4,-23],[-1535,176],[6,23],[-1380,158],[-218,-31],[-45,-86],[-114,-109],[-301,-29],[-320,-145],[-271,-322],[-15,-180],[22,-63],[-90,-77],[-48,-81],[-222,-3],[-216,-337],[-6,-154],[98,-145],[11,-142],[-142,-251],[-8,-121],[158,-80],[41,2],[272,114],[210,53],[837,-333],[279,-514],[274,-795],[676,-74],[94,31],[98,2],[147,-38],[48,13],[9,27],[205,6],[75,20],[77,59],[196,68],[0,77],[-103,33],[-65,62],[53,68],[217,8],[65,42],[-9,60],[-104,132],[-10,107],[87,86],[25,59],[-53,163],[-12,146],[139,84],[86,-60],[80,-21],[166,19],[32,91],[-95,24],[-25,33],[193,373],[202,37],[9,54],[152,176],[177,-42],[578,-12],[286,-107],[632,-130],[166,-6],[471,95],[226,25],[631,-11],[341,-46],[-123,-463],[165,-235],[56,-161],[-22,-235],[-40,-102],[-195,-105],[85,-129],[357,-156],[24,-193],[184,-115],[293,-124],[176,-141],[61,17],[49,-70],[-45,-143],[169,-377],[198,58],[380,211],[-72,-271],[1285,-149],[-147,-174],[-89,-67],[-137,-50],[-415,-64],[-142,-52],[-128,-91],[-171,-182],[-94,-51],[-114,-30],[-650,-75],[-150,-46],[-151,-78],[-143,-133],[-138,-297],[-96,-108],[-118,-73],[-577,-248],[-95,-70],[-43,-68],[-12,-84],[68,-188],[-73,-65],[-222,-1],[-245,-38],[-679,127],[-160,60],[-269,227],[-118,23],[-123,-36],[-46,-55],[-26,-165],[-39,-60],[-389,-237],[-39,-58],[51,-88],[190,-53],[47,-30],[32,-199],[-42,-82],[-300,-147],[-54,-61],[35,-77],[203,-76],[70,-72],[-6,-67],[-178,-227],[-103,-81],[-132,-42],[-358,-18],[-418,-52],[-609,-254],[-109,-98],[-119,-222],[-136,-133],[-81,-139],[-93,-90],[-143,-328],[35,-80],[98,-34],[76,6],[214,78],[91,-1],[123,-31],[76,-53],[226,-287],[216,-101],[200,-143],[240,-107],[85,-61],[47,-75],[3,-99],[-200,-401],[-74,-94],[-190,-133],[-161,-61],[-147,-30],[-548,889],[-702,-311],[-58,-75],[40,-818],[-575,-113],[-355,-150],[-432,-114],[-131,16],[420,-392],[201,-110],[222,-160],[95,-115],[-106,-94],[-113,-78],[-241,-27],[-99,-103],[-388,18],[-242,-36],[-199,-104],[-99,-155],[-171,-79],[-352,-114],[-579,-29],[1,-101],[81,-107],[83,-265],[-10,-189],[-403,-247],[-264,-87],[-382,-27],[-64,-154],[-159,31],[-129,2],[-108,-26],[-260,-143],[-79,-111],[-195,-4],[-189,-58],[-272,-214],[-63,-202],[-141,-130],[-318,-181],[-202,-46],[-188,-85],[-273,-61],[-114,-72],[-102,-125],[-19,-268],[-123,-177],[-144,-35],[-22,-75],[-173,-26],[-46,-73],[95,-139],[-12,-230],[-184,-137],[-79,-106],[-12,-142],[76,-203],[-151,-124],[-8,-120],[102,-157],[-66,-140],[109,-146],[-47,-113],[8,-166],[94,-152],[-8,-160],[136,-50],[147,-19],[290,-142],[37,-89],[205,-80],[168,-198],[77,-41],[59,-113],[-116,-47],[-93,-99],[-25,-139],[-272,-271],[-14,-106],[-85,-131],[28,-45],[-17,-95],[-97,-244],[46,-70],[457,-346],[53,-110],[222,39],[148,-63],[79,-89],[-100,-75],[-263,-102],[-61,-50],[-109,-188],[-94,-85],[-70,-20],[-99,-99],[-119,-54],[11,-44],[240,-163],[36,-113],[80,-110],[188,-63],[116,-295],[97,-86],[163,-59],[504,-59],[211,-6],[134,-29],[83,-49],[101,-132],[-324,-154],[-16,-81],[-257,-307],[-170,-96],[-182,-58],[-492,-48],[-531,-105],[292,-16],[224,-122],[212,-68],[434,13],[149,-405],[97,-88],[369,-73],[190,-95],[225,7],[286,-57],[-48,-301],[211,-274],[154,-111],[-765,-255],[-739,71],[-201,45],[-165,88],[-305,-68],[19,-98],[-52,-39],[-238,-73],[9,-124],[-164,-164],[-96,-23],[167,-123],[50,-87],[-5,-90],[69,-130],[-21,-33],[-177,-55],[289,-173],[4,-287],[116,-93],[287,-91],[12,-61],[-48,-99],[-129,-105],[-310,-372],[83,-109],[245,-99],[299,-33],[237,-59],[439,-290],[-68,-259],[-117,-181],[122,-205],[693,-687],[16,-220],[-54,-219],[24,-80],[373,-288],[109,-209],[155,-158],[77,-146],[287,-164],[138,-54],[413,-48],[142,-89],[125,-113],[-66,-34],[58,-162],[465,-542],[79,-78],[388,-191],[-46,-50],[-116,-62],[-762,-309],[-677,-330],[-204,-116],[-132,-136],[-19,-85],[48,-57],[-65,-71],[-279,-156],[-40,-58],[426,-139],[144,-82],[-192,-323],[-103,-247],[8368,-909],[569,2166],[83,-27],[25,-34],[110,-11],[-59,-37],[-9,-34],[120,-46],[70,-58],[141,-11],[74,-72],[5,-84],[-47,-25],[53,-68],[-102,-56],[-108,-27],[-3,-37],[300,-233],[181,-22],[98,-42],[-13,-49],[-59,16],[13,-30],[-91,-1],[-43,-29],[63,-7],[-1,-33],[94,-12],[21,-38],[270,-167],[29,-45],[198,-47],[147,-196],[268,-142],[53,-73],[99,-73],[157,-65],[48,-47],[-33,-60],[107,-56],[30,-57],[157,-24],[106,-60],[-48,-166],[106,-54],[106,-10],[-884,-3644],[-92,9],[-453,-1873],[5307,-582],[11,52],[791,-94],[256,957],[663,-75],[-57,-333],[83,-141],[74,-205],[38,-218],[115,-120],[224,-74],[75,-83],[-10,-239],[-61,-240],[28,-281],[45,-186],[150,-186],[-36,-241],[36,-423],[-57,-113],[-178,-202],[-42,-85],[-67,-301],[33,-399],[-144,-301],[57,-294],[-113,-275],[-151,-243],[-44,-134],[23,-148],[119,-272],[-35,-117],[-16,-323],[54,-159],[-96,-362],[31,-449],[-8,-439],[210,-511],[78,-47],[253,-13],[154,-69],[134,-159],[138,-267],[143,-144],[107,-311],[209,-348],[-9,-190],[33,-286],[79,-225],[189,-328],[21,-130],[-101,-393],[-453,-308],[-101,-170],[-35,-113],[13,-394],[52,-357],[-123,-440],[152,-369],[-46,-294],[48,-136],[-18,-51],[-67,-51],[-359,-154],[-365,-213],[-231,-56],[-404,1],[-541,-310],[-242,-67],[-101,-83],[-141,-193],[-467,-168],[-150,-101],[-116,-163],[39,-157],[-57,-221],[34,-13],[59,227],[-40,161],[112,154],[139,94],[447,156],[250,279],[254,77],[526,304],[90,11],[271,-16],[311,73],[347,206],[360,155],[73,57],[21,73],[-47,107],[45,329],[-150,353],[123,439],[-52,358],[-11,403],[51,138],[98,142],[431,285],[106,393],[-21,151],[-194,340],[-73,212],[-33,282],[9,194],[-210,353],[-98,293],[-159,167],[-141,275],[-126,149],[-141,70],[-270,19],[-72,37],[-179,410],[-40,170],[18,384],[-30,426],[94,347],[0,62],[-54,110],[15,304],[37,133],[-119,283],[-24,140],[63,168],[134,205],[112,277],[-60,270],[21,91],[128,236],[-33,422],[66,278],[275,389],[-35,457],[37,218],[-21,53],[-127,135],[-48,188],[-26,277],[58,231],[3,275],[-56,62],[-247,88],[-91,82],[-45,228],[-77,216],[-76,116],[-6,66],[54,287],[867,-97],[366,1367],[-511,58],[20,37],[-16,59],[-98,66],[-306,19],[-431,126],[-246,392],[-49,288],[349,36],[-20,63],[91,39],[-5,38],[-47,31],[-5,111],[87,89],[252,-9],[161,-115],[145,21],[-29,167],[15,72],[440,570],[166,144],[44,6],[74,-44],[57,3],[86,35],[136,108],[11,70],[-29,72],[-189,171],[25,144],[-41,109],[-364,511],[28,82],[130,147],[-56,277],[-149,304],[63,254],[-59,85],[-103,62],[-115,185],[3501,-367],[230,923],[350,-34],[249,912],[1551,-254],[56,87],[191,91],[298,189],[170,245],[209,23],[217,159],[188,58],[151,93],[41,65],[-10,72],[269,-84],[47,-102],[238,-59],[272,-12],[1986,-211],[589,-34],[182,-28],[364,-116],[113,16],[521,-5],[159,-50],[851,-77],[8,-128],[36,-53],[72,-60],[207,-99],[24,-54],[-130,-284],[-51,-219],[232,-174],[63,-88],[21,-104],[-24,-227],[-159,-226],[-57,-237],[-43,-42],[-101,-50],[-479,-147],[-51,-38],[-29,-84],[83,-159],[1,-193],[39,-181],[-72,-411],[263,-278],[71,-136],[-27,-112],[-208,-262],[-50,-141],[19,-80],[41,-46],[193,-96],[55,-50],[82,-387],[-31,-172],[-243,-386],[122,-121],[85,-188],[149,-110],[-40,-290],[-72,-141],[8,-83],[47,-97],[231,-191],[-92,-259],[67,-116],[-109,-107],[-35,-76],[71,-357],[187,-167],[-45,-84],[-189,-115],[-66,-219],[-201,-158],[-71,-100],[-111,-202],[-1,-289],[-141,-181],[-68,-122],[-12,-82],[-2990,355],[-544,-1856],[-795,98],[-465,35],[-66,36],[-376,7],[-56,29],[-158,14],[-194,58],[-238,23],[-45,95],[-57,14],[-103,81],[-510,116],[-283,-8],[-1119,-414],[58,-301],[93,-256],[-11,-199],[-123,-257],[-294,-235],[-135,-139],[-88,-251],[11,-213],[-110,-257],[-147,-169],[-22,-102],[56,-132],[-66,-133],[-41,-784],[-181,-170],[-372,-456],[-54,-242],[-124,-206],[-34,-184],[172,-204],[48,-412],[70,-234],[722,-160],[421,-52],[572,-1276],[31,-228],[144,-339],[-225,-821],[30,-311],[135,-304],[10,-83],[-78,-128],[-12,-203],[-113,-235],[33,-66],[1243,-144],[386,-53],[243,-60],[157,180],[117,36],[168,143],[131,201],[-192,126],[-69,12],[-11,-33],[-97,-7],[-111,14],[-28,19],[1,152],[229,54],[-22,19],[28,88],[-69,168],[-62,49],[-100,31],[-53,74],[182,120],[260,234],[124,154],[152,119],[4,31],[236,177],[296,175],[37,75],[154,145],[1,62],[-77,69],[1136,-124],[99,254],[100,151],[28,107],[-107,11],[336,1302],[107,-15],[149,91],[141,20],[144,80],[283,69],[106,6],[175,-42],[152,36],[107,50],[83,112],[244,141],[3543,-375],[-20,-88],[40,-189],[-104,-48],[-143,-141],[76,-102],[-228,-271],[-32,-191],[142,-181],[72,-208],[-22,-274],[-94,-71],[-44,-98],[-4,-231],[-229,-123],[-36,-70],[92,-242],[57,-59],[3,-66],[69,-3],[318,-110],[-125,-306],[194,-234],[33,-116],[-54,-182],[-132,-153],[-249,48],[-695,-219],[-391,-4],[-59,-90],[-149,-114],[-175,-55],[54,-258],[-121,-76],[-256,-40],[-223,-384],[8,-120],[-177,-245],[-472,-209],[-110,-198],[-217,-213],[-13,-119],[-65,-138],[-241,-72],[-392,-379],[-427,-188],[-362,-390],[-194,-149],[7,-150],[-227,-213],[-226,-295],[34,-78],[-33,-133],[48,-75],[20,-134],[81,-94],[-12,-57],[-210,-314],[-150,-171],[47,-134],[210,-272],[-78,-49],[-72,-186],[-359,-178],[36,-164],[-74,-54],[-234,-111],[-136,-16],[-297,-181],[-390,-429],[-13,-163],[512,-256],[380,-253],[-64,-115],[-140,-143],[-38,-111],[40,-27],[-180,-454],[-90,-90],[-176,-114],[-95,-20],[2,-43],[-207,-151],[-185,-177],[-48,-125],[-139,-84],[-429,-41],[-238,157],[-118,272],[-17,116],[-223,89],[-193,153],[-246,68],[-194,-44],[-392,58],[-324,265],[-45,86],[-219,9],[-211,-26],[-456,-139],[-124,-64],[-188,94],[-242,217],[-169,296],[-17,128],[-170,134],[-326,111],[-513,226],[-204,191],[-170,33],[-210,188],[-266,67],[-237,-144],[-340,-72],[-860,13],[-654,-190],[-326,217],[89,552],[-46,35],[-711,163],[-201,-5],[-193,-88],[-456,31],[-173,32],[-415,171],[-106,23],[-325,18],[-368,89],[277,191],[392,98],[300,286],[73,99],[-7,216],[-151,622],[20,209],[-19,99],[34,151],[143,300],[-40,-6],[-108,-220],[-65,-224],[18,-99],[-19,-212],[152,-622],[7,-207],[-56,-81],[-310,-295],[-384,-94],[-281,-193],[6,-18]],[[9013,78001],[-127,-214],[-590,-652],[75,-109],[541,-305],[347,88],[322,-31],[97,-338],[-51,-94],[18,-131],[192,-136],[156,-212],[84,-15],[-9,-36],[33,-35],[353,-67],[135,-71],[132,-23],[60,-49],[3,-111],[129,-73],[14,-40],[-35,-198],[-118,-75],[0,-32],[125,-80],[3,-46],[-40,-44],[88,-54],[417,-366],[712,-1001],[-27,-404],[32,-166],[115,-262],[65,-249],[212,-172],[128,-310],[135,-110],[182,-592],[1054,-285],[274,68],[147,116],[156,-96],[221,-81],[341,-59],[1158,105],[435,-24],[206,-34],[154,51],[222,201],[48,111],[-7,101],[121,84],[98,146],[244,76],[173,100],[40,111],[-114,146],[106,184],[-215,462],[-12,174],[179,160],[460,267],[731,-20],[396,-78],[190,52],[112,118],[156,66],[157,-6],[371,214],[-217,190],[245,346],[-141,551],[87,180],[-48,22],[27,122],[-37,148],[136,51],[82,71],[-59,27],[-137,-11],[-74,20],[64,82],[27,145],[-58,-2],[-129,-62],[-57,-2],[-24,29],[49,244],[-32,135],[-164,113],[-55,120],[8,23],[78,21],[24,55],[-44,119],[30,94],[88,-56],[18,-46],[-18,-130],[21,-24],[51,16],[74,94],[131,8],[42,38],[-147,161],[-95,155],[-64,-1],[-212,-129],[-89,-31],[-111,-5],[-174,133],[-104,44],[-40,183],[-54,21],[-173,14],[-5,140],[62,34],[-1,19],[-271,97],[-22,79],[-47,32],[-66,13],[-226,-20],[-71,83],[-232,68],[33,44],[216,24],[5,52],[-119,119],[-98,17],[-287,148],[-196,-5],[-52,-60],[-65,-29],[-184,2],[-86,38],[-62,-5],[-126,-75],[-39,-62],[-118,-44],[-89,-2],[-128,-60],[-50,-47],[-33,-126],[-121,-108],[-147,8],[-86,-27],[-99,-181],[-159,7],[-158,-8],[-80,-26],[-70,9],[-44,72],[-98,16],[11,96],[-26,33],[-154,49],[-46,34],[-33,102],[-68,71],[35,133],[-50,26],[-139,-28],[-155,47],[22,175],[106,31],[4,15],[-26,25],[-189,55],[-74,73],[38,26],[156,1],[34,17],[-6,45],[-73,35],[-104,95],[8,23],[70,27],[4,22],[-49,37],[59,58],[-37,31],[-100,5],[-34,28],[-3,66],[-32,42],[-78,16],[-141,-4],[-110,65],[-90,-7],[-450,-130],[-417,-167],[-283,-167],[-18,-35],[25,-77],[-32,-18],[-47,3],[-8,391],[-217,367],[-402,-65],[-401,-98],[-1141,128],[-262,-569],[-683,93],[-283,-205],[-462,-51],[-465,-92]],[[22467,52048],[-201,210],[-212,158],[-187,45],[-128,58],[-208,-12],[-495,-94],[-380,171],[-354,-25],[-238,16],[-162,-12],[-103,-61],[-106,-104],[-85,-137],[-11,-93],[-222,-16],[-198,-143],[134,-778],[534,-162],[2944,679],[-108,193],[-214,107]],[[8226,68680],[83,32],[-26,30],[-85,-32],[28,-30]],[[9782,60657],[-62,-197],[49,-76],[-4,-68],[60,-80],[47,-189],[-53,-109],[18,-123],[66,-61],[106,-35],[65,-49],[-145,-69],[-158,8],[-203,125],[-75,18],[98,-57],[9,-54],[40,-33],[-5,-46],[277,-47],[58,-44],[-56,-62],[-106,-35],[-73,-82],[-88,-42],[119,-221],[-161,-84],[-48,-46],[7,-146],[-25,-47],[131,-132],[260,-113],[8,-33],[-51,-20],[-308,-23],[-243,-110],[-72,-4],[-80,66],[20,-74],[57,-51],[-110,-164],[3,-39],[83,-93],[160,-61],[26,-70],[-184,-82],[-113,-146],[-31,-112],[51,-127],[-102,-154],[-15,-74],[151,-276],[-50,-73],[-291,-128],[-38,-42],[-15,-74],[74,-64],[-38,70],[30,57],[330,156],[87,74],[-7,107],[-83,55],[-51,108],[92,237],[16,124],[-22,65],[31,83],[184,112],[82,19],[29,40],[-45,117],[-208,174],[5,39],[126,87],[75,-18],[40,95],[84,53],[157,-6],[76,-54],[24,52],[47,22],[105,23],[133,-2],[25,25],[21,65],[-46,40],[13,121],[-116,95],[-84,24],[-66,52],[58,34],[167,-19],[91,11],[-32,68],[54,8],[23,30],[-36,193],[-57,52],[-106,34],[-34,36],[64,39],[88,-3],[32,38],[110,50],[-21,117],[44,78],[53,22],[-28,24],[40,117],[1,108],[155,15],[-137,85],[-38,64],[23,52],[-206,15],[-59,-23],[-12,15],[41,106],[110,126],[18,70],[-43,177],[26,67],[-24,74],[13,66],[44,49],[127,-33],[160,24],[63,52],[46,89],[-111,3],[-77,68],[-45,-1],[-111,55],[-78,15],[-138,5],[-74,-34],[-216,-22],[-8,-65],[87,-15],[8,-20],[-86,-61],[-40,-70],[-65,-30],[12,-42]],[[12231,48966],[37,-84],[78,-33],[255,-17],[-64,59],[4,40],[150,75],[-13,55],[101,107],[43,9],[414,-139],[-19,-94],[21,-50],[142,-69],[57,-70],[109,-75],[32,-8],[48,71],[277,33],[18,-78],[98,-59],[11,-46],[74,-38],[-29,83],[34,59],[-83,31],[6,128],[-113,16],[-32,-18],[-115,9],[-91,-26],[-110,9],[8,76],[-128,118],[-21,100],[-4,32],[66,107],[-227,-52],[-42,59],[-158,71],[-29,33],[-255,73],[-74,4],[-88,-80],[-193,-100],[-58,-70],[-90,1],[-107,61],[26,89],[-37,52],[-256,49],[-195,60],[-131,-27],[-39,7],[-164,-164],[-103,-41],[-146,-136],[-91,-23],[-10,-72],[-113,-35],[61,-47],[-122,-173],[-3,-74],[-134,-98],[-115,0],[48,-71],[-196,-198],[-44,-105],[272,97],[115,-13],[53,-39],[3,-69],[-72,-76],[-49,-140],[-55,-37],[-241,-49],[-269,-84],[-237,-110],[-155,-17],[-172,-52],[29,-22],[68,-7],[152,21],[208,-27],[167,36],[130,-28],[98,-51],[59,11],[57,-15],[42,-93],[-26,-64],[35,-52],[-78,-110],[84,-59],[-137,-199],[97,-48],[-19,-116],[147,-35],[37,-30],[-85,-84],[-78,-17],[-25,-24],[34,-55],[-4,-51],[68,-58],[-9,-54],[-87,-55],[-19,-42],[40,-39],[-18,-13],[81,-75],[-7,-131],[-108,-16],[-22,-71],[57,-30],[7,-43],[-88,-73],[26,-46],[80,4],[16,-16],[-7,-169],[-73,-40],[-95,-19],[-92,13],[63,-83],[-246,-113],[2,-17],[90,-37],[-269,-134],[-243,-56],[-118,3],[-30,33],[-84,-34],[61,-70],[-4,-43],[-101,-173],[-13,-281],[-46,-76],[96,-37],[-13,-57],[30,-7],[305,24],[9,-51],[-53,-108],[19,-34],[-18,-35],[220,-138],[40,-100],[101,-45],[-253,-229],[19,-59],[-120,-126],[7,-130],[-100,-54],[-30,-111],[-68,-44],[23,-112],[27,16],[45,-19],[-41,-60],[35,-14],[87,91],[100,241],[130,76],[-55,175],[69,31],[49,59],[362,136],[10,99],[123,101],[-108,133],[-202,16],[-120,49],[-23,53],[39,74],[39,43],[121,32],[33,34],[64,20],[65,94],[47,28],[193,-96],[90,-7],[-93,252],[-63,96],[-50,0],[-83,-69],[-191,-6],[-156,-238],[-57,15],[-4,101],[-49,70],[45,71],[264,151],[145,34],[107,67],[98,-5],[125,151],[90,9],[229,107],[46,-30],[293,-1],[62,-67],[29,61],[149,99],[240,43],[34,-53],[79,-23],[39,-44],[61,3],[-64,39],[-113,130],[-157,-11],[-115,28],[-135,-46],[-43,-45],[-49,-3],[-45,36],[31,216],[-24,48],[-145,131],[-17,45],[6,51],[98,55],[-34,142],[118,66],[-46,46],[-86,21],[-1,65],[160,87],[-113,59],[2,131],[-93,95],[26,333],[-42,115],[-57,52],[-55,104],[42,30],[36,151],[292,73],[4,15],[-167,106],[-4,89],[61,-8],[82,-92],[34,-10],[57,4],[25,34],[-42,81],[-54,35],[-147,2],[5,38],[-34,40],[54,106],[174,168],[74,220],[83,33],[4,21],[-120,45],[8,376],[24,63],[119,78],[183,26],[149,10],[96,-14]],[[37536,23326],[-59,155],[74,35],[-35,14],[-11,60],[14,28],[43,12],[6,23],[-39,7],[65,49],[-36,114],[38,68],[48,-284],[241,-390],[75,-44],[386,-102],[296,-15],[76,-42],[19,-78],[-19,-19],[-996,113],[126,231],[-191,29],[-206,-230],[-179,21],[98,40],[116,100],[50,105]],[[31172,35574],[-146,314],[33,198],[295,227],[22,279],[-281,352],[-12,67],[-238,257],[-179,278],[-53,19],[27,18],[157,573],[3141,-361],[-434,-1723],[684,-68],[-276,-1175],[67,-37],[-35,-74],[10,-47],[163,-128],[266,-81],[168,-128],[121,-47],[39,-55],[3,-66],[-3288,373],[198,732],[1872,-216],[128,-38],[57,10],[-103,45],[-2032,229],[-374,273]],[[28528,36487],[-44,-75],[-164,91],[90,36],[96,-2],[22,-50]],[[34201,43317],[367,119],[182,15],[71,-121],[-35,-54],[-315,-147],[-49,22],[-57,-19],[-164,185]],[[50206,49828],[-120,-89],[-342,40],[-154,75],[-436,7],[-44,57],[135,76],[53,100],[-285,197],[430,292],[2,309],[481,-100],[55,-32],[-15,-33],[-76,-38],[-23,-90],[478,-376],[-12,-133],[-127,-262]],[[29838,52853],[103,-185],[88,-90],[206,-95],[293,23],[577,92]],[[31105,52598],[-952,-3578],[-403,-1411],[-2072,222],[-19,171],[-287,271],[-25,166],[-99,114],[-59,226],[157,555],[357,1496],[610,2198],[1525,-175]],[[41735,51461],[4619,-503],[-127,-496],[1411,-153],[-153,-602],[-528,63],[-244,-923],[-2641,279],[231,899],[-2842,293],[274,1143]],[[50040,52193],[151,40],[-263,266],[-73,43],[-133,190],[-253,-69],[-79,123],[56,65],[63,17],[-28,33],[-62,-16],[-96,23],[32,55],[-212,51],[19,33],[115,40],[-3,22],[-159,-30],[-10,-18],[-49,12],[1,17],[34,-12],[172,36],[-134,211],[-250,525],[-54,17],[4,52],[-92,138],[-75,183],[18,78],[-31,55],[101,203],[82,13],[308,123],[169,-19],[115,89],[115,161],[19,74],[57,-15],[68,202],[-16,135],[-42,74],[-80,74],[-267,154],[-121,118],[-123,293],[115,-39],[225,24],[71,-141],[153,24],[45,58],[295,41],[99,-4],[-168,422],[-119,135],[-49,95],[-110,412],[32,97],[-25,259],[-222,101],[-101,23],[-170,-12],[-263,-108],[-245,-3],[-34,-29],[12,-107],[-93,-52],[54,-116],[-169,-75],[-53,4],[-222,164],[139,29],[-33,57],[97,26],[-12,21],[38,14],[48,-83],[86,19],[23,-50],[56,24],[23,19],[-19,108],[30,37],[264,6],[260,105],[193,15],[103,-24],[232,-98],[27,-94],[-17,-328],[88,-330],[59,-121],[119,-132],[159,-431],[303,-477],[533,86],[154,-66],[170,12],[486,124],[85,53],[883,788],[66,106],[146,-462],[78,-764],[-49,-171],[-194,-208],[-149,-78],[-982,-294],[-182,-92],[-325,-255],[-797,-979],[-351,-302],[-73,-29],[30,-30],[134,37],[203,181],[162,197],[-76,-361],[-69,-125],[-81,-46],[-358,-106],[98,-147],[438,-440],[95,-207],[80,-66],[9,-104],[39,-52],[1,-100],[37,-57],[4,-87],[-91,-6],[4,-26],[-208,-87],[-155,0],[-102,29],[-2,26],[149,41],[-189,102],[-53,-61],[-141,-60],[-128,-102],[-105,-39],[-64,11],[31,44],[-46,151],[-94,179],[17,88],[171,1],[229,-39],[171,-4],[67,-28],[122,77],[-25,158],[-78,106],[47,14],[-90,125]],[[50040,52193],[-150,-58],[-308,-64],[-108,168],[296,78],[-12,24],[132,37],[150,-185]],[[49396,52686],[-83,-23],[-27,44],[81,22],[29,-43]],[[49052,52967],[201,-49],[-32,-55],[-200,49],[31,55]],[[48021,54548],[283,-28],[-77,-329],[-282,28],[76,329]],[[31105,52598],[26,99],[-1293,156]],[[29838,52853],[-21,34],[57,212],[411,74],[179,109],[187,-21],[221,88],[344,1416],[-12,14],[-201,-58],[-200,57],[-491,92],[-149,164],[-3,60],[28,14],[257,-19],[110,11],[91,23],[61,52],[94,143],[293,593],[245,302],[274,252],[252,104],[254,1],[361,-44],[212,16],[309,103],[647,344],[526,-4],[103,7],[101,32],[456,636],[116,28],[66,38],[215,207],[171,101],[403,20],[387,361],[326,-13],[93,27],[292,-104],[169,-88],[208,-54],[421,292],[312,155],[79,98],[1088,-189],[380,-215],[210,110],[107,188],[1000,358],[156,243],[-140,-530],[801,-90],[37,-76],[1,-73],[-61,-86],[-237,-125],[-35,-80],[164,-258],[-2,-125],[98,-113],[-128,-146],[-85,-46],[-76,-101],[-100,-22],[-23,-89],[1361,-155],[-395,-1482],[-167,-166],[-727,-391],[145,-512],[35,-528],[325,-154],[178,-116],[373,-602],[296,-250],[-215,-107],[-183,-51],[-26,-101],[-3103,332],[-49,-197],[-266,28],[-128,-517],[-309,33],[-374,251],[-37,-6],[-24,-93],[-84,9],[-624,256],[70,275],[-531,56],[-58,-237],[-899,68],[-266,-41],[-289,18],[-136,76],[-745,64],[-261,-24],[-273,-59],[-930,-104],[-501,145],[-336,-193],[-128,28],[-300,-15],[-222,-52],[-217,-151],[-22,13],[-100,-13]],[[47033,59587],[392,-308],[368,-146],[15,-23],[401,-91],[140,-94],[104,-157],[1,-213],[-3006,329],[214,856],[1371,-153]],[[31456,75921],[24,223],[66,-7],[178,-169],[-150,-131],[35,-95],[142,-70],[60,-91],[-97,-29],[-296,2],[-64,376],[102,-9]],[[33402,80143],[-458,146],[-151,122],[-200,58],[-194,22],[-118,62],[89,35],[-396,108],[-364,178],[-58,105],[-192,30],[-10,336],[31,139],[-86,242],[-126,529],[214,36],[-140,291],[-245,54],[-37,143],[-257,39],[-110,153],[-30,166],[-118,40],[48,335],[-248,84],[-226,115],[-147,271],[-314,222],[13,102],[-54,370],[261,132],[23,353],[-37,256],[-125,200],[1052,430],[176,271],[-35,19],[-59,104],[-9,169],[89,238],[-224,226],[80,83],[-34,148],[210,111],[327,-24],[226,57],[287,-4],[166,-127],[9,-59],[82,-81],[256,-130],[-131,-104],[22,-17],[-182,-162],[6,-57],[77,-94],[385,-164],[498,-126],[207,-34],[142,-60],[378,-467],[148,-84],[38,-61],[-11,-29],[-97,-58],[55,-155],[86,-43],[193,-24],[261,96],[105,-190],[9,-103],[-82,-34],[-115,-103],[118,10],[144,-68],[115,16],[109,-93],[157,-233],[327,-44],[280,-211],[179,33],[269,-46],[315,-86],[170,-111],[294,94],[181,-46],[-662,-2947],[-575,-289],[202,-127],[223,-216],[45,-14],[-164,-643],[34,-6],[-227,-980],[-132,-144],[-2133,230],[3,98],[-46,154],[170,116],[-366,579],[141,142]],[[42554,86500],[-175,18],[16,69],[177,-18],[-18,-69]],[[36536,89915],[-49,-167],[-417,-4],[-333,32],[-272,56],[-315,107],[-49,-48],[-1179,-194],[-19,-40],[107,-120],[554,-6],[49,-79],[174,-63],[-44,-72],[24,-100],[-230,-39],[-1,-76],[30,-23],[578,69],[109,98],[236,-79],[86,78],[411,-5],[52,19],[44,48],[167,-56],[-26,-32],[-1173,-143],[-34,-36],[-1557,-409],[-275,390],[-99,66],[-144,202],[64,108],[-14,66],[-101,111],[-454,243],[-154,201],[69,300],[3142,1474],[1031,-1257],[-66,6],[236,-367],[-158,-259]],[[53034,55399],[-99,509],[-20,273],[-136,462],[100,506],[52,12],[609,-229],[21,18],[226,-84],[161,-88],[247,-89],[-245,-1166],[-125,-184],[94,-12],[-10,-465],[-271,-762],[-61,-269],[-843,423],[-491,561],[106,22],[342,127],[152,108],[101,116],[90,211]],[[54937,63525],[329,-119],[390,-238],[441,-120],[148,-65],[121,-126],[122,-222],[-530,-30],[-484,49],[-57,43],[-104,233],[-212,219],[-107,159],[-57,217]],[[48766,63893],[142,-131],[-47,-15],[146,-213],[-217,-121],[-184,-49],[-734,93],[-283,116],[-481,73],[-253,-53],[-21,-71],[93,-50],[-1,-134],[-118,26],[-191,101],[-63,69],[-2,80],[61,92],[123,335],[163,174],[92,41],[43,-1],[70,45],[1,72],[75,47],[36,86],[-35,62],[-93,55],[25,120],[-16,156],[35,58],[-74,51],[7,48],[-78,43],[-31,93],[-99,79],[-172,68],[-22,66],[8,21],[64,18],[321,19],[64,39],[8,20],[-119,115],[-180,47],[19,48],[65,33],[160,22],[211,84],[100,69],[178,42],[35,-7],[18,-32],[315,7],[465,-78],[-240,-341],[-13,-111],[108,-12],[69,113],[180,14],[-48,-141],[135,-21],[36,60],[-83,104],[-173,41],[235,340],[86,199],[2,65],[55,12],[18,-86],[99,1],[41,76],[-14,16],[48,37],[26,93],[-96,106],[50,0],[31,120],[-47,31],[61,24],[-1,-22],[52,-18],[44,40],[28,-22],[-13,-42],[85,-19],[53,25],[-6,41],[24,12],[13,-37],[90,45],[-10,53],[56,-2],[-11,82],[-67,22],[22,49],[-56,37],[-74,0],[-50,111],[318,178],[261,32],[121,-39],[63,9],[176,-274],[-78,-22],[68,22],[-195,127],[-117,-34],[-31,-55],[62,0],[-21,-35],[-63,-1],[0,-66],[100,-63],[72,1],[-12,-21],[-86,9],[13,-115],[54,0],[21,-40],[47,-20],[178,-11],[23,-32],[-19,-24],[-143,-18],[-166,-45],[-49,-36],[-81,-6],[19,-115],[84,6],[119,-37],[39,-100],[-80,-110],[23,-117],[-36,-18],[-124,9],[-51,-13],[-58,-118],[36,-46],[145,-57],[-16,-107],[23,-51],[146,-55],[81,-296],[157,-264],[-367,-142],[-88,17],[-49,71],[-72,-29],[-129,134],[-82,-34],[-311,326],[-37,-14],[-27,26],[-48,-19],[8,-31],[29,9],[-126,-39],[-106,67],[-198,67],[-429,38],[-11,-260],[77,-185],[-316,28],[59,-310],[-82,14],[-6,-133],[59,-193],[306,38],[11,-15],[-312,-91],[107,-219],[-100,-40],[36,-181],[55,-34],[187,-19],[54,-59],[511,207]],[[49551,66800],[-23,10],[-25,-21],[4,-55],[30,-11],[14,77]],[[49541,66649],[-23,-61],[41,-10],[32,13],[0,32],[-12,31],[-38,-5]],[[49481,66479],[-48,25],[-85,-91],[74,-3],[59,69]],[[49759,66099],[73,-32],[24,23],[-75,32],[-22,-23]],[[53976,66523],[-58,11],[-5,38],[24,23],[59,4],[10,-43],[-20,2],[-10,-35]],[[52821,74115],[65,120],[110,29],[15,20],[136,-25],[-15,-40],[179,-24],[-7,-24],[124,-12],[192,-87],[-54,-96],[-165,-119],[-284,-64],[-213,138],[-83,184]],[[51797,73892],[-33,119],[74,6],[17,-57],[124,8],[-4,-17],[-82,-11],[10,-34],[-106,-14]],[[52514,74108],[-23,75],[53,6],[-12,39],[149,17],[33,-117],[-200,-20]],[[48014,77002],[132,11],[59,-48],[87,-348],[-26,-480],[-155,-10],[3,173],[-158,396],[35,-6],[33,202],[-225,51],[215,59]],[[46356,76679],[91,9],[32,-52],[-85,-20],[-38,63]],[[50491,78018],[5,309],[-37,57],[-206,-34],[-159,-133],[-39,120],[-288,-5],[-3,-18],[-240,104],[183,182],[9,76],[98,209],[47,41],[32,82],[46,21],[124,5],[220,-182],[44,-298],[166,-121],[178,104],[450,-257],[17,-39],[-29,-39],[-408,-185],[-210,1]],[[52854,78434],[-19,-161],[-57,-17],[-200,152],[-35,162],[32,106],[83,90],[307,-19],[94,53],[8,32],[44,-4],[38,32],[203,-124],[-36,-164],[-78,-11],[-7,-70],[-152,-2],[11,-70],[-25,-19],[-169,14],[2,74],[-44,-54]],[[51396,79194],[104,141],[8,-24],[130,65],[-20,45],[19,59],[-69,212],[-38,41],[71,57],[205,94],[260,82],[99,-2],[115,-55],[245,12],[153,49],[-4,19],[-79,28],[-279,32],[-45,111],[82,98],[-70,86],[37,56],[-20,21],[143,18],[-34,95],[57,63],[-3,99],[119,134],[172,87],[47,-11],[29,-34],[49,12],[58,44],[-32,67],[140,40],[163,-32],[37,25],[-35,59],[119,98],[46,92],[89,55],[163,-4],[130,-39],[34,-44],[-64,-37],[-22,-184],[23,-42],[-57,-90],[10,-50],[-128,-81],[2,-36],[-151,-12],[-118,-71],[19,-41],[176,-35],[32,-26],[42,-159],[90,-73],[50,-94],[-25,-70],[123,-112],[-14,-68],[-93,-53],[-79,1],[0,-391],[-138,-32],[-299,-130],[-175,-188],[49,-53],[17,-170],[-261,-3],[-206,-144],[-94,-93],[-5,-279],[-70,-51],[-1268,760],[239,56]],[[51550,79206],[103,22],[82,-36],[39,29],[69,-11],[12,18],[-126,114],[-81,31],[-135,-66],[-38,-112],[19,-22],[56,33]],[[51038,82403],[279,-26],[14,-561],[-351,35],[62,263],[-4,289]],[[47698,84835],[100,-58],[-75,-46],[-32,2],[-30,-274],[-253,46],[6,267],[-81,201],[376,-85],[-11,-53]],[[49392,87661],[-1,48],[34,-1],[-6,-57],[106,0],[13,-45],[-81,0],[-15,-31],[-73,0],[-1,37],[-35,13],[27,0],[1,24],[31,12]],[[50491,87715],[-113,-42],[-415,-3],[81,34],[18,179],[76,38],[23,39],[-5,33],[-94,39],[-87,-30],[64,54],[-27,36],[11,42],[60,20],[14,-51],[51,-18],[355,-20],[195,-64],[-108,-283],[-99,-3]],[[48015,90824],[89,-85],[-61,-24],[-62,5],[12,51],[-56,6],[-33,31],[60,36],[51,-20]],[[49634,95257],[-559,185],[-254,113],[-224,133],[-308,244],[-214,3],[-864,91],[373,1452],[5369,2521],[-7,-19],[271,-14],[224,23],[-78,-224],[17,-26],[-278,-1156],[561,-58],[-193,-180],[-236,-1039],[-931,-655],[-543,-1096],[-364,-12],[-370,-99],[-205,-185],[-67,-325],[-71,-99],[-94,-74],[-114,-61],[-271,300],[-570,257]],[[50743,96018],[73,10],[-32,62],[-67,-12],[26,-60]],[[54241,73086],[36,-158],[-4,-11],[-24,-17],[-34,11],[51,5],[3,43],[-162,7],[-2,92],[83,59],[53,-31]],[[54086,73066],[-117,-5],[-34,76],[37,54],[201,-62],[-87,-63]],[[61474,51192],[-1058,113],[451,1847],[1511,-162],[-45,-404],[-48,-115],[-179,-262],[-257,-258],[-120,-185],[-255,-574]],[[57282,61510],[-49,-23],[-40,35],[83,9],[6,-21]],[[59120,62849],[-401,-112],[-171,-100],[-118,-115],[-129,-208],[-74,0],[-873,231],[-27,28],[15,42],[33,-15],[-21,1],[-3,-33],[762,-195],[6,57],[-44,23],[114,79],[6,51],[40,42],[169,-6],[83,77],[140,40],[197,140],[32,-15],[219,52],[45,-64]],[[56702,62966],[-113,-75],[-25,-43],[34,-52],[108,-28],[-10,-39],[545,-138],[42,56],[-10,-63],[-30,-12],[-269,45],[-345,21],[-128,236],[-94,114],[284,361],[-106,-166],[72,-10],[57,75],[65,-14],[3,-117],[139,-39],[-128,-55],[-36,-45],[-55,-12]],[[59391,64051],[-78,-9],[-79,61],[19,35],[71,-5],[7,-23],[13,21],[58,-4],[11,-42],[-22,-34]],[[55652,74764],[0,-21],[-61,-5],[-2,45],[63,-19]],[[57248,76772],[84,69],[187,-106],[-148,92],[-503,273],[3,23],[28,-18],[-66,201],[282,253],[-88,39],[357,317],[238,-101],[268,-70],[274,-32],[257,3],[16,-179],[-72,-27],[228,-16],[212,-85],[129,-129],[37,-153],[86,-9],[125,49],[136,15],[209,-144],[211,-58],[-51,-266],[-158,-240],[-278,-204],[-453,-237],[221,-349],[-310,-212],[-217,102],[-495,58],[37,133],[-5,136],[-73,48],[10,-41],[-112,-11],[-55,-349],[12,-325],[86,0],[8,-282],[-86,-1],[12,-366],[85,0],[1,-17],[-97,-2],[6,-220],[217,-123],[53,16],[396,-287],[-29,-31],[8,-30],[218,-163],[-431,-109],[-21,-2],[-1294,1369],[106,1044],[47,27],[-80,117],[-278,278],[-28,111],[-84,74],[-54,3],[-135,-59],[-191,-1],[-278,25],[-72,54],[-18,88],[28,-5],[32,52],[159,97],[18,96],[32,35],[356,40],[164,131],[-50,-55],[261,-62],[175,-96],[-43,-34],[238,-162]],[[57568,76742],[232,45],[256,72],[144,-56],[177,-26],[187,13],[98,30],[-138,-32],[-151,-6],[-173,27],[-140,54],[-492,-121]],[[58728,76292],[-216,-47],[66,-111],[189,50],[-39,108]],[[58380,75907],[-92,152],[-140,-37],[-24,-125],[205,-5],[24,6],[189,57],[-162,-48]],[[56843,77137],[-137,74],[67,65],[12,-1],[58,-138]],[[56752,77350],[-197,120],[142,127],[219,-104],[-164,-143]],[[57026,77739],[65,58],[39,-22],[-62,-56],[-42,20]],[[56493,77778],[-150,-64],[-50,45],[190,41],[10,-22]],[[53843,78866],[-2,-124],[-71,-8],[-26,132],[99,0]],[[55867,79039],[-83,-42],[-40,31],[120,67],[3,-56]],[[55492,79490],[-84,60],[-214,64],[-50,97],[187,72],[208,277],[39,22],[63,-11],[65,-81],[161,-77],[115,-114],[205,-73],[158,-22],[74,7],[238,106],[52,-10],[125,-83],[-31,-84],[-135,-179],[-68,-183],[-189,-134],[-293,102],[-42,48],[-163,59],[-290,67],[-94,4],[-37,66]],[[51889,88387],[433,-195],[274,-72],[322,-44],[58,-61],[-240,-547],[-1,-246],[-468,-64],[-594,21],[-250,-27],[-509,1],[-213,28],[-309,101],[16,98],[244,267],[82,128],[179,0],[1,24],[581,0],[0,192],[41,210],[-337,11],[-228,-57],[133,176],[164,-91],[270,1],[0,250],[351,-104]],[[51599,87798],[-1,178],[-64,0],[1,-177],[64,-1]],[[51585,88204],[-36,-129],[58,-4],[9,45],[87,-8],[44,78],[-162,18]],[[53585,90810],[-12,-14],[181,-69],[-112,-125],[-123,-26],[-167,63],[-27,84],[112,125],[98,-38],[11,13],[39,-13]],[[53326,90850],[88,22],[8,-18],[-68,-70],[-28,66]],[[53178,92356],[-256,-99],[-197,-160],[-90,-162],[-49,-284],[-286,-393],[-100,-348],[-167,3],[-121,87],[-172,286],[-241,136],[-68,61],[-38,70],[-28,220],[-65,117],[-88,91],[-169,105],[-419,123],[-254,128],[-441,429],[-392,220],[-180,207],[-217,192],[74,56],[272,67],[181,104],[119,136],[128,325],[565,42],[177,74],[230,-173],[2013,-1333],[323,-289],[-44,-38]],[[52719,93173],[9,-25],[98,-28],[-159,-52],[109,-77],[-56,-32],[-136,86],[65,43],[22,91],[48,-6]],[[52683,93200],[-156,-118],[-79,49],[124,138],[100,-43],[11,-26]],[[52094,93342],[-261,180],[77,104],[50,-34],[78,-8],[-16,-62],[113,-10],[-41,-170]],[[57446,79266],[-387,120],[-351,18],[29,80],[146,210],[160,-73],[150,-39],[213,-20],[141,15],[183,-296],[-284,-15]],[[58804,73846],[-61,-36],[-36,27],[59,34],[38,-25]],[[58006,79037],[46,95],[63,11],[26,-75],[-135,-31]],[[57861,79616],[37,-293],[-24,-30],[-58,-7],[-19,267],[-108,-23],[-23,48],[-94,4],[268,46],[21,-12]],[[57076,81140],[39,69],[2,167],[123,97],[311,322],[125,-39],[174,7],[-1,-110],[-376,-104],[-159,-129],[-37,-117],[48,-269],[-36,-51],[-16,-9],[-38,63],[-145,68],[-14,35]],[[58701,77712],[84,17],[36,-66],[-110,-24],[-10,73]],[[58101,79703],[31,213],[286,-25],[-16,-79],[-35,4],[-7,-43],[95,-8],[-17,-144],[-289,30],[-48,52]],[[56831,84973],[903,-82],[-41,-211],[-91,8],[-22,-111],[-32,-25],[45,-53],[-87,-20],[-766,66],[91,428]],[[61377,66164],[119,8],[0,-46],[-314,-223],[-76,91],[-40,0],[5,100],[306,70]],[[59006,77216],[-45,83],[84,23],[27,-34],[50,18],[43,-52],[-159,-38]],[[58913,78032],[-256,75],[-21,40],[175,71],[120,72],[32,-19],[-4,-126],[30,-76],[-76,-37]],[[58281,80216],[30,-52],[59,-31],[73,-10],[89,22],[-34,-166],[-365,18],[148,219]],[[58096,81621],[-47,70],[187,64],[72,-97],[69,21],[-63,-15],[-67,91],[80,28],[62,-81],[-15,-14],[38,-91],[-316,24]],[[57954,81776],[-23,34],[27,34],[249,72],[49,-76],[-233,-73],[-69,9]],[[58131,83941],[17,-12],[-30,-144],[19,-3],[-39,-148],[-530,44],[-67,38],[-8,72],[97,51],[179,-9],[0,-15],[173,61],[-8,-47],[166,-14],[10,53],[-57,18],[-1,28],[79,27]],[[59886,76638],[87,-327],[-271,-56],[-51,200],[132,185],[103,-2]],[[60086,77166],[155,-31],[-29,-58],[-78,-46],[-100,24],[52,111]],[[59450,77315],[106,-95],[-98,-32],[-104,97],[96,30]],[[59592,77227],[-139,115],[116,45],[24,-3],[53,-124],[-54,-33]],[[60225,77360],[-172,-135],[-189,3],[-138,60],[-88,166],[64,-25],[58,56],[-54,36],[61,34],[146,21],[145,46],[44,-22],[-106,-84],[26,-7],[66,56],[67,-32],[21,19],[42,-20],[-18,-122],[28,-5],[-3,-45]],[[59722,77557],[-115,-78],[-113,107],[131,61],[97,-90]],[[59625,79674],[175,-82],[-255,-229],[-175,91],[255,220]],[[59108,79579],[-187,81],[255,229],[173,-83],[-241,-227]],[[59067,82172],[11,128],[23,11],[159,-20],[106,-109],[235,73],[45,-63],[-237,-73],[53,-72],[-121,-39],[3,-23],[-73,-66],[-89,43],[-106,-76],[-68,-19],[-121,8],[-129,77],[-25,61],[15,66],[126,82],[121,10],[91,-15],[-19,16]],[[58982,82365],[-149,12],[20,101],[139,-4],[-10,-109]],[[58606,83333],[160,-13],[-13,-74],[-24,-13],[-119,11],[-19,16],[15,73]],[[58239,83620],[-111,15],[24,146],[1080,-81],[28,-22],[-27,-129],[-24,-15],[-932,82],[12,11],[-38,4],[-12,-11]],[[58396,84986],[275,90],[53,-64],[-29,-86],[-55,-47],[-175,15],[11,51],[-93,8],[-9,-51],[-179,17],[16,77],[185,-10]],[[58056,84962],[-15,51],[110,-10],[-4,-48],[-91,7]],[[62868,66489],[-30,56],[-3,120],[-81,50],[613,-67],[-43,-24],[-293,36],[-7,-36],[-11,38],[-127,14],[110,-192],[-128,5]],[[61026,73031],[-344,182],[472,249],[-358,24],[-267,61],[77,215],[18,195],[437,-119],[258,-41],[396,-2],[-77,-9],[111,12],[97,14],[95,17],[-16,-78],[117,-55],[70,-70],[71,-257],[-51,-13],[-486,10],[-23,-224],[-307,-3],[-30,-49],[-56,-16],[-105,14],[-77,-23],[-22,-34]],[[60358,76911],[82,43],[86,11],[1,-66],[-81,-36],[-88,48]],[[60591,77678],[-10,-75],[-61,-50],[-106,-25],[-100,19],[196,195],[43,-12],[38,-52]],[[59776,77801],[-54,49],[-8,66],[58,68],[111,32],[21,161],[52,-5],[26,120],[-54,7],[20,97],[496,-45],[274,-126],[153,125],[157,-76],[-766,-704],[-183,81],[226,203],[-31,14],[-218,-200],[-280,133]],[[60054,78844],[-40,-179],[-234,20],[30,131],[194,61],[50,-33]],[[59260,82443],[-34,-107],[-127,11],[16,112],[145,-16]],[[59523,82510],[-47,21],[7,41],[87,-37],[-47,-25]],[[58966,83039],[25,122],[24,13],[124,-12],[-23,-137],[-150,14]],[[60870,76764],[13,49],[93,-26],[-106,-23]],[[61432,76967],[-472,82],[70,136],[336,300],[136,43],[162,-222],[-57,-29],[239,-113],[-21,-46],[-122,-105],[-48,24],[-55,-63],[-59,18],[77,62],[-171,81],[-103,-106],[61,-12],[59,20],[-32,-70]],[[60709,77116],[39,81],[255,-53],[-41,-80],[-253,52]],[[61020,77621],[-53,-55],[-167,89],[118,111],[108,36],[48,-51],[-84,-29],[-62,-55],[92,-46]],[[61149,77777],[-40,-13],[-32,43],[42,12],[30,-42]],[[60521,81193],[80,-38],[-66,-47],[-210,100],[104,95],[117,-58],[-25,-52]],[[60255,81733],[650,-308],[-44,-39],[176,-96],[-153,-137],[-203,84],[-19,21],[38,32],[-87,42],[50,44],[-32,14],[-88,-77],[-493,235],[205,185]],[[60324,81877],[263,219],[-90,69],[-108,160],[1095,343],[425,-576],[-131,-109],[19,-8],[-45,-41],[3,-40],[-509,-456],[-922,439]],[[60130,81862],[-24,31],[27,51],[-29,61],[-107,42],[-71,99],[226,70],[168,-234],[-18,-120],[-99,-91],[-94,45],[21,46]],[[60533,82530],[-172,-61],[-47,9],[-57,78],[-31,-7],[-208,285],[64,21],[-278,-69],[60,308],[257,-22],[46,-29],[88,-135],[39,12],[-86,141],[768,232],[93,-147],[-508,-157],[204,-276],[-278,-84],[45,-45],[1,-54]],[[59431,83102],[7,34],[88,-7],[-7,-35],[-88,8]],[[60136,83357],[42,-4],[42,-60],[-94,-1],[10,65]],[[59911,83497],[-31,-20],[-535,50],[-22,20],[23,131],[568,-36],[23,-18],[-26,-127]],[[59573,84014],[-7,-58],[-152,-1],[20,67],[139,-8]],[[59609,84343],[24,-57],[-151,13],[17,82],[149,-13],[-4,-28],[-35,3]],[[59541,85121],[-64,-2],[30,149],[62,-7],[-28,-140]],[[59680,85277],[137,-2],[-12,-56],[-133,12],[8,46]],[[59539,85582],[111,76],[-45,-216],[-133,11],[25,130],[42,-1]],[[59758,85653],[74,-4],[-24,-123],[-74,10],[24,117]],[[58828,86427],[164,-12],[-22,-104],[-165,14],[23,102]],[[57157,96491],[30,-26],[244,-28],[165,-39],[33,-47],[-44,-47],[17,-12],[-49,-30],[48,-269],[-223,111],[-216,156],[-149,292],[-119,154],[739,1],[-6,-16],[-261,-46],[-159,17],[-50,-171]],[[64797,72555],[762,-3204],[-8,-247],[-51,-168],[-79,-145],[-198,-220],[-83,-68],[-739,-412],[-381,912],[-691,-33],[-113,236],[-484,26],[-271,-57],[-275,10],[-219,88],[-35,231],[1745,312],[-14,34],[-128,71],[46,127],[-412,981],[-1226,1140],[70,210],[172,169],[-44,301],[-37,81],[31,6],[73,-386],[298,-314],[203,-7],[1615,765],[473,-439]],[[61632,77978],[103,-144],[-119,-37],[-146,143],[162,38]],[[61330,78158],[-185,148],[90,76],[363,-74],[153,-210],[-303,-102],[-118,162]],[[60146,83454],[-211,23],[24,154],[168,-7],[508,147],[91,-144],[-580,-173]],[[60339,84162],[15,-51],[-59,-18],[-38,50],[82,19]],[[58353,94019],[211,-142],[-155,-94],[-237,161],[95,58],[86,17]],[[62199,76962],[-66,93],[162,18],[-18,-103],[-78,-8]],[[60780,84153],[139,-25],[-9,-17],[37,-4],[15,-29],[77,2],[43,49],[80,-7],[2,-68],[24,-32],[29,10],[52,-18],[-52,-26],[19,-33],[359,-494],[-181,-67],[14,-45],[-97,-77],[27,-35],[-178,-55],[-29,9],[-666,918],[11,21],[160,49],[27,-31],[97,5]],[[60783,84270],[-36,-37],[-113,-35],[-50,69],[76,40],[37,-4],[20,-27],[66,-6]],[[60124,86853],[-121,10],[-17,-26],[25,57],[223,-21],[14,28],[1,-29],[26,27],[-1,-30],[567,-48],[20,26],[-5,-28],[25,27],[0,-29],[334,-28],[60,228],[508,-41],[-89,-496],[-518,46],[41,234],[-559,46],[-20,-23],[4,24],[-471,42],[-14,-26],[-17,28],[-16,-28],[0,30]],[[61337,82798],[-273,-94],[-75,87],[276,92],[72,-85]],[[61178,83155],[67,22],[28,-38],[102,9],[80,-111],[-74,-45],[27,-38],[-67,-22],[-163,223]],[[59797,89752],[-505,194],[74,219],[43,20],[287,-58],[270,-128],[-169,-247]],[[62597,78062],[-119,-623],[-78,7],[118,623],[79,-7]],[[60701,86220],[57,-17],[-39,-54],[-57,17],[39,54]],[[58805,95571],[-33,-7],[-33,22],[-158,204],[217,-185],[7,-34]],[[62637,77545],[18,78],[107,-5],[-12,-89],[-113,16]],[[62005,84937],[18,-18],[-161,-770],[-1028,81],[-23,14],[150,702],[212,65],[832,-74]],[[65227,68033],[56,-42],[-51,-66],[60,-46],[-86,-48],[-143,110],[164,92]],[[99283,76719],[19,-16],[132,31],[367,-317],[198,-1016],[-1238,-506],[-539,436],[115,467],[465,90],[19,223],[223,-4],[106,407],[-110,109],[243,96]],[[75175,74354],[-26,-109],[-35,11],[24,101],[37,-3]],[[74509,74625],[53,44],[-68,-291],[-173,3],[46,201],[142,43]],[[89120,75208],[-164,-3],[-69,-30],[-215,17],[-354,-46],[-442,132],[-318,144],[-444,4],[-93,19],[-34,58],[7,44],[53,63],[73,21],[42,-13],[155,19],[63,-15],[-15,12],[107,-32],[34,-37],[88,-40],[154,-17],[66,41],[36,36],[35,104],[-45,130],[6,239],[-24,64],[-115,-7],[-138,-36],[-87,32],[-29,34],[51,123],[68,80],[-23,33],[-109,-52],[-18,-137],[18,-11],[-29,-33],[42,-60],[48,-10],[99,-1],[124,31],[91,-22],[21,-58],[-33,-99],[11,-114],[65,-137],[-80,-131],[-60,-15],[-134,8],[-78,22],[-32,49],[-134,33],[-246,-5],[-77,-27],[-30,-21],[-37,-62],[-673,84],[-31,-146],[-396,-14],[-2,25],[-318,106],[-6,-24],[290,-108],[-222,-11],[-314,-67],[-989,-408],[405,1608],[88,-45],[156,-42],[114,-16],[56,15],[71,22],[137,99],[99,163],[-400,78],[65,185],[133,125],[-1,212],[-158,95],[33,66],[-60,293],[87,338],[223,118],[-58,206],[180,110],[86,213],[76,389],[-205,132],[55,191],[476,662],[0,51],[145,155],[21,132],[676,-31],[1135,-406],[458,-49],[77,300],[271,134],[1179,-127],[-55,-228],[33,-3],[-60,-201],[680,-74],[-125,-487],[-696,81],[-130,-464],[1286,-131],[621,-28],[-295,-962],[-280,-238],[-61,-260],[61,-165],[36,-239],[-39,-157],[-683,-981],[-953,-55],[81,173],[-1227,208],[-198,16],[61,-516],[-54,-176],[-96,-83],[311,-123],[558,24],[424,-41],[-10,-24]],[[88361,78012],[-25,139],[-96,9],[-42,-180],[-173,-161],[-126,-178],[202,-125],[96,48],[188,222],[122,205],[-146,21]],[[65614,77211],[-47,5],[58,141],[-32,903],[101,268],[343,255],[119,297],[187,-91],[-42,-186],[-56,-50],[-28,-78],[1,-66],[49,-89],[331,-249],[205,-90],[24,-67],[61,-57],[-8,-76],[-56,-74],[-245,-217],[-50,-78],[37,-40],[0,-54],[-41,-25],[122,-89],[-70,-42],[97,-104],[51,-97],[-13,-54],[-152,-34],[-141,-81],[-202,-69],[-326,-77],[-14,402],[-248,-4],[17,-479],[-83,-32],[-170,69],[98,234],[71,6],[41,61],[11,108]],[[65230,77163],[170,112],[43,62],[-104,-182],[-214,-220],[-207,161],[241,116],[71,-49]],[[65515,78465],[-113,-440],[-839,-5],[229,449],[88,69],[559,287],[76,30],[75,-19],[4,51],[168,69],[-247,-491]],[[67483,80659],[90,-230],[152,-119],[152,-49],[55,-151],[-300,-58],[-504,14],[355,593]],[[63141,80157],[406,115],[384,57],[95,-68],[-164,-252],[-162,-48],[-125,-71],[43,-77],[69,-40],[-131,-259],[-357,-37],[-48,23],[-30,153],[0,415],[20,89]],[[62921,80485],[-127,17],[21,63],[127,-17],[-21,-63]],[[62849,81334],[-149,129],[100,148],[83,-20],[32,-241],[-66,-16]],[[63872,81970],[-45,38],[46,44],[95,-63],[-96,-19]],[[68492,84101],[228,-29],[731,-268],[393,-13],[-103,-443],[-236,22],[-184,103],[-88,-103],[-78,-32],[-41,71],[-625,24],[3,668]],[[67932,83763],[-466,189],[101,263],[763,-95],[4,-395],[-402,38]],[[63086,86572],[-60,199],[73,14],[159,0],[23,-84],[217,47],[47,-88],[-409,-108],[-50,20]],[[64269,87192],[-31,55],[40,8],[26,-50],[-35,-13]],[[62897,92350],[938,-131],[324,69],[73,32],[149,-36],[187,-125],[-154,-118],[-160,-84],[-166,-54],[-284,-52],[-141,-64],[-481,-107],[-174,-6],[-237,22],[-141,-552],[-40,3],[65,263],[-26,31],[268,909]],[[63059,93354],[-26,3],[10,32],[-21,3],[14,49],[85,-16],[0,-68],[79,-11],[30,115],[35,-4],[-311,-1079],[-35,4],[263,897],[-134,18],[11,57]],[[66050,93141],[680,45],[369,227],[177,-55],[-76,-516],[-30,-684],[-555,156],[-223,25],[-485,-44],[-356,-148],[-32,44],[-309,223],[129,74],[81,103],[-125,238],[-72,365],[151,853],[-101,87],[-672,396],[-148,180],[-155,115],[-272,113],[-159,-52],[-325,200],[-324,80],[-226,-3],[-444,-122],[-327,-69],[-253,39],[-229,147],[139,564],[244,150],[437,-48],[210,843],[-116,106],[-985,106],[322,232],[326,156],[286,197],[874,974],[740,276],[346,28],[-22,-124],[-133,-119],[33,-63],[241,-52],[90,-81],[100,-188],[247,-104],[126,-88],[-6,-194],[304,-59],[191,69],[86,112],[95,51],[171,-24],[55,-128],[144,160],[396,13],[141,-135],[320,60],[581,-153],[119,-125],[301,-17],[559,-565],[-246,-573],[-412,-379],[-650,238],[-245,68],[-1514,150],[-382,-75],[-330,-177],[-134,-301],[499,-163],[2,-99],[638,-73],[39,168],[433,-42],[-49,-174],[259,-28],[-1132,-1323],[-56,-238],[357,-119],[-90,-325],[-36,-324],[398,-58]],[[59101,99765],[1413,-153],[-125,-480],[-1411,147],[123,486]]],"transform":{"scale":[0.000006206589152589046,0.000007784510266777291],"translate":[148.76268469333516,-35.92051207704779]},"objects":{"ACT-heritage":{"type":"GeometryCollection","geometries":[{"arcs":[[[0],[1],[2],[3],[4],[5]],[[6]],[[7]],[[8]],[[9]],[[10]],[[11,12]],[[13]],[[14]],[[15]],[[16]],[[17]],[[18]],[[19,20]],[[21]],[[22]],[[23]],[[24]],[[25]],[[26]],[[27]],[[28],[29],[30],[31],[32]],[[33]],[[34]],[[35]],[[36]],[[37]],[[38]],[[39]],[[40]],[[41],[42]],[[43]],[[44]],[[45]],[[46]],[[47]],[[48],[49]],[[50]],[[51]],[[52]],[[53]],[[54]],[[55]],[[56]],[[57]],[[58],[59],[60],[61]],[[62]],[[63]],[[64]],[[65]],[[66]],[[67]],[[68]],[[69],[70],[71]],[[72]],[[73]],[[74]],[[75]],[[76]],[[77]],[[78]],[[79]],[[80]],[[81]],[[82]],[[83]],[[84]],[[85]],[[86]],[[87]],[[88]],[[89]],[[90]],[[91]],[[92]],[[93]],[[94]],[[95]],[[96]],[[97]],[[98]],[[99]],[[100]],[[101]],[[102]],[[103]],[[104]],[[105]],[[106]],[[107]],[[108]],[[109]],[[110]],[[111]],[[112]],[[113]],[[114]],[[115]],[[116]],[[117]],[[118]],[[119]],[[120]],[[121]],[[122]],[[123]],[[124]],[[125]],[[126]],[[127]],[[128]],[[129]],[[130]],[[131]],[[132]],[[133]],[[134]],[[135]],[[136]],[[137]],[[138]],[[139]],[[140]],[[141]],[[142]],[[143]],[[144]],[[145]],[[146]],[[147]],[[148]],[[149]],[[150]],[[151]],[[152]],[[153]],[[154]],[[155]],[[156]],[[157]],[[158]],[[159],[160]],[[161]],[[162]],[[163]],[[164]],[[165]],[[166]],[[167]],[[168]],[[169]],[[170]],[[171]],[[172]],[[173]],[[174]],[[175]],[[176]]],"type":"MultiPolygon","properties":{"layer":"heritage"}}]}},"properties":{"layer":"heritage","state":"ACT","source":"ACT Heritage Register — registered historic places (ACTmapi)","licence":"CC-BY-4.0","asOf":"2026-09-23","simplify":"100%"}}