{"type":"Topology","arcs":[[[52027,21664],[34,2],[1,-7],[-20,-2],[0,-4],[-7,0],[-2,3],[-6,0],[0,8]],[[56163,23446],[-44,-18],[-60,27],[11,20],[-11,9],[-95,5],[6,44],[86,17],[10,-5],[17,0],[-2,4],[27,-2],[2,1],[20,1],[50,12],[-45,-86],[5,-2],[21,-3],[12,-11],[25,-8],[-35,-5]],[[56708,23528],[-18,-14],[7,-6],[-44,-5],[-6,-4],[-9,20],[-19,19],[46,13],[17,-6],[4,0],[15,-14],[-8,-2],[15,-1]],[[60639,26082],[99,3],[-68,-56],[0,-2],[-89,-3],[-4,29],[-21,0],[-96,34],[1,-2],[-13,-1],[0,5],[-9,4],[-54,18],[-7,-12],[-107,-3],[34,26],[11,15],[52,2],[-3,-3],[16,-4],[-2,-2],[3,-1],[3,-1],[4,2],[5,-2],[-2,-3],[67,-24],[1,-8],[88,-31],[-3,29],[15,2],[44,-10],[35,-3],[0,2]],[[60970,26870],[0,-1],[-34,-10],[-31,-3],[-7,1],[-31,12],[-6,7],[5,11],[8,7],[16,1],[35,-3],[15,2],[8,4],[7,5],[2,5],[-15,15],[20,5],[1,-6],[12,-8],[3,-8],[8,-5],[9,-10],[-3,-12],[-11,-6],[-11,-3]],[[61094,27823],[19,2],[0,-7],[32,-24],[-22,-16],[-17,-1],[-31,15],[3,3],[-4,0],[-3,6],[0,13],[23,9]],[[61291,28393],[11,-91],[-71,-2],[-6,5],[-4,40],[2,12],[-7,0],[2,6],[-3,-1],[-2,14],[7,0],[-1,14],[72,3]],[[61266,28350],[10,0],[-1,5],[-8,0],[-1,-5]],[[61241,28517],[-17,-24],[-27,0],[-4,0],[1,-3],[-4,0],[0,4],[-11,-2],[-14,0],[-3,2],[-2,15],[33,1],[-3,16],[69,2],[-18,-11]],[[61241,28794],[1,-9],[10,0],[2,-22],[-10,0],[5,-14],[0,-5],[-2,0],[0,-2],[-100,-3],[-1,6],[-6,-1],[0,5],[-60,-1],[0,21],[14,26],[136,4],[1,-4],[7,0],[0,-1],[3,0]],[[61202,28773],[-33,-1],[0,-4],[14,0],[1,-7],[13,0],[0,4],[19,1],[-1,1],[7,0],[0,3],[-7,0],[-1,6],[-12,-1],[0,-2]],[[61226,28755],[-19,0],[1,-3],[-10,0],[1,-5],[9,0],[1,-3],[9,0],[0,4],[8,0],[1,4],[-1,3]],[[61198,28825],[2,-9],[-49,-4],[-1,8],[3,0],[0,2],[15,0],[-1,3],[20,1],[1,-3],[5,0],[-1,2],[6,0]],[[61205,28850],[-28,-1],[-2,12],[-6,0],[-10,0],[1,-8],[-8,0],[0,-2],[-14,-1],[-2,12],[-6,0],[-2,11],[30,1],[0,2],[15,0],[0,1],[57,1],[2,-9],[10,0],[0,-4],[-19,0],[2,-13],[-20,0],[0,-2]],[[61187,28927],[-12,-3],[0,-2],[6,1],[0,-2],[8,0],[1,-6],[8,0],[3,-28],[-7,0],[-1,1],[-2,0],[0,-1],[-19,-1],[-1,15],[-7,3],[2,11],[-1,11],[4,1],[-1,6],[-5,-1],[-1,5],[22,1],[0,-9],[2,0],[1,-2]],[[60890,29473],[3,0],[-2,-3],[8,0],[1,-10],[-9,0],[1,-6],[9,1],[1,-6],[-10,0],[1,-11],[3,0],[2,-2],[-4,-1],[3,0],[1,-3],[-3,-1],[2,-3],[-3,0],[3,-15],[-2,0],[0,-2],[5,-15],[9,0],[1,-11],[9,1],[0,-2],[2,-11],[-11,1],[1,-2],[-3,0],[0,4],[-6,0],[-1,6],[-27,0],[-13,32],[20,0],[-2,17],[-18,-1],[-3,9],[3,0],[-1,6],[-9,0],[-3,14],[-4,0],[-2,5],[-7,0],[-3,5],[41,1],[-1,8],[-32,-1],[-4,4],[1,5],[-13,-1],[-1,11],[70,2],[-1,-12],[-3,0],[1,-13]],[[60853,29436],[2,-5],[-22,-2],[-5,11],[9,1],[1,-1],[8,0],[0,-4],[7,0]],[[60870,29556],[1,-6],[-40,-1],[1,-9],[-14,0],[-2,8],[12,1],[-1,4],[-3,-1],[-1,6],[12,1],[0,7],[10,0],[0,-6],[20,0],[-1,13],[19,0],[2,-12],[-4,0],[0,-5],[-11,0]],[[60861,29593],[1,-10],[-19,0],[-2,15],[-30,-1],[4,-28],[-10,0],[0,2],[-8,1],[-24,-1],[-2,9],[32,2],[-2,15],[-6,0],[-3,10],[48,1],[-1,4],[21,1],[0,-4],[5,0],[1,-5],[-15,0],[1,-12],[9,1]],[[60783,29606],[-4,0],[1,-4],[-16,-1],[-6,14],[9,2],[7,-1],[1,-2],[6,0],[2,-8]],[[61039,30141],[-17,-2],[-1,3],[-5,-1],[-2,4],[-6,-1],[-1,4],[13,1],[-12,12],[-30,-4],[0,1],[-5,-1],[2,-4],[-45,-5],[-2,4],[-28,-4],[-2,5],[28,3],[-3,6],[62,8],[-5,6],[52,15],[13,-2],[4,-7],[10,-1],[4,-9],[28,3],[16,19],[42,0],[1,-43],[-6,-9],[-17,-6],[-12,-1],[-14,1],[-7,2],[4,3],[-4,2],[-6,-1],[-29,30],[-93,-11],[68,8],[31,-29],[-8,-3],[-5,5],[-11,-3],[-2,2]],[[60820,30185],[13,-30],[7,-12],[-39,4],[2,5],[-6,1],[18,30],[5,2]],[[60803,30201],[1,-7],[-5,1],[-5,-14],[-9,1],[3,4],[-14,1],[3,5],[4,0],[7,10],[15,-1]],[[60733,30189],[-18,-14],[-28,-1],[1,3],[-7,0],[0,1],[-5,1],[-1,-2],[-14,2],[-6,-14],[-10,1],[5,9],[-7,1],[-10,-14],[-29,4],[-2,-4],[-4,1],[-2,-2],[-1,-7],[-9,2],[24,51],[60,95],[84,89],[22,34],[15,51],[49,1],[5,3],[-18,-67],[-41,-49],[-35,8],[-8,-8],[3,0],[-6,-8],[32,-8],[-7,-10],[7,-3],[-11,-13],[-8,-1],[3,-3],[-17,-20],[7,-19],[4,0],[2,-6],[-3,0],[0,-8],[15,-35],[3,0],[1,-2],[40,4],[4,-8],[8,0],[2,-6],[-8,-1],[3,-9],[-13,2],[1,-5],[-7,1],[-5,14],[-6,0],[-1,2],[-24,-2],[3,-5],[-7,0],[2,-5],[-8,1],[-7,-20],[-12,-2]],[[55482,36540],[8,0],[-1,-6],[-15,1],[1,5],[-31,1],[4,12],[21,-3],[5,2],[10,-3],[-2,-9]],[[55469,36578],[6,0],[-1,-6],[-4,1],[-1,-6],[-7,1],[0,-2],[-12,-3],[-4,-4],[0,-3],[-2,-1],[-18,1],[-1,-1],[-18,0],[2,15],[-20,0],[6,7],[-5,5],[20,5],[27,-1],[-1,-8],[28,0],[1,6],[5,-1],[-1,-5]],[[57168,36840],[51,-2],[0,-5],[-51,2],[0,5]],[[59597,36932],[7,-12],[-22,-3],[-15,14],[9,2],[-4,6],[10,1],[-9,15],[-3,0],[1,2],[25,4],[-4,6],[6,1],[8,-13],[15,3],[-4,6],[14,2],[6,1],[4,-6],[25,4],[-9,13],[50,8],[4,-6],[-33,-6],[4,-6],[5,1],[5,-8],[-10,-2],[5,-7],[-13,-3],[2,-4],[-11,-2],[2,-4],[-21,-3],[5,-8],[-22,-3],[-9,15],[-29,-5],[2,-4],[4,1]],[[59631,36991],[10,1],[3,-5],[-47,-8],[-3,5],[-7,-2],[-3,5],[-8,-1],[-3,4],[1,2],[24,3],[-1,2],[5,1],[3,-3],[5,-2],[3,0],[-7,3],[7,2],[-1,2],[10,1],[9,-10]],[[46702,37630],[-17,13],[119,54],[-14,5],[-1,2],[-13,7],[9,5],[12,3],[-4,1],[89,45],[29,-12],[22,7],[6,-1],[9,2],[-36,19],[24,11],[8,2],[14,-1],[27,1],[21,-3],[36,8],[2,12],[11,1],[3,0],[-1,-7],[26,-15],[30,7],[4,-6],[31,7],[11,-19],[7,-29],[-38,-18],[30,-19],[-23,-11],[24,-28],[3,-32],[14,-7],[-26,-12],[8,-4],[-6,-3],[-7,4],[-11,-5],[2,-5],[-2,-8],[8,-1],[-4,-9],[-7,0],[-3,-6],[-6,0],[-6,-12],[0,-12],[-8,-13],[-4,-14],[25,-14],[-30,-16],[-61,-11],[-33,18],[-26,-13],[-24,9],[-25,-20],[-21,4],[-35,-9],[-52,27],[7,5],[-5,3],[10,4],[3,-1],[5,4],[-30,29],[4,2],[-10,10],[-4,-2],[-33,27],[-67,40]],[[46828,37652],[-7,-7],[8,-4],[-1,11]],[[46921,37546],[2,0],[-38,15],[36,-15]],[[46724,37733],[44,-24],[-65,-32],[-7,3],[8,4],[2,-1],[7,2],[5,3],[-2,2],[2,1],[-40,23],[-5,1],[-13,8],[29,14],[20,-11],[15,7]],[[48555,38617],[-135,-81],[-40,8],[-95,16],[-44,17],[-6,2],[-6,10],[-20,2],[-12,-12],[-90,23],[1,118],[22,-5],[37,39],[8,3],[33,53],[73,-19],[3,-9],[87,-22],[-30,-47],[25,0],[86,14],[31,3],[-8,-29],[3,-6],[15,-11],[42,-8],[-31,-40],[11,-3],[13,16],[17,-3],[-5,-7],[-4,0],[-12,-15],[30,-5],[1,-2]],[[47327,39000],[3,5],[-7,1],[3,4],[10,-3],[2,-2],[-5,-6],[-6,1]],[[47254,39059],[27,-7],[10,5],[31,-17],[-7,-4],[9,-6],[-24,-13],[-32,8],[4,3],[-10,3],[2,3],[-21,5],[5,6],[-20,5],[2,3],[-10,2],[3,3],[11,0],[1,1],[19,0]],[[47311,39088],[-8,-3],[-44,-23],[-3,3],[2,9],[24,13],[25,8],[1,-1],[14,5],[7,-5],[-13,-4],[3,-2],[-5,-2],[-3,2]],[[56382,40442],[16,16],[6,-1],[-15,-17],[-7,2]],[[56485,40492],[-6,1],[-14,-15],[9,-2],[-4,-5],[-20,4],[26,28],[9,-3],[3,3],[3,-1],[-5,-5],[3,-1],[-4,-4]],[[56527,40484],[-9,2],[-2,-2],[-25,6],[8,8],[4,-1],[1,1],[30,-6],[-7,-8]],[[59409,41332],[0,15],[-9,0],[0,2],[9,0],[0,5],[-9,0],[0,3],[19,0],[0,-32],[-10,0],[0,3],[-9,0],[0,4],[9,0]],[[56380,44669],[-36,-18],[-12,6],[-3,-1],[-7,4],[39,19],[19,-10]],[[53278,46383],[8,-16],[-10,-1],[3,-6],[-12,-2],[-8,15],[-1,18],[14,0],[-1,-8],[7,0]],[[46601,47773],[-28,22],[-16,-21],[69,-33],[31,-9],[3,2],[7,-2],[5,5],[10,-3],[11,9],[9,-2],[-36,-33],[-73,22],[-9,14],[-17,-7],[-31,23],[16,7],[-31,12],[41,29],[16,-6],[28,-24],[21,-9],[-8,-4],[-18,8]],[[53790,54439],[-36,-11],[-8,11],[-10,-4],[-5,5],[12,4],[-2,2],[-14,-4],[-5,3],[-30,-10],[-3,3],[45,13],[-3,4],[65,19],[11,-10],[-27,-9],[5,-4],[-6,-2],[11,-10]],[[5470,99622],[0,-2268],[-5470,0],[0,2268],[5470,0]],[[62799,23260],[1,-5],[-3,-3],[-10,-2],[-6,0],[-4,12],[14,11],[17,-5],[-9,-8]],[[62860,23258],[-2,9],[-21,-1],[-1,8],[15,0],[0,2],[16,0],[-2,11],[8,-3],[4,-12],[4,-27],[-26,8],[10,0],[-1,5],[-4,0]],[[61877,26017],[3,-33],[27,11],[7,-4],[-13,-5],[-9,-13],[4,-11],[-13,0],[-1,14],[-46,-2],[3,-25],[-15,-1],[0,7],[-15,-1],[-2,17],[-25,-1],[0,2],[-13,0],[-4,34],[-158,-5],[-1,11],[42,2],[-1,8],[12,0],[1,-5],[14,0],[0,-2],[91,3],[-11,98],[21,0],[6,-66],[6,-1],[-2,-5],[4,-1],[1,-3],[-4,0],[25,-15],[9,0],[-2,-4],[9,-6],[50,2]],[[61613,27793],[-19,-31],[3,-1],[-34,-20],[-57,-2],[13,39],[35,1],[-1,12],[10,0],[8,4],[14,-3],[28,1]],[[61783,28696],[38,1],[-120,-59],[-10,0],[-8,60],[8,0],[1,-5],[3,0],[0,5],[5,1],[82,2],[1,-5]],[[61280,28796],[-1,5],[3,0],[0,5],[9,0],[-2,18],[-31,-1],[-5,22],[0,2],[3,0],[-4,31],[132,5],[0,-4],[4,1],[-1,3],[70,2],[2,-1],[3,0],[0,1],[19,1],[12,-6],[8,-7],[1,-10],[-34,-10],[6,-41],[-30,-1],[-8,4],[-48,-1],[3,-22],[-95,-3],[-5,7],[-11,0]],[[61327,28872],[-21,-1],[1,-7],[21,1],[-1,7]],[[61944,28879],[47,2],[0,4],[44,0],[-16,-18],[-78,-3],[-2,10],[6,0],[-1,5]],[[62348,28908],[3,-34],[-2,0],[0,-5],[-6,0],[0,-2],[-3,0],[0,2],[-47,-2],[0,6],[-3,-1],[-1,5],[-9,0],[0,3],[9,1],[-1,4],[-4,0],[0,4],[-67,-2],[-4,36],[131,4],[1,-19],[3,0]],[[62003,28911],[-68,-2],[-3,22],[3,0],[0,5],[88,3],[1,-5],[20,1],[3,-29],[-43,-1],[-1,6]],[[61295,28954],[3,-26],[-15,0],[-1,-2],[5,-15],[-5,-1],[0,-2],[2,-4],[4,0],[1,-2],[-6,0],[0,-3],[-38,-2],[-1,4],[-9,0],[-4,10],[-8,0],[-1,6],[-11,0],[-8,35],[92,2]],[[61255,28943],[-7,0],[0,-3],[14,0],[-1,7],[-6,0],[0,-4]],[[61741,28950],[2,2],[15,2],[0,3],[15,0],[4,-30],[-47,-2],[-3,23],[14,2]],[[61388,28994],[42,1],[5,-41],[13,-44],[-10,-1],[-40,18],[-25,9],[-7,61],[6,4],[15,-3],[1,-4]],[[62328,29040],[4,-8],[-3,0],[-2,-6],[0,-2],[3,0],[1,-6],[2,1],[1,-7],[-2,0],[-2,-14],[1,-1],[4,0],[1,-4],[2,0],[0,-13],[-131,-3],[-14,125],[-67,-21],[-1,7],[-43,-1],[1,-3],[-9,0],[-2,14],[-7,0],[-3,10],[54,22],[2,-1],[3,4],[9,-1],[10,1],[-2,14],[39,2],[1,-9],[10,1],[0,1],[8,0],[-1,7],[123,4],[-1,-9],[2,0],[2,-4],[24,9],[-6,4],[23,1],[-1,6],[-5,0],[-1,12],[46,1],[-1,6],[-12,0],[0,2],[-8,0],[0,-2],[-12,-1],[0,7],[-37,-2],[-1,7],[5,0],[-2,13],[-2,0],[1,9],[110,3],[1,-5],[43,2],[-22,-19],[9,0],[-1,-5],[9,0],[3,-25],[-9,-1],[4,-15],[-4,-1],[0,-3],[0,-2],[3,0],[1,-9],[-5,-2],[-5,0],[1,-7],[11,1],[1,-15],[8,0],[1,-3],[7,0],[-2,25],[-2,-1],[-1,4],[0,22],[5,0],[0,-3],[5,0],[1,-9],[-3,0],[2,-9],[-1,4],[13,0],[-1,10],[-4,0],[-1,4],[49,2],[0,4],[39,1],[1,-4],[-11,0],[1,-10],[-5,0],[0,-3],[-1,-1],[-15,-1],[-1,-5],[4,-18],[25,1],[4,-22],[3,0],[0,-18],[4,0],[1,-8],[-22,-1],[0,-4],[5,0],[1,-3],[5,0],[1,-6],[7,1],[1,-9],[-3,0],[0,-3],[7,0],[0,-12],[3,0],[0,-5],[0,-2],[-3,0],[0,-1],[3,0],[0,-22],[3,1],[2,-16],[-15,0],[1,-8],[12,0],[0,-16],[7,-17],[-3,0],[1,-14],[3,0],[1,-8],[-3,0],[1,-2],[-11,-1],[0,2],[-23,-1],[1,4],[-5,0],[2,-5],[5,0],[1,-6],[16,0],[0,-2],[5,0],[0,-5],[-5,0],[1,-5],[-37,-1],[19,-10],[1,-10],[-93,-3],[16,-134],[-138,-4],[-8,63],[-12,-1],[0,-2],[-129,-4],[-4,35],[131,5],[3,-17],[9,0],[-6,53],[10,1],[0,4],[-11,-1],[-2,14],[10,0],[0,4],[-3,0],[1,16],[-6,1],[0,2],[5,0],[-1,4],[3,0],[-1,15],[-4,0],[0,14],[10,1],[0,-4],[18,0],[-1,6],[-10,-1],[0,5],[-18,0],[-1,15],[3,1],[0,1],[7,2],[0,6],[-13,0],[-4,16],[1,8],[-3,0],[-1,4],[1,3],[8,2],[-1,8],[2,0],[0,3],[3,0],[-1,6],[-5,0],[-3,10],[-6,-1],[-2,8],[8,0],[-20,13],[6,-21],[-12,0]],[[62320,29130],[-1,-21],[2,0],[1,-4],[3,0],[-1,-11],[5,0],[0,-2],[-5,0],[1,-4],[4,-1],[1,-2],[5,0],[2,-17],[50,1],[-3,16],[-43,-1],[0,4],[3,0],[-1,7],[3,0],[-1,10],[-3,0],[-1,12],[-3,0],[-1,14],[-18,0],[1,-1]],[[62256,29121],[-7,12],[-20,0],[3,-20],[24,8]],[[62526,28907],[-1,12],[-12,7],[0,4],[-20,-1],[1,-13],[1,-4],[4,0],[1,-6],[26,1]],[[62486,28910],[-1,-4],[8,0],[-1,4],[-6,0]],[[62485,29088],[4,0],[-2,-6],[14,1],[-1,11],[-8,0],[0,2],[-8,0],[1,-8]],[[62048,29076],[4,-40],[-3,0],[4,-3],[2,-11],[0,-15],[-25,-1],[1,-9],[1,-5],[24,1],[1,-3],[-3,0],[0,-2],[3,0],[1,-8],[-3,-1],[0,-1],[3,0],[1,-6],[-77,-3],[0,5],[-13,-1],[0,4],[-5,0],[1,-8],[-9,-1],[-3,21],[-28,-1],[-1,13],[28,1],[1,-6],[27,1],[-3,33],[-3,2],[-52,-17],[-4,30],[11,2],[-4,3],[17,8],[0,1],[72,29],[2,0],[17,7],[-2,1],[11,4],[6,-24]],[[62094,29150],[1,-6],[-9,-1],[1,-10],[-14,-6],[-6,3],[-4,-2],[-6,4],[3,5],[-2,5],[4,0],[-1,4],[-3,0],[-1,11],[17,0],[1,-5],[9,0],[1,-2],[9,0]],[[62015,29276],[-53,-2],[-3,19],[46,2],[1,-4],[-8,0],[0,-4],[8,0],[1,-4],[8,0],[0,-7]],[[61809,29295],[0,-4],[-22,-1],[1,-8],[-26,-1],[-2,19],[9,1],[0,2],[19,1],[0,-3],[11,1],[1,-7],[9,0]],[[61874,29307],[2,-9],[-44,-2],[-1,11],[29,1],[0,-2],[14,1]],[[62010,29385],[5,-46],[-9,0],[1,-4],[11,0],[0,-15],[-17,0],[-1,5],[-10,0],[1,-6],[-54,-1],[0,-1],[-9,0],[0,2],[-5,0],[0,-2],[-18,0],[0,6],[-10,0],[-1,8],[-9,0],[1,-15],[-27,0],[-1,10],[-3,-1],[1,-3],[-13,0],[1,-6],[-38,-1],[0,5],[-2,0],[-8,-1],[1,-4],[-30,-1],[1,-1],[-9,-1],[-2,10],[12,0],[-4,21],[37,2],[-1,8],[-10,-1],[-3,17],[-7,0],[1,-5],[-5,-1],[1,-12],[-24,0],[-4,30],[34,2],[1,-5],[50,1],[9,1],[0,3],[14,0],[0,-3],[152,5]],[[61494,29352],[2,-19],[-9,0],[-1,4],[-9,0],[-2,15],[19,0]],[[62157,29380],[-37,-34],[-2,0],[0,1],[-13,0],[-7,0],[0,-2],[-17,-1],[1,-6],[-55,-1],[0,-2],[-2,0],[-6,54],[74,2],[0,2],[5,0],[2,0],[1,-2],[44,1],[-1,4],[25,0],[0,-3],[-12,-13]],[[61374,29367],[4,-27],[-3,-1],[-9,1],[-11,2],[4,5],[-4,19],[-12,0],[-1,5],[27,1],[1,-5],[4,0]],[[61849,29395],[55,1],[0,-5],[-54,-1],[-1,5]],[[61998,29399],[-26,0],[0,3],[-11,-1],[-1,-2],[-10,0],[0,-1],[-16,-1],[0,2],[-3,0],[0,6],[4,1],[0,5],[-161,-5],[-4,34],[17,0],[0,2],[9,1],[0,3],[7,1],[0,4],[18,1],[-3,26],[40,1],[1,-1],[35,2],[4,-32],[68,2],[18,4],[32,-37],[2,-22],[-20,-1],[0,5]],[[61538,29411],[3,-41],[2,-4],[-20,-6],[-2,25],[2,0],[0,2],[-2,0],[-1,6],[3,0],[-3,17],[18,1]],[[62026,29408],[0,7],[-5,-1],[-2,4],[13,3],[-5,6],[-7,-2],[-5,6],[14,3],[-4,8],[-17,-4],[-17,19],[20,4],[-4,4],[-21,-4],[-6,7],[3,1],[-1,1],[49,10],[2,-3],[11,2],[-2,3],[65,6],[9,-31],[-47,-2],[0,-4],[-8,-2],[0,-4],[3,1],[3,-4],[-7,-2],[5,-5],[6,1],[0,3],[32,1],[0,-4],[38,2],[0,-14],[7,1],[1,-7],[3,0],[-1,-6],[7,0],[1,-6],[-50,-2],[1,-6],[-34,-1],[-1,6],[-33,-1],[-1,7],[-15,-1]],[[61934,29534],[4,14],[10,-1],[-4,-13],[-10,0]],[[62011,29542],[-23,-3],[0,3],[-7,1],[1,4],[8,-1],[-1,-1],[30,4],[7,-9],[-13,-2],[-2,4]],[[62085,29551],[-9,4],[-7,-4],[-3,0],[-5,-3],[-4,2],[-7,-5],[-5,2],[7,4],[-7,4],[3,1],[-13,5],[-2,-1],[-7,2],[-7,-4],[-2,1],[25,16],[49,-20],[-6,-4]],[[62079,29568],[-35,14],[4,3],[10,-4],[10,6],[25,-11],[-14,-8]],[[62012,29574],[6,4],[-4,2],[2,0],[-24,10],[5,4],[40,-17],[-25,-16],[-2,1],[11,8],[-9,4]],[[62155,29602],[32,20],[-4,2],[-4,6],[9,-3],[27,17],[-27,11],[16,10],[9,-4],[-6,-4],[3,-1],[9,5],[18,-8],[-4,-2],[8,-4],[3,9],[24,-7],[-2,23],[8,0],[0,3],[2,0],[-3,15],[5,0],[0,1],[-5,0],[0,20],[0,2],[-3,0],[-5,50],[0,4],[3,0],[0,6],[-4,0],[-2,6],[-9,88],[10,0],[-1,2],[101,3],[1,-13],[11,0],[9,-50],[1,-21],[2,0],[0,-22],[-3,0],[1,-9],[3,0],[2,-46],[2,0],[1,-4],[-2,0],[0,-7],[3,0],[1,-7],[-3,0],[1,-4],[2,-3],[10,0],[0,-3],[10,0],[-1,10],[-10,0],[-1,7],[9,1],[0,3],[2,0],[0,4],[-4,1],[1,8],[-2,6],[4,1],[-1,16],[-2,10],[-3,0],[-4,37],[1,8],[-2,0],[-1,8],[0,17],[-3,0],[0,4],[-1,13],[8,0],[-4,36],[25,0],[0,6],[20,0],[1,-5],[40,1],[3,-26],[-6,0],[0,-5],[30,1],[0,-8],[3,0],[1,-14],[2,0],[1,-4],[-13,-1],[0,-4],[2,-4],[10,0],[4,-29],[-6,0],[-1,-6],[-53,-1],[0,-5],[-5,0],[0,-2],[6,0],[0,-6],[5,0],[0,-4],[5,0],[0,-2],[19,1],[0,-4],[0,4],[30,1],[0,-4],[3,0],[3,-26],[-11,0],[0,-6],[6,1],[2,-14],[-9,-1],[0,-3],[16,0],[1,-14],[-14,0],[1,-7],[-8,-1],[-15,-7],[5,-3],[-14,-6],[1,-4],[-15,0],[-22,-13],[-2,1],[-10,-4],[1,-9],[-139,-6],[-94,-50],[9,19],[-12,5],[-3,-3],[-15,6],[-17,-9],[-8,3],[-3,-2],[-6,2]],[[61906,29625],[9,0],[-1,-7],[17,0],[-1,-5],[20,-2],[-1,-4],[7,0],[-1,-4],[9,-1],[-16,-52],[-9,1],[6,21],[-2,0],[0,2],[3,-1],[1,4],[-2,0],[0,1],[-8,-1],[1,2],[-6,1],[0,-3],[-24,1],[1,3],[-7,0],[-1,-2],[-24,3],[0,10],[-90,-4],[-19,0],[0,4],[-9,-1],[-2,14],[9,0],[-1,6],[-19,0],[-3,3],[-5,0],[0,3],[10,0],[-8,55],[-3,5],[0,4],[2,0],[-1,9],[3,-1],[8,3],[24,-11],[-3,-2],[6,-4],[5,3],[26,-11],[2,-17],[16,0],[4,-1],[17,1],[14,-6],[9,1],[1,-3],[9,-1],[-1,-4],[7,0],[2,-3],[11,-2],[0,-2],[9,-1],[-1,-4]],[[62024,29608],[29,18],[-27,11],[5,3],[22,-9],[92,57],[4,-1],[-2,-2],[6,-2],[-9,-5],[7,-3],[-5,-3],[11,-4],[-4,-3],[4,-1],[-14,-9],[-7,-1],[-6,-3],[-5,1],[-9,-5],[18,-7],[-30,-19],[-5,2],[11,8],[-21,8],[-2,-1],[-4,2],[-23,-14],[9,-4],[-3,-2],[26,-11],[-2,-1],[-4,2],[-28,-18],[-34,16]],[[61948,29622],[-33,14],[7,4],[-20,9],[-4,-3],[-16,7],[-3,-2],[-11,4],[8,5],[4,-2],[2,2],[7,-3],[2,1],[-6,3],[4,3],[6,-3],[-3,-2],[5,-2],[2,1],[4,-2],[7,4],[-13,6],[-4,-2],[-3,1],[4,3],[-3,1],[-5,-3],[-9,4],[6,3],[-10,5],[-6,-4],[-2,1],[6,4],[-7,3],[-6,-4],[-26,11],[-9,-6],[-10,4],[-2,-1],[-16,6],[3,2],[-8,3],[4,2],[-25,11],[18,11],[-35,16],[8,5],[-4,2],[7,4],[17,-5],[-4,-4],[18,-8],[4,3],[5,-3],[45,29],[56,-24],[-22,-14],[34,-16],[7,3],[19,-9],[29,18],[22,-10],[-1,-1],[8,-1],[-3,-7],[7,-3],[-35,-76],[-12,5],[-9,-3]],[[62103,29708],[-45,-28],[-6,2],[28,18],[-6,2],[11,8],[-4,1],[5,4],[17,-7]],[[61496,29791],[22,-8],[4,-2],[-2,-2],[16,-6],[1,-4],[-26,10],[-5,-3],[5,-46],[-9,0],[0,2],[-4,0],[-9,0],[0,4],[-9,0],[0,5],[-14,-1],[1,10],[-8,0],[2,10],[10,-1],[0,10],[6,0],[-2,12],[12,7],[2,-1],[7,4]],[[61785,29814],[10,-5],[-6,-4],[-8,4],[-12,-7],[28,-12],[-35,-23],[-3,2],[-11,-8],[-18,8],[-5,-3],[-7,5],[-5,-4],[-11,5],[7,5],[-5,2],[4,3],[3,-1],[4,2],[18,11],[7,-3],[6,4],[-7,3],[7,5],[-3,1],[30,17],[2,-1],[3,1],[11,-4],[-4,-3]],[[61633,29831],[46,-20],[-6,-4],[4,-1],[-6,-3],[26,-13],[-24,-14],[-21,-14],[-29,12],[4,3],[-7,2],[-4,-2],[-32,13],[3,2],[-2,1],[-12,4],[-3,-1],[-12,5],[7,4],[-22,9],[9,6],[-6,2],[2,2],[-19,9],[4,2],[-7,3],[7,5],[-3,1],[32,21],[10,-4],[6,4],[3,-1],[10,6],[-2,1],[6,3],[-11,4],[13,9],[47,-18],[-30,-19],[31,-12],[-12,-7]],[[61278,29904],[-38,17],[-15,14],[7,2],[-26,21],[10,6],[15,-6],[36,11],[-23,18],[-7,-3],[-44,-12],[-4,5],[-7,-2],[-10,12],[-7,-2],[-6,6],[7,2],[-12,12],[6,2],[-10,10],[-7,-1],[-1,1],[-7,8],[6,1],[-5,6],[-5,-3],[-4,3],[37,26],[8,-3],[5,3],[7,-2],[5,2],[-10,7],[6,2],[18,-14],[52,-20],[4,3],[15,-5],[-17,-10],[31,-12],[6,4],[11,-2],[74,-28],[-15,-10],[2,-1],[-7,-4],[7,-4],[-6,-5],[-7,-4],[-11,5],[-16,-11],[27,-18],[-41,-26],[-18,8],[-16,-9]],[[61232,30022],[9,2],[-7,6],[-8,-3],[6,-5]],[[61375,30021],[-50,-1],[1,-8],[-11,-1],[-1,9],[-10,-1],[0,2],[-4,0],[-7,4],[8,5],[2,-1],[10,0],[-1,11],[63,1],[0,-20]],[[61386,30044],[-1,18],[70,2],[2,-18],[-71,-2]],[[61290,30045],[-5,-5],[-12,3],[-2,-2],[-19,7],[4,0],[0,16],[11,1],[-1,10],[32,1],[3,-30],[-11,-1]],[[60757,39875],[7,-18],[-8,-1],[-1,2],[-8,-1],[-7,17],[17,1]],[[60798,39882],[9,1],[7,-7],[-3,-1],[7,-19],[-15,-1],[-8,19],[6,1],[-3,7]],[[62528,28479],[-3,-4],[12,-6],[12,-1],[16,-6],[25,-14],[-7,-11],[10,-8],[-23,-11],[-2,2],[-12,-5],[4,-3],[-18,-10],[-31,-4],[-4,1],[-1,-2],[-47,-7],[-1,2],[-3,-1],[-34,-6],[-4,8],[-32,-5],[3,-4],[-25,-1],[-36,10],[-16,11],[1,2],[-18,15],[-19,6],[-5,7],[3,2],[-1,8],[134,3],[-5,26],[2,5],[18,8],[41,2],[11,2],[35,-14],[6,6],[14,-3]],[[62690,28642],[-2,-7],[21,-5],[21,-12],[21,5],[28,13],[12,-7],[28,0],[0,13],[11,0],[3,2],[25,2],[2,-5],[-9,-8],[-2,-9],[6,-10],[11,-9],[3,-12],[-15,-27],[-2,-15],[-3,-6],[-38,-1],[-6,-3],[1,-16],[-54,-14],[10,-4],[-135,-3],[-7,25],[33,1],[-1,9],[7,5],[36,2],[8,2],[-8,8],[-9,-2],[-28,0],[-15,-2],[-14,-11],[-2,2],[-2,21],[-24,-7],[-9,-10],[-8,-2],[3,-4],[-8,-1],[-22,-12],[-7,-1],[-4,2],[0,6],[18,11],[-7,4],[7,4],[7,1],[-8,-1],[-2,7],[-43,-4],[-10,-4],[0,11],[8,-3],[10,3],[27,3],[-1,4],[9,0],[-1,4],[5,1],[0,4],[12,-2],[16,4],[-2,22],[79,2],[-3,28],[-21,4],[-1,6],[-13,3],[0,1],[10,0],[14,-3],[34,-3]],[[62726,28992],[0,-6],[-2,0],[0,-2],[9,0],[6,-45],[-36,-2],[-37,1],[-3,27],[-24,-1],[-2,12],[-5,0],[0,6],[12,0],[2,1],[-1,7],[-8,0],[-1,5],[56,2],[2,1],[10,1],[0,-2],[16,0],[11,2],[0,3],[-9,0],[-1,4],[-2,0],[-53,-2],[-10,-2],[-8,1],[0,-1],[-3,0],[0,1],[-13,1],[0,4],[3,0],[-11,86],[3,0],[-2,10],[3,0],[-1,5],[-3,0],[0,4],[-2,0],[-2,11],[23,0],[-2,17],[-20,-1],[-1,6],[-2,0],[-2,25],[0,3],[-2,0],[-4,27],[2,8],[-3,0],[-2,12],[24,0],[1,-1],[20,1],[0,-1],[6,0],[0,-1],[48,2],[0,1],[15,1],[0,3],[4,0],[3,1],[39,-14],[10,0],[1,-4],[7,0],[1,-3],[14,0],[0,-3],[4,0],[1,-4],[13,0],[4,-25],[32,1],[1,-6],[-6,-1],[1,-10],[5,0],[0,-4],[21,1],[2,-27],[-9,0],[0,-5],[-30,-1],[1,-7],[-10,-1],[2,-14],[6,1],[1,-9],[2,0],[-2,-6],[45,1],[3,-14],[9,0],[3,-26],[-12,0],[0,-6],[3,1],[1,-10],[-2,-1],[-1,-4],[5,-30],[-167,-5]],[[62708,28985],[-1,7],[-12,-1],[1,-6],[7,0],[-1,2],[6,-2]],[[62773,29050],[-26,-2],[1,-9],[75,2],[-3,30],[-48,-2],[1,-19]],[[62494,29165],[-1,11],[6,0],[0,6],[-5,0],[0,4],[-5,0],[0,2],[5,0],[-1,9],[17,20],[75,3],[7,-53],[-98,-2]],[[62674,29325],[1,-10],[-17,0],[1,-4],[-33,-1],[-1,4],[-6,0],[0,3],[10,0],[-2,6],[36,2],[0,3],[7,1],[3,0],[1,-4]],[[62406,29504],[-34,-5],[-12,21],[-31,-4],[-5,9],[-91,-13],[-8,14],[21,3],[-14,26],[21,3],[-7,12],[26,4],[-8,13],[130,18],[4,-6],[2,0],[12,-20],[-6,-1],[6,-9],[4,1],[6,-9],[-19,-2],[3,-5],[5,0],[2,-3],[8,2],[13,-21],[-13,-2],[88,-12],[-11,-26],[-92,12]],[[62406,29504],[13,26],[-26,-4],[13,-22]],[[62516,29542],[-1,1],[-52,-7],[-5,8],[-3,-1],[-15,26],[-6,-1],[-7,13],[6,1],[-4,7],[-5,-1],[0,1],[-3,0],[-3,5],[62,9],[31,-53],[95,33],[-6,5],[32,11],[45,-34],[-78,-27],[8,-6],[-59,-20],[-8,6],[-19,-7],[-29,23],[24,8]],[[62583,29557],[-72,-25],[10,-10],[2,1],[2,-2],[73,25],[-3,3],[11,3],[3,-2],[21,7],[-1,2],[4,1],[1,-1],[24,8],[-4,2],[5,2],[-8,6],[-64,-22],[-4,2]],[[62636,29613],[-9,1],[-3,-4],[-157,29],[3,5],[9,-2],[5,9],[3,0],[2,3],[2,0],[1,3],[14,-2],[0,3],[-7,0],[2,5],[7,0],[0,4],[10,2],[0,2],[9,1],[0,5],[9,0],[0,3],[17,2],[0,5],[85,2],[0,2],[-84,-3],[-2,25],[75,2],[-1,15],[-68,-2],[-1,7],[-4,0],[-3,11],[-6,0],[0,3],[4,1],[-1,4],[3,0],[-1,9],[3,0],[-1,5],[-2,8],[-5,0],[2,13],[-4,0],[0,5],[-9,0],[-1,6],[11,0],[-1,11],[4,0],[0,4],[-5,0],[0,4],[-2,0],[-3,22],[18,0],[-4,41],[160,5],[13,-5],[4,0],[-1,6],[40,1],[0,-6],[15,1],[-2,-2],[2,-1],[12,0],[0,1],[8,1],[0,5],[10,5],[41,2],[-1,4],[30,1],[5,-45],[9,0],[1,-12],[-9,0],[0,1],[-9,0],[0,-6],[19,1],[16,-9],[-108,-51],[-10,71],[10,0],[0,4],[-22,0],[8,-69],[-2,1],[1,-7],[-33,-1],[15,-8],[-12,-6],[-5,3],[-2,-1],[-2,-1],[5,-3],[-6,-2],[2,-2],[-4,-1],[-4,1],[-3,0],[-4,-4],[-12,-2],[1,-5],[-33,3],[0,-10],[12,-2],[-3,-4],[-9,1],[-2,-5],[-5,1],[-14,-6],[-10,-8],[0,-3],[-5,0],[3,-3],[-6,-2],[-3,2],[-2,-1],[1,-1],[-8,-3],[3,-3],[-3,-1],[2,-1],[-7,-5],[3,-5],[7,0],[14,-7],[10,5],[5,-2],[-3,-2],[6,-4],[5,3],[-3,1],[4,2],[2,-2],[6,4],[38,-21],[16,8],[1,-1],[4,-2],[-14,-9],[-7,4],[-11,-5],[-4,2],[-10,-6],[7,-4],[-3,-1],[7,-4],[-5,-3],[6,-3],[-2,-1],[2,-1],[10,5],[43,-24],[-8,-4],[-5,0],[-6,-2],[-7,7],[3,2],[-12,5],[-4,-1],[-17,2],[-9,-3],[-2,1],[10,-17],[-2,-5],[4,-11],[-11,-4],[6,-4],[-16,-5],[-4,3],[-9,-3],[-27,21],[-10,1],[8,4],[-7,4],[7,3],[-17,9],[0,-13]],[[62637,29652],[-21,1],[0,-24],[21,2],[0,21]],[[62505,29917],[6,-25],[-10,-1],[0,-5],[-108,-3],[-3,31],[115,3]],[[61651,35731],[-20,-13],[-8,3],[-3,-1],[-8,3],[27,19],[-2,0],[4,3],[6,-2],[7,4],[5,-2],[-16,-10],[8,-4]],[[63054,27593],[-34,-5],[-3,-24],[8,-10],[20,-11],[13,-13],[-23,-5],[-36,-32],[-253,84],[-29,20],[56,13],[-2,18],[39,1],[-3,20],[37,1],[1,1],[5,0],[4,3],[80,3],[118,-14],[0,-15],[22,-16],[0,-7],[-10,-8],[-10,-4]],[[62827,28412],[35,-1],[13,-26],[14,-14],[0,-4],[-4,-6],[8,-14],[-20,-19],[5,-16],[-10,-9],[-8,-4],[-2,-4],[4,-5],[29,-12],[9,-7],[0,-4],[-8,-10],[-6,-3],[-4,-5],[-14,-7],[-3,-8],[-20,2],[-12,-1],[-5,-3],[-7,-9],[-29,-6],[-7,-6],[-7,-2],[-10,7],[-5,1],[-2,3],[-5,1],[9,8],[-1,12],[11,8],[19,6],[11,13],[-7,4],[-4,-1],[-1,5],[2,4],[10,0],[14,47],[3,6],[5,0],[0,2],[-3,0],[1,6],[-2,1],[2,6],[5,0],[-5,6],[10,0],[-8,13],[-4,34],[-33,-1],[10,-14],[-13,0],[-5,8],[-10,-2],[5,-11],[-10,-1],[-3,10],[-3,0],[-5,9],[-2,3],[-4,0],[-2,4],[17,2],[16,6],[7,-11],[6,0],[-3,17],[42,2],[2,-2],[-8,-8]],[[63015,28669],[-18,-2],[-1,6],[-17,2],[-23,5],[-20,-1],[0,4],[-21,-4],[-10,-4],[2,-1],[-3,-2],[-9,0],[-1,5],[-8,-1],[6,9],[-2,3],[-2,1],[-12,0],[-1,-7],[-13,0],[-2,6],[-40,-1],[0,-5],[-8,-1],[1,-8],[-2,0],[-12,-2],[-9,0],[-1,-3],[-13,0],[-3,-6],[-11,-3],[-17,3],[-7,-2],[-1,-2],[-30,8],[-2,2],[4,3],[-3,8],[-24,-1],[0,3],[6,4],[-4,3],[6,4],[19,-2],[4,-3],[9,2],[6,5],[13,-8],[-3,-8],[-12,-3],[2,-2],[10,-3],[4,-3],[3,0],[-4,3],[6,2],[7,0],[8,7],[13,3],[17,0],[10,-3],[-1,2],[-13,5],[-2,3],[7,3],[-29,16],[-16,5],[-2,5],[9,7],[7,1],[13,-5],[13,-7],[4,1],[8,-9],[5,-11],[5,-3],[-3,38],[16,1],[3,3],[6,-3],[9,-34],[29,1],[-3,6],[10,5],[1,6],[13,-1],[-2,9],[20,-1],[10,-3],[0,3],[10,-1],[0,-3],[34,1],[-4,-19],[3,-1],[19,-1],[52,2],[-2,9],[28,1],[1,-10],[51,2],[15,-2],[-3,-5],[8,2],[38,-4],[11,2],[2,-20],[-84,11],[-41,-4],[1,-5],[41,3],[76,-7],[73,-10],[25,-5],[10,-4],[6,-5],[2,-22],[13,-8],[2,-17],[-11,-15],[0,-7],[12,-10],[23,-8],[10,-7],[4,-7],[3,0],[-4,-15],[-12,-10],[11,-12],[9,-6],[22,-4],[13,0],[19,-1],[4,7],[19,8],[3,-1],[6,2],[24,4],[5,3],[14,5],[12,-3],[14,5],[6,-4],[30,1],[32,12],[23,3],[22,1],[9,-1],[22,-6],[2,0],[16,-15],[-4,-1],[4,-8],[13,-3],[-8,-7],[-21,-34],[28,-4],[31,-11],[10,-5],[10,2],[5,-1],[3,1],[6,-3],[-26,-10],[-4,-5],[-11,-2],[-18,-7],[-11,-8],[-9,-4],[-20,-3],[-9,-4],[-26,-2],[1,1],[-11,1],[-50,17],[-80,5],[-23,-2],[-8,-2],[-12,0],[-8,4],[-12,2],[-8,5],[-17,-2],[-15,5],[-19,-2],[-20,12],[-25,9],[-16,8],[-6,13],[-16,14],[0,5],[-14,6],[-30,-1],[-6,5],[-15,3],[-47,-4],[-25,-5],[-60,-2],[-46,17],[-4,4],[-18,148],[22,2],[-3,5],[-3,-1],[-2,-3]],[[62817,28881],[2,-12],[35,2],[0,-5],[3,0],[0,-2],[4,0],[2,-7],[-19,-12],[-2,-3],[0,-9],[-8,-1],[0,-2],[-11,-1],[0,9],[-26,-1],[-2,30],[12,0],[-1,4],[-5,0],[-1,12],[12,1],[0,-3],[5,0]],[[63010,29040],[1,-5],[-10,0],[5,-34],[-91,-3],[-2,16],[9,0],[0,1],[0,2],[-7,0],[0,1],[-3,0],[-1,9],[9,1],[0,4],[-2,13],[-8,0],[0,4],[-2,0],[0,4],[5,0],[-1,5],[-3,0],[-4,20],[13,0],[0,3],[-1,2],[-10,0],[0,5],[-3,0],[-5,29],[36,1],[-2,15],[51,0],[1,-2],[-5,0],[3,-21],[18,-1],[0,2],[37,1],[1,-5],[4,0],[1,-4],[3,0],[1,-5],[6,-1],[1,-4],[7,0],[1,-7],[8,0],[0,-4],[8,-1],[3,-7],[13,-10],[5,0],[2,-4],[2,0],[1,-5],[-31,-1],[0,2],[-4,0],[0,-2],[-12,0],[0,-2],[-10,-1],[-3,22],[-8,1],[0,-2],[-7,-1],[0,-6],[4,0],[0,-3],[-2,0],[0,-4],[-4,0],[1,-12],[-10,-1],[0,-2],[-9,1],[-9,3],[1,-7],[8,0]],[[62818,29214],[50,1],[1,-1],[4,-22],[-6,-4],[-63,24],[-11,0],[0,6],[-18,0],[-1,6],[42,1],[2,-11]],[[62714,29319],[6,0],[1,-2],[4,0],[0,1],[6,0],[0,3],[11,0],[2,-8],[2,0],[1,-7],[6,1],[0,-3],[5,0],[1,-4],[-48,-1],[1,-5],[6,-2],[0,-2],[-5,-1],[-3,1],[-3,4],[-11,0],[-5,41],[5,0],[0,-3],[11,1],[0,-4],[4,1],[0,-4],[3,0],[0,-7]],[[62910,29371],[10,0],[1,-4],[-11,0],[0,4]],[[62877,29362],[0,3],[-8,-1],[-1,4],[9,0],[-1,2],[-8,-1],[-1,11],[8,0],[1,-7],[8,0],[-2,-3],[3,0],[1,-8],[-9,0]],[[62854,29414],[3,-21],[-11,-6],[8,-4],[-7,-4],[2,-15],[-8,3],[-9,-5],[-32,14],[14,8],[-8,3],[20,12],[-8,4],[17,10],[19,1]],[[62900,29377],[5,0],[1,-3],[-5,-1],[0,-1],[-8,0],[-3,28],[-8,0],[0,3],[-16,0],[-3,6],[68,1],[1,-16],[3,0],[0,-4],[8,1],[1,-5],[-5,0],[0,-4],[-21,-2],[-13,2],[0,-3],[-5,0],[0,-2]],[[62854,29414],[-33,13],[19,6],[-6,5],[-19,-6],[-9,7],[5,1],[3,-2],[8,2],[-6,5],[3,0],[5,-4],[16,5],[-5,5],[3,0],[5,-4],[7,2],[-1,3],[7,0],[1,-3],[4,0],[-2,-11],[6,1],[2,1],[0,-1],[11,-1],[2,3],[5,0],[4,-1],[0,-1],[21,1],[0,-2],[10,1],[2,-17],[-27,0],[1,-7],[-42,-1]],[[62879,29459],[1,-4],[-5,-1],[0,-3],[-7,0],[-1,3],[-6,0],[0,2],[-2,0],[-1,7],[14,0],[1,-4],[6,0]],[[62734,29450],[-3,5],[-13,-3],[-10,27],[4,0],[0,-1],[11,1],[1,-4],[3,0],[12,-14],[16,5],[14,-12],[-34,-10],[-1,3],[-2,0],[-3,2],[5,1]],[[62846,29473],[-5,3],[-7,-2],[-5,2],[-4,-2],[-3,3],[-5,-2],[5,-5],[-4,-1],[-6,-2],[-9,4],[-2,-1],[-17,13],[31,10],[-67,39],[-25,-7],[-7,4],[30,12],[-16,9],[-7,-3],[-2,1],[1,11],[7,0],[1,5],[19,1],[10,-3],[3,2],[5,-2],[16,12],[-6,2],[5,5],[-1,3],[-14,6],[4,4],[-11,0],[0,6],[11,10],[11,4],[12,6],[0,6],[-3,1],[6,4],[-10,3],[5,13],[3,0],[-3,1],[8,9],[-2,0],[10,7],[6,0],[11,-4],[14,-1],[10,5],[1,5],[10,-3],[23,17],[4,0],[11,-4],[4,3],[5,0],[143,-30],[13,16],[11,-6],[-5,-6],[8,-3],[-8,-5],[-2,-5],[-6,2],[-1,-1],[-2,1],[-5,-5],[3,-1],[-19,-14],[-7,-3],[-11,-14],[-6,-4],[-4,2],[-3,-1],[3,-1],[-16,-12],[-7,0],[0,-5],[-37,-27],[10,-4],[-7,-5],[-10,4],[-19,-14],[-3,-2],[9,-5],[-83,-61]],[[62846,29583],[8,6],[-8,3],[2,1],[-8,3],[-5,-3],[-5,2],[-3,-2],[19,-10]],[[62901,29570],[24,-9],[7,6],[-7,3],[11,9],[-15,6],[-20,-15]],[[62713,29506],[1,-3],[17,2],[5,-14],[-31,-4],[-12,31],[32,5],[5,-13],[-13,-1],[-1,2],[-12,-2],[1,-3],[8,0]],[[62716,29579],[-3,-8],[-17,-1],[2,7],[20,6],[3,-2],[-5,-2]],[[62819,29687],[-7,-3],[-4,2],[-10,-4],[-6,3],[-6,-2],[-8,4],[14,7],[5,-2],[-4,-2],[5,-3],[14,4],[7,-4]],[[62771,29691],[-22,-10],[-10,5],[22,11],[4,-2],[7,3],[4,-2],[-8,-3],[3,-2]],[[62737,29699],[5,-3],[-13,-4],[-5,2],[13,5]],[[62782,29700],[-5,-2],[-6,4],[4,2],[-6,3],[-4,-2],[-10,4],[13,6],[29,-16],[-7,-3],[-8,4]],[[62853,29710],[-7,4],[5,3],[7,-5],[4,2],[6,-7],[-10,-3],[-5,6]],[[62817,29735],[-5,-2],[11,-7],[-5,-2],[-5,3],[-4,-2],[-2,1],[-7,-3],[-2,1],[-2,-3],[2,-1],[-9,-4],[-10,5],[-2,-1],[-9,5],[-2,-1],[-6,3],[-2,-1],[-9,5],[4,3],[2,-2],[7,4],[15,-9],[6,4],[11,5],[-7,4],[13,6],[4,-3],[3,2],[3,-2],[-2,-1],[9,-7]],[[62735,29730],[-3,1],[-3,-2],[-2,2],[7,3],[-3,2],[5,2],[12,-6],[-8,-6],[-3,2],[-3,-1],[-3,1],[4,2]],[[62814,29760],[-7,4],[9,5],[-3,3],[-3,-1],[-5,6],[8,4],[19,-20],[-6,-3],[-3,3],[-3,0],[-2,1],[-4,-2]],[[63857,23487],[1,-3],[30,0],[18,-3],[3,-11],[-6,-3],[-3,0],[-5,2],[1,7],[-30,4],[-13,0],[-18,-4],[-19,-7],[-10,-8],[-4,-6],[11,-6],[9,-8],[3,-3],[7,0],[-8,-1],[2,-1],[-10,-10],[-8,-2],[1,1],[-13,3],[-3,-1],[3,-2],[-4,1],[1,1],[-4,0],[3,2],[-6,3],[-4,0],[-2,-3],[-1,2],[-2,-1],[-1,1],[-5,-1],[-4,1],[-8,-1],[-2,1],[-1,-1],[-5,0],[-4,3],[6,5],[-4,1],[-8,-5],[-3,0],[-3,-2],[-3,0],[-5,14],[3,-1],[31,3],[-4,10],[-16,-2],[-8,20],[16,2],[-6,16],[-16,-1],[-2,5],[-16,-2],[-2,5],[32,4],[0,2],[20,2],[6,-3],[29,4],[2,-6],[-22,-2],[12,-32],[18,2],[11,10],[3,-1],[14,3],[25,3]],[[64203,23710],[-10,9],[8,4],[35,-3],[-33,-10]],[[63434,27195],[-101,2],[-2,23],[147,5],[0,-1],[-13,-4],[-36,-22],[5,-3]],[[63491,28626],[56,-19],[11,-6],[35,-8],[67,-4],[24,-7],[55,-5],[23,3],[-63,-56],[25,-4],[-2,-7],[-8,-2],[-12,-1],[-17,3],[-6,5],[-7,4],[-3,-1],[-16,16],[4,1],[-24,9],[-54,-2],[-24,-9],[-15,7],[-17,-10],[-29,2],[-11,-1],[-38,-12],[-28,-4],[-17,-9],[-12,-3],[-21,0],[-17,5],[-3,22],[-3,0],[4,15],[3,0],[-1,6],[-10,8],[-28,10],[-9,8],[1,10],[10,8],[7,11],[-5,7],[-17,13],[0,18],[-6,7],[32,-1],[22,2],[10,-12],[13,7],[14,-12],[13,-1],[50,0],[30,-4],[14,-7]],[[64175,28639],[16,-6],[9,0],[0,1],[6,-2],[-1,-5],[7,-10],[11,-4],[-10,-15],[-19,-13],[1,-2],[-13,3],[7,19],[-11,5],[-11,1],[4,11],[-25,1],[-9,7],[16,6],[-1,1],[-9,0],[-8,11],[15,3],[-1,2],[16,3],[6,1],[3,-1],[5,3],[7,-9],[-4,0],[-8,-7],[2,-3],[-1,-1]],[[63059,28873],[-28,-24],[-12,5],[-11,16],[-49,0],[-4,33],[41,2],[6,-17],[56,2],[1,-17]],[[63257,29083],[-47,-1],[0,2],[-4,0],[0,-2],[-20,-1],[0,3],[-12,0],[-1,4],[8,1],[0,3],[8,2],[0,2],[14,1],[0,-2],[8,-1],[10,0],[-1,3],[15,1],[0,-2],[8,0],[1,-5],[7,0],[5,-4],[1,-4]],[[63083,29111],[11,0],[0,2],[3,0],[1,-5],[10,0],[0,-5],[-11,0],[0,-5],[8,0],[1,-5],[-35,-1],[-6,5],[5,0],[0,5],[-4,0],[-1,5],[-6,0],[-3,11],[-9,-1],[0,6],[31,1],[-1,-12],[6,-1]],[[63015,29240],[-7,53],[-23,0],[0,1],[-9,0],[0,-4],[-16,-1],[-3,9],[-11,0],[1,-5],[-3,0],[1,-4],[2,0],[0,-5],[-18,-1],[-1,5],[-14,0],[1,-5],[6,0],[0,-4],[-32,-1],[0,4],[-7,0],[-2,19],[11,0],[-1,5],[-2,0],[-1,5],[-8,0],[-5,39],[118,4],[-2,10],[-3,0],[-1,6],[4,0],[-1,2],[10,1],[-2,11],[9,1],[0,3],[61,2],[2,-16],[-12,0],[0,-2],[-7,-2],[-7,1],[-1,6],[-8,0],[-1,9],[-4,0],[0,-2],[-17,0],[0,2],[-4,-1],[-2,-4],[2,-3],[3,0],[0,-3],[-3,0],[1,-2],[-10,-1],[2,-13],[72,2],[1,-10],[41,1],[-4,11],[27,0],[7,-58],[11,0],[-1,4],[6,0],[-1,6],[-2,0],[-1,5],[-3,-1],[0,7],[8,0],[-3,19],[15,0],[-1,6],[12,0],[1,1],[-3,7],[12,0],[-1,-5],[-5,0],[1,-6],[-5,0],[2,-21],[51,2],[-1,7],[-18,0],[-3,25],[3,0],[0,1],[17,0],[0,1],[7,1],[1,-4],[7,1],[0,1],[2,0],[0,-2],[4,1],[0,1],[14,-1],[0,3],[7,0],[8,-61],[-2,-2],[3,-6],[-23,-2],[-1,9],[-10,-1],[-1,7],[-21,-1],[1,-9],[10,0],[1,-10],[25,1],[0,-4],[20,0],[4,-32],[-2,0],[0,-2],[-21,0],[1,-3],[-92,-3],[-2,14],[-24,-1],[-4,40],[-30,-1],[0,2],[-3,0],[-2,0],[0,-2],[-22,1],[6,-56],[-82,-2]],[[62933,29320],[-6,0],[0,-2],[3,0],[0,-5],[24,0],[-4,12],[-16,-1],[-1,12],[-14,0],[2,-12],[11,0],[1,-4]],[[63042,29382],[8,0],[-1,4],[-8,0],[1,-4]],[[62975,29369],[0,-4],[-5,0],[0,-2],[-5,1],[0,3],[-10,-1],[1,-4],[-18,0],[0,4],[-9,0],[1,-5],[-8,-1],[-1,7],[8,1],[-1,2],[12,0],[1,1],[22,1],[0,-3],[12,0]],[[63022,29373],[0,-8],[-9,0],[0,8],[9,0]],[[62950,29377],[10,2],[-10,0],[0,1],[5,2],[-1,1],[7,0],[1,-7],[-12,0],[0,1]],[[63110,29392],[1,-9],[-7,0],[-1,9],[7,0]],[[63246,29396],[-13,-9],[11,-4],[4,3],[27,-10],[0,-2],[-4,0],[-2,-2],[-2,1],[-5,-4],[-10,4],[0,-6],[-112,-3],[-7,51],[9,-3],[13,10],[114,3],[1,-3],[-2,0],[-10,-7],[13,-5],[3,-23],[-28,9]],[[63157,29392],[6,-2],[13,10],[-20,7],[-10,-8],[9,-3],[2,-4]],[[63215,29393],[-12,4],[-2,-2],[8,-3],[-3,-3],[4,-1],[5,5]],[[62982,29387],[0,-3],[-9,-1],[-5,11],[7,0],[0,-3],[10,0],[1,-3],[-4,-1]],[[63088,29402],[1,-6],[12,0],[0,-5],[-6,0],[0,-5],[-9,1],[-1,4],[-10,0],[0,3],[2,2],[-1,3],[2,0],[-1,14],[-2,0],[1,2],[5,0],[2,-13],[5,0]],[[63468,29439],[48,1],[0,-2],[7,1],[0,-5],[15,0],[1,-3],[9,1],[3,-21],[-17,0],[0,-6],[-3,0],[2,-10],[10,0],[0,-2],[-21,-1],[1,-7],[-21,-1],[0,-2],[-6,0],[0,-1],[-37,-1],[0,4],[-11,-1],[-4,33],[-2,1],[1,6],[-11,0],[0,4],[-6,0],[-1,4],[-5,0],[-1,6],[12,0],[2,-1],[9,1],[2,-2],[8,1],[0,2],[6,0],[0,2],[4,0],[0,2],[5,0],[1,-3]],[[62965,29403],[2,-7],[-7,0],[0,-2],[-9,0],[-1,7],[-2,1],[3,0],[0,1],[14,0]],[[63024,29400],[0,5],[7,0],[1,-11],[-12,0],[0,3],[-10,0],[-2,13],[11,1],[0,-8],[-2,0],[0,-2],[7,-1]],[[62970,29410],[5,0],[1,-8],[-5,0],[-1,8]],[[63120,29417],[2,-10],[-11,-1],[-1,9],[6,0],[-1,2],[5,0]],[[63740,29448],[-3,-1],[-1,11],[5,0],[10,-6],[0,-3],[-7,-2],[0,-3],[-3,0],[-1,4]],[[63116,29433],[6,-1],[1,-4],[-17,-1],[-1,9],[-35,1],[0,3],[26,1],[-1,1],[9,1],[1,-6],[10,0],[1,-4]],[[63199,29450],[-14,0],[1,-8],[30,1],[0,-4],[11,1],[-1,-5],[-11,0],[0,2],[-14,-1],[0,3],[-28,-1],[1,-11],[-12,-1],[0,2],[-6,0],[-2,13],[-16,-1],[1,-1],[-9,0],[-2,13],[32,1],[-1,4],[39,2],[1,-9]],[[62970,29448],[-1,-6],[-15,0],[2,-14],[-15,0],[-1,10],[-5,0],[0,3],[-15,0],[-1,5],[9,0],[-1,5],[4,0],[-2,8],[15,0],[0,-3],[3,0],[1,-4],[19,1],[3,-5]],[[63011,29444],[-2,0],[0,-1],[-6,0],[0,-5],[14,0],[0,-4],[-12,0],[1,-2],[-14,0],[-4,31],[9,0],[0,-1],[3,0],[0,1],[13,0],[-1,11],[11,1],[0,-6],[9,1],[-1,5],[52,1],[0,1],[8,0],[0,-1],[26,0],[-1,-7],[2,0],[1,-12],[-46,-1],[1,-6],[6,1],[1,-7],[-28,1],[1,9],[-33,-1],[0,1],[-13,0],[3,-10]],[[63020,29483],[0,2],[-9,0],[-5,5],[-6,-1],[1,-2],[-15,-2],[-21,22],[2,1],[-5,5],[-2,-1],[-6,6],[6,2],[-18,19],[7,2],[20,15],[20,11],[-2,0],[-1,5],[7,0],[6,5],[6,0],[7,5],[2,-1],[3,2],[-8,3],[3,2],[8,-2],[3,2],[6,-2],[9,7],[-8,3],[9,8],[9,-4],[10,8],[5,1],[37,1],[-2,15],[10,1],[3,-23],[-11,0],[1,-2],[-11,-1],[0,-3],[9,0],[2,-5],[6,-39],[-1,-12],[3,1],[1,-4],[-4,-1],[1,-1],[2,-7],[4,0],[-3,-4],[-5,-1],[1,-6],[2,0],[1,-5],[3,0],[1,-5],[0,-5],[-3,0],[0,-2],[-2,0],[3,-7],[-1,-8],[-90,-3]],[[63072,29523],[12,0],[-1,5],[-12,0],[1,-5]],[[63472,29513],[0,-4],[6,0],[2,-9],[2,0],[0,-2],[8,1],[0,-6],[-88,-3],[-4,36],[49,2],[1,-5],[3,0],[1,-10],[20,0]],[[63389,29535],[-2,-1],[0,-20],[8,1],[-2,-4],[-3,0],[1,-15],[-63,-2],[-3,0],[0,-1],[-37,-2],[-66,-1],[0,-2],[-7,0],[-1,3],[-35,-1],[1,-4],[-7,0],[0,2],[-11,0],[0,-3],[-6,0],[-1,4],[-11,-2],[-2,16],[-14,0],[0,4],[14,0],[-5,34],[248,9],[1,-5],[2,0],[0,-2],[-2,-1],[1,-6],[2,-1]],[[63133,29648],[0,5],[15,0],[-2,-6],[-13,1]],[[63440,31267],[-9,-9],[7,-2],[-3,-2],[5,-1],[-4,-4],[20,-6],[-45,-45],[-46,13],[-51,7],[122,120],[44,-12],[-4,-4],[9,-4],[5,-10],[24,-7],[-42,-43],[-32,9]],[[63471,31306],[-1,2],[-6,2],[-6,-6],[6,-2],[7,4]],[[63826,33771],[-17,23],[-22,-2],[12,-17],[-10,-4],[-12,14],[-25,-4],[-2,3],[-10,0],[-7,11],[-6,-1],[-1,6],[62,3],[-1,5],[22,2],[24,-18],[3,-19],[-10,-2]],[[63782,34908],[20,-8],[-12,-6],[-10,2],[-1,-1],[-3,1],[4,4],[-20,5],[0,-2],[-8,1],[0,3],[16,5],[2,-5],[7,0],[5,1]],[[63702,34903],[-1,2],[-13,-5],[1,8],[4,1],[2,10],[-3,0],[1,6],[39,13],[15,-20],[-12,-3],[-4,4],[-7,-2],[9,-13],[-31,-1]],[[63778,34944],[59,7],[4,-12],[-59,-7],[-4,12]],[[59421,69309],[-5,36],[1,32],[12,35],[17,16],[1,16],[18,-4],[1,-38],[286,1],[3,-118],[-68,-2],[-98,23],[-168,3]],[[65360,23737],[-2,-7],[7,-1],[-7,-2],[-17,-3],[-18,2],[4,13],[33,-2]],[[65360,23737],[-33,3],[4,13],[12,8],[-19,8],[5,3],[10,0],[6,2],[-5,3],[12,4],[15,-10],[-1,-2],[13,3],[4,5],[30,-20],[-15,-15],[-8,-2],[-11,-8],[1,-1],[-21,1],[2,5],[-1,0]],[[68191,24691],[50,19],[-43,28],[116,47],[87,-58],[-32,-10],[-47,-20],[8,-1],[14,-7],[15,-4],[-33,-26],[-29,10],[-30,-22],[-2,-4],[-74,48]],[[67115,26142],[-20,20],[-31,-7],[6,-7],[10,-5],[11,-4],[9,2],[8,-7],[-42,-11],[5,-5],[-113,-31],[-25,25],[10,3],[6,-6],[36,9],[-4,4],[26,7],[-47,45],[-25,35],[44,11],[10,0],[2,-1],[-6,-4],[8,-8],[19,-2],[6,-5],[21,3],[5,-5],[-5,-4],[53,14],[58,-57],[-35,-9]],[[65069,26909],[-2,-15],[-8,1],[-1,-8],[-59,1],[0,-8],[-5,0],[0,8],[-25,0],[-37,-5],[-1,-8],[-13,1],[0,5],[-18,0],[0,10],[13,0],[0,9],[3,-2],[16,-2],[0,-3],[9,-2],[2,7],[30,0],[1,14],[57,-1],[0,-2],[38,0]],[[66224,26996],[-11,-2],[14,-14],[-11,-3],[3,-2],[-12,-3],[10,-10],[12,3],[18,-17],[9,2],[4,-4],[-45,-12],[-17,16],[-11,-3],[-25,24],[1,7],[-7,0],[0,2],[-5,1],[1,5],[-17,0],[5,23],[-29,28],[-4,2],[1,3],[5,-5],[58,-3],[-4,-20],[50,-3],[18,-14],[-11,-1]],[[65537,27685],[-6,-9],[7,-2],[-4,-1],[2,-1],[2,-2],[4,1],[8,-6],[-3,-1],[10,-9],[4,0],[-2,-2],[5,-1],[-4,-6],[12,-2],[-4,-6],[-9,1],[-1,-2],[-4,1],[1,2],[-14,1],[4,7],[-5,1],[-28,23],[-4,-2],[0,16],[-52,14],[15,12],[20,-5],[14,19],[2,-34],[4,0],[0,-1],[8,0],[0,-5],[18,-1]],[[66622,27955],[-5,-23],[10,-1],[-2,-4],[5,-1],[-1,-1],[-22,2],[1,2],[-11,1],[-8,-20],[5,-2],[9,14],[25,-3],[-6,-13],[-9,1],[-3,-10],[-8,1],[1,2],[-7,1],[-10,4],[0,-2],[-12,1],[1,3],[-8,1],[2,5],[-12,3],[1,3],[-5,0],[1,1],[-13,2],[2,4],[-10,4],[1,2],[-8,1],[-6,-15],[-21,2],[22,20],[-9,3],[3,1],[-2,15],[29,8],[12,-10],[-12,-3],[5,-5],[-2,0],[-2,-9],[49,-5],[4,22],[-7,0],[1,3],[32,9],[-3,-4],[5,-1],[-6,-9],[4,0]],[[66599,28010],[20,1],[-1,-4],[3,-4],[-3,-8],[-17,6],[-5,-2],[-5,2],[-9,-2],[9,-8],[-13,-4],[-10,9],[-10,-3],[-7,8],[-20,-7],[-2,2],[-16,-5],[10,-8],[5,2],[12,-10],[-7,-2],[-9,1],[-12,-4],[-4,25],[-7,6],[16,5],[4,-3],[21,5],[4,-4],[2,1],[-5,6],[5,1],[-4,4],[6,1],[6,-5],[9,3],[1,-1],[5,1],[-1,1],[9,3],[5,-4],[8,2],[7,-7]],[[66747,28014],[-47,10],[-27,-5],[-9,-10],[-51,29],[17,5],[4,-3],[37,11],[5,-4],[2,1],[16,-13],[24,6],[29,-27]],[[66472,28046],[0,-2],[6,-1],[0,-6],[20,-4],[27,-1],[-13,11],[22,7],[-12,10],[10,2],[-7,8],[4,1],[6,-6],[-1,-6],[22,-20],[-75,-21],[-24,23],[15,5]],[[66691,28184],[-8,-2],[-1,2],[-34,-7],[2,-2],[-5,-1],[3,-3],[-7,-2],[8,-10],[-7,-1],[-16,18],[-8,-2],[0,-1],[-9,0],[1,-4],[-21,0],[-42,-9],[2,-2],[-14,-20],[-17,0],[17,-13],[-21,-6],[-7,10],[-2,17],[13,25],[25,4],[3,-5],[43,8],[14,0],[-1,8],[12,0],[0,-3],[10,0],[0,2],[13,3],[-3,4],[25,4],[7,-9],[16,4],[4,-6],[4,1],[1,-2]],[[67340,28312],[-35,3],[-2,4],[-4,0],[-1,4],[7,0],[0,4],[4,0],[0,-5],[15,1],[-1,2],[3,0],[6,0],[0,-3],[13,2],[16,-4],[9,4],[24,-13],[-7,-5],[2,-2],[3,-1],[1,2],[10,-2],[12,-6],[3,0],[6,8],[-4,0],[6,7],[20,-5],[-6,-6],[-3,0],[-4,-5],[5,-2],[-4,-5],[-2,1],[-7,-9],[4,-1],[-2,-3],[-52,10],[-5,-5],[-6,1],[5,6],[-20,0],[18,8],[-27,15]],[[64999,28257],[-17,-42],[-10,1],[10,25],[-12,2],[1,4],[12,-1],[6,13],[10,-2]],[[66066,28396],[-96,-83],[16,-14],[-46,-15],[49,-75],[-15,-9],[-15,-2],[-48,3],[-82,-3],[-8,5],[-3,14],[-100,87],[1,1],[-25,22],[1,1],[-37,33],[-5,1],[-24,22],[-45,8],[-76,12],[28,49],[-13,2],[19,33],[184,-28],[42,13],[16,-13],[119,37],[36,-31],[35,10],[92,-80]],[[65813,28310],[-37,33],[-8,0],[-6,-11],[8,-3],[45,-32],[4,-1],[17,4],[7,5],[-3,2],[2,1],[-7,2],[-19,-6],[0,7],[-3,-1]],[[65640,28424],[6,12],[-26,4],[-2,14],[-4,0],[1,-5],[-21,-1],[0,-4],[-36,6],[40,-38],[42,12]],[[65716,28399],[-65,-20],[72,-28],[6,1],[16,-12],[14,19],[-33,29],[-3,-1],[-2,2],[-2,2],[6,2],[-3,2],[-6,4]],[[65960,28347],[-105,93],[-25,-7],[3,-6],[-7,-2],[11,-10],[-41,-9],[13,-9],[2,0],[3,-1],[2,-4],[7,-3],[-7,-2],[6,-5],[2,1],[18,-17],[11,2],[3,-2],[-20,-4],[15,-15],[-4,-1],[2,-2],[-20,-6],[7,-6],[-7,-2],[10,-8],[3,1],[9,-8],[109,32]],[[66838,29112],[-9,-10],[-27,5],[21,26],[24,-5],[-3,-4],[31,-7],[-9,-11],[-28,6]],[[64507,30398],[58,2],[1,-11],[7,0],[4,-1],[1,-5],[-11,2],[-1,-5],[-19,0],[-1,3],[-3,-1],[1,-12],[-7,5],[-3,-1],[-9,6],[-4,-2],[-5,3],[4,2],[-1,4],[-7,2],[-4,-1],[-23,3],[0,-2],[-19,1],[0,-1],[-6,-1],[0,-1],[-8,0],[0,-1],[-25,0],[-1,10],[5,0],[-1,4],[8,0],[0,2],[10,0],[0,-1],[12,0],[4,-1],[44,4],[-1,-6]],[[65137,31392],[1,-5],[2,0],[-2,-7],[-31,-1],[0,4],[-11,0],[0,2],[-24,0],[-1,-6],[-10,1],[1,7],[11,-1],[1,5],[12,0],[1,-2],[3,0],[0,2],[3,0],[0,1],[6,1],[0,-2],[38,1]],[[67045,31851],[-13,-2],[0,-1],[5,0],[4,-4],[3,-11],[-7,1],[-9,-4],[-6,14],[-10,-1],[1,-3],[-10,-1],[2,-5],[-6,-2],[-1,5],[7,4],[-13,5],[4,7],[-9,1],[3,6],[9,-2],[5,10],[22,-6],[10,16],[9,-2],[-8,-13],[8,1],[10,-2],[-4,-5],[-13,-1],[2,-4],[5,0],[0,-1]],[[66999,32525],[16,-3],[-107,-19],[-5,7],[36,7],[-5,7],[13,3],[4,6],[24,-4],[4,2],[10,-3],[7,3],[8,-4],[-5,-2]],[[64787,32519],[28,-40],[12,-9],[3,3],[3,-1],[10,-31],[-9,0],[-3,-4],[-8,2],[7,4],[-10,5],[-8,2],[-3,-3],[-7,2],[-1,-2],[-9,3],[-3,-3],[-4,1],[-40,-42],[-15,4],[0,17],[-8,0],[0,7],[-70,0],[-1,4],[-11,0],[1,-8],[-10,2],[0,2],[-8,1],[9,4],[-7,5],[14,1],[-2,14],[-9,0],[1,7],[8,0],[19,11],[14,13],[-1,4],[24,0],[17,23],[8,-2],[11,0],[0,-1],[10,-4],[8,6],[38,17],[9,-3],[-7,-11]],[[64840,32483],[-10,-6],[-12,6],[-4,10],[0,5],[-10,5],[-14,15],[1,3],[11,7],[6,5],[-8,9],[-12,3],[-4,0],[-3,-5],[-7,-4],[0,-5],[-5,-3],[-26,-11],[-9,-1],[-2,2],[2,7],[5,5],[10,4],[-3,5],[-10,3],[-5,4],[-14,0],[-5,-2],[-10,-10],[-7,-1],[-19,2],[-27,9],[1,3],[11,4],[0,4],[-16,4],[-10,0],[-5,5],[11,8],[-10,11],[8,6],[9,3],[24,-5],[5,3],[2,7],[6,1],[11,-2],[10,4],[11,0],[6,1],[2,2],[-13,7],[0,2],[9,3],[11,-1],[4,-2],[7,1],[2,3],[-4,8],[5,1],[-1,2],[17,8],[13,0],[9,-6],[10,-14],[16,5],[15,1],[2,-8],[-2,-2],[3,-4],[4,-2],[12,-3],[21,21],[14,0],[14,-27],[0,-3],[13,1],[0,-2],[5,1],[3,-6],[39,4],[1,-5],[-6,0],[4,-8],[-24,-2],[3,-6],[-25,-3],[-1,-1],[-18,0],[-1,3],[-14,0],[1,-13],[4,-9],[2,0],[0,-4],[-4,0],[0,-15],[19,-1],[1,-7],[-28,0],[4,-1],[0,-4],[4,1],[0,-5],[6,0],[-2,-7],[6,0],[1,-5],[-11,-1],[0,-3],[-36,-1],[1,-11]],[[64745,32643],[8,-6],[-3,-1],[2,-3],[-18,-3],[-7,9],[-9,-2],[-2,3],[8,2],[-7,8],[6,2],[-2,2],[-6,-1],[-9,6],[28,7],[-5,5],[8,-1],[1,2],[8,-1],[7,3],[4,-3],[-7,-2],[2,-2],[-5,-2],[2,-3],[-9,-3],[6,-7],[-6,-2],[5,-7]],[[64651,32713],[52,-28],[1,1],[3,-1],[-6,-3],[-10,1],[-5,-3],[-7,3],[2,1],[-5,2],[-3,-2],[-4,2],[-4,1],[-2,0],[-5,1],[3,3],[-8,3],[-2,-2],[-5,3],[6,4],[-2,1],[-3,-2],[-10,3],[10,8],[-1,2],[5,2]],[[66932,33815],[-90,-22],[-31,-5],[10,17],[0,-5],[32,3],[5,2],[2,2],[40,12],[3,5],[29,-4],[27,3],[-4,-6],[-23,-2]],[[65871,33929],[-65,-2],[1,-4],[-14,0],[9,-19],[-20,-4],[2,-10],[-27,-5],[-1,10],[-11,20],[9,1],[-5,10],[-23,-1],[-1,-2],[-11,2],[4,5],[-9,2],[-8,-2],[2,10],[3,0],[-5,6],[-3,0],[-2,2],[3,10],[20,3],[13,11],[13,-5],[10,11],[15,-5],[2,2],[9,-2],[15,11],[-1,13],[29,6],[-1,5],[9,2],[1,-5],[9,1],[3,-24],[26,-53]],[[63783,38100],[4,-9],[-4,0],[-3,8],[3,1]],[[63773,38099],[2,-5],[-4,0],[-2,4],[4,1]],[[63906,38102],[2,-3],[-5,-1],[-2,4],[5,0]],[[63916,38104],[2,-4],[-9,-1],[-2,4],[9,1]],[[63865,38102],[4,0],[1,-4],[-3,0],[-2,4]],[[63925,38105],[2,-4],[-5,-1],[-1,4],[4,1]],[[63763,38104],[2,-4],[-6,-1],[-3,4],[7,1]],[[63865,38111],[2,-4],[-4,-1],[-2,4],[4,1]],[[63771,38109],[2,-4],[-6,-1],[-2,5],[6,0]],[[63870,38121],[2,-4],[-4,-1],[-2,5],[4,0]],[[63830,38110],[0,2],[-17,-2],[-2,5],[-13,-2],[-3,6],[20,2],[-2,5],[3,0],[1,-3],[12,1],[0,3],[10,1],[-1,5],[5,0],[12,-12],[2,-6],[-15,-2],[1,-2],[-13,-1]],[[63858,38126],[-1,4],[3,1],[2,-5],[-4,0]],[[63895,38126],[-14,-2],[-4,9],[14,1],[4,-8]],[[63836,38145],[0,-3],[-6,-1],[0,3],[6,1]],[[63888,38150],[8,1],[2,-6],[-8,-2],[-2,7]],[[64572,39094],[-195,-25],[-6,15],[2,2],[-16,35],[-192,-23],[-44,99],[94,11],[0,-2],[286,36],[45,-100],[3,1],[23,-49]],[[64821,47790],[0,12],[-11,0],[0,13],[34,0],[0,-8],[12,1],[0,-18],[-35,0]],[[63726,66610],[10,-12],[-11,-3],[-1,-4],[-5,-1],[0,-2],[2,-1],[6,-1],[6,-5],[-2,-6],[16,-4],[3,-6],[8,-1],[5,-7],[25,-12],[6,-2],[-139,-1],[-36,48],[2,5],[57,-11],[24,35],[-6,0],[-2,3],[-16,4],[-31,3],[2,4],[-74,24],[7,-1],[16,46],[84,-16],[12,17],[61,-12],[-20,-31],[22,-5],[-9,-14],[5,-7],[-9,-13],[-9,2],[-9,-13]],[[95988,40],[-5,2],[-1,3],[4,3],[7,0],[6,-2],[0,-3],[-4,-3],[-7,0]],[[95798,40],[-17,19],[-9,16],[47,51],[21,0],[7,1],[5,3],[110,1],[3,-112],[-3,-19],[-161,22],[-3,18]],[[95819,128],[6,19],[14,8],[9,-23],[-4,-3],[-6,-1],[-19,0]],[[96249,1144],[8,-4],[16,-1],[-10,-12],[22,-5],[2,-14],[51,-8],[27,-8],[25,-4],[14,-6],[9,-11],[25,-7],[10,11],[43,-3],[-44,11],[9,11],[-15,3],[3,4],[-6,1],[3,4],[68,11],[3,0],[9,13],[-71,14],[-3,-4],[-11,2],[-39,-47],[-24,6],[3,5],[-11,2],[10,12],[-12,3],[52,62],[11,-2],[4,5],[15,-3],[7,8],[-28,5],[4,5],[-8,2],[10,11],[-17,3],[4,5],[16,-4],[10,12],[7,-2],[13,16],[5,0],[-4,-5],[13,-2],[4,4],[6,-1],[-3,-5],[16,-3],[-2,-1],[4,-1],[6,-1],[5,6],[81,-16],[-6,-8],[7,-1],[-9,-13],[-2,0],[-3,-4],[10,-2],[-9,-11],[-12,2],[-3,-4],[-3,1],[-68,14],[-3,-5],[-15,3],[-10,-12],[8,-2],[0,-2],[-8,-11],[23,-4],[-9,-11],[77,-17],[31,-4],[-9,-10],[-4,1],[-4,-5],[8,-1],[1,1],[25,-5],[-3,-5],[2,0],[-7,-10],[-19,-23],[-3,1],[-4,-6],[-4,1],[-1,-1],[-22,4],[-5,-7],[6,-1],[-6,-7],[-35,7],[2,2],[-4,1],[-3,-1],[19,-25],[2,-5],[-3,-5],[15,-4],[37,-2],[49,-8],[12,-4],[5,-4],[6,-11],[-3,-7],[9,-2],[-40,-48],[-24,7],[-2,-2],[-25,-7],[-43,1],[-79,19],[-4,7],[-121,-1],[-131,42],[-85,60],[35,13],[10,22],[36,23],[-11,6],[-1,3],[38,27],[11,-4],[13,-8],[19,-1],[6,-2],[-2,-2]],[[96586,1158],[-2,-2],[-28,5],[1,3],[10,-1],[1,2],[4,-1],[4,4],[12,-3],[4,5],[3,-1],[-4,-4],[5,-1],[-4,-6],[-1,-1],[-5,1]],[[96621,1240],[-23,4],[-3,-5],[4,0],[-12,-15],[-12,2],[3,4],[-12,2],[2,2],[5,-1],[1,1],[1,0],[3,8],[-5,1],[3,3],[6,-1],[6,7],[13,-3],[24,-3],[-4,-6]],[[96526,1252],[-14,3],[7,8],[6,-1],[2,3],[3,4],[-6,2],[2,2],[14,-3],[6,7],[8,-1],[-2,-4],[24,-4],[-17,-21],[-23,4],[-9,-11],[-10,2],[9,10]],[[97449,5520],[-5,9],[26,4],[4,0],[1,-1],[8,1],[-2,5],[11,1],[1,2],[21,1],[1,2],[11,1],[-1,-9],[3,1],[-2,-6],[-18,0],[-1,-3],[-21,-2],[0,-2],[-18,-2],[0,-1],[-9,0],[1,-2],[-7,-1],[-1,3],[-3,-1]],[[80526,7642],[40,1],[13,-4],[11,0],[1,-3],[36,4],[37,-1],[-4,-22],[19,-2],[14,1],[1,5],[21,-1],[11,-3],[-4,-1],[3,-10],[-30,1],[-1,-9],[-37,1],[-1,-3],[-72,3],[-2,0],[2,10],[-122,6],[-11,8],[6,6],[14,1],[20,8],[2,2],[-3,1],[4,3],[9,0],[3,2],[5,0],[15,-4]],[[95927,9621],[-24,-4],[-3,4],[-3,-1],[3,-4],[-27,-5],[-9,1],[-2,-1],[-5,1],[-5,6],[67,13],[3,-5],[12,2],[3,-4],[-10,-3]],[[95262,15436],[-78,-33],[-57,33],[86,37],[30,-18],[-10,-2],[29,-17]],[[96409,15918],[2,14],[22,-1],[-1,-3],[-5,1],[-2,-6],[-7,1],[-2,-7],[-7,1]],[[70874,23719],[-23,2],[-18,-10],[-17,2],[-13,-6],[-18,8],[-16,21],[56,21],[11,-15],[2,-9],[8,-1],[1,-3],[22,-2],[3,1],[6,0],[-4,-9]],[[72936,27460],[-35,-11],[-6,6],[35,9],[6,-4]],[[73078,27470],[-6,5],[-12,-6],[-1,1],[-7,-3],[20,-18],[-6,-4],[-4,3],[-9,-3],[-9,9],[-3,-1],[-4,4],[-11,-3],[-4,4],[14,4],[-1,1],[9,2],[-4,4],[50,20],[9,-6],[-5,-3],[-6,2],[-10,-5],[6,-4],[-6,-3]],[[72979,27496],[-33,14],[9,6],[34,-13],[-10,-7]],[[69387,27524],[-5,-14],[-29,-16],[-32,10],[21,16],[-3,1],[3,3],[-6,1],[4,3],[5,-1],[13,11],[-43,12],[-8,4],[15,20],[25,-5],[25,-35],[9,-3],[6,-7]],[[68910,27936],[3,3],[-3,5],[29,5],[-11,18],[14,2],[0,1],[-14,29],[34,-8],[17,-30],[-11,-11],[2,-3],[-18,-17],[-14,-5],[-1,9],[-9,2],[-3,-4],[-15,4]],[[67928,28278],[6,-12],[-10,-1],[1,-3],[-13,0],[2,-3],[-13,-2],[-17,32],[18,7],[14,-7],[14,1],[-8,15],[29,14],[17,-21],[-10,-19],[-28,5],[-2,-6]],[[73471,29339],[-6,1],[-16,19],[4,-1],[-2,3],[4,0],[10,13],[11,-3],[10,13],[-21,5],[-8,-9],[-10,2],[8,9],[-11,3],[21,25],[56,-23],[-10,-13],[-8,-16],[-16,-21],[-8,-5],[-8,-2]],[[73535,29466],[-72,-47],[-50,21],[64,40],[17,-6],[26,1],[-4,-6],[19,-3]],[[73570,29482],[-10,6],[7,3],[-16,23],[-4,2],[8,5],[-10,3],[9,6],[24,-11],[1,0],[8,-3],[26,18],[11,-5],[-14,-10],[5,-13],[-2,-7],[-16,-9],[-11,-14],[-19,3],[3,3]],[[68120,29907],[-4,-22],[4,0],[-2,-4],[-3,0],[-3,-25],[-33,4],[0,2],[-13,0],[1,7],[13,-1],[1,6],[10,-1],[6,38],[28,-1],[-1,-4],[-4,1]],[[69609,30889],[-20,-14],[-3,1],[-5,-4],[-5,2],[-28,-19],[-10,-5],[-24,-18],[-3,1],[-49,-14],[-15,7],[10,3],[-3,3],[24,16],[31,1],[-9,4],[10,2],[25,8],[19,9],[14,23],[5,4],[17,-8],[6,4],[13,-6]],[[70136,31480],[-18,4],[11,17],[10,-2],[-2,-2],[10,-1],[-4,-7],[7,-1],[-1,-3],[-8,2],[-5,-7]],[[70284,32151],[18,-39],[-15,-2],[-2,5],[-19,-3],[-10,22],[11,0],[-2,4],[-5,0],[-2,3],[-7,-1],[12,17],[21,-6]],[[68108,32997],[265,-70],[-18,-28],[-35,-17],[-75,19],[-151,49],[-21,4],[11,16],[24,27]],[[68504,33073],[-243,51],[9,9],[-37,7],[5,9],[-15,2],[5,8],[19,-1],[23,-4],[159,-32],[4,4],[116,-21],[-9,-12],[-36,-20]],[[67975,33213],[40,-8],[-9,-13],[-40,7],[9,14]],[[68090,33228],[-37,7],[4,5],[-6,1],[-17,-5],[-13,2],[-16,-5],[-13,3],[7,5],[9,0],[23,7],[4,5],[-12,2],[4,4],[-71,13],[10,4],[7,0],[8,6],[-1,8],[8,7],[3,8],[6,3],[37,-7],[50,28],[9,7],[12,14],[117,-21],[-14,-8],[37,-7],[-80,-27],[16,-2],[-6,-9],[23,-5],[-4,-6],[-51,10],[-2,-7],[-5,1],[-6,-8],[-19,4],[-18,-10],[20,-4],[-16,-24],[-4,0],[1,1],[-3,1],[-1,-1]],[[68110,33287],[4,8],[-17,3],[-5,-8],[18,-3]],[[69593,33473],[2,-3],[-9,-2],[-1,3],[8,2]],[[69559,33525],[6,-5],[1,-8],[4,0],[21,-32],[-12,-2],[8,-13],[-9,-2],[-2,3],[-12,3],[-3,4],[-50,-7],[-6,-2],[-27,-5],[8,-6],[-9,-3],[-3,3],[-8,-2],[5,-8],[-11,-1],[5,-10],[-40,-5],[-6,-6],[-13,-5],[-1,3],[-12,-2],[-15,24],[11,5],[-6,10],[13,19],[-29,6],[18,26],[-9,3],[5,6],[-10,1],[3,5],[-3,1],[2,3],[21,-6],[7,4],[2,-1],[0,-2],[8,-3],[9,8],[12,-9],[10,1],[1,-3],[-9,-1],[-6,-5],[21,-6],[-2,5],[14,-4],[5,0],[0,3],[6,2],[4,7],[5,1],[4,-6],[14,2],[-9,15],[55,9],[10,-1],[-1,-2],[5,1],[4,-10],[-4,0]],[[69462,33527],[-18,3],[2,6],[21,-2],[-5,-7]],[[69584,33540],[-11,-2],[-13,3],[3,3],[21,-4]],[[70610,33850],[14,-3],[-4,-6],[18,-3],[-35,-49],[-30,6],[37,55]],[[67663,33940],[-8,-12],[26,-5],[-12,-16],[-16,3],[-14,-20],[-32,6],[14,20],[-15,2],[-23,-4],[-28,12],[5,4],[-6,-1],[0,8],[-10,0],[-2,8],[37,1],[3,2],[5,-3],[10,6],[9,-4],[17,10],[4,0],[4,5],[29,-5],[0,-6],[-7,-9],[10,-2]],[[69613,34155],[10,-2],[-6,-7],[16,1],[2,-3],[-11,-6],[-11,2],[-3,-7],[-25,5],[-11,4],[-4,-4],[-8,1],[7,9],[-28,5],[3,5],[-3,1],[2,2],[66,-12],[4,6]],[[67412,35120],[16,-6],[7,1],[-2,22],[11,-4],[2,-15],[4,-1],[4,9],[14,-4],[2,4],[3,6],[-13,5],[0,1],[14,-1],[0,-2],[8,-1],[-4,-11],[24,-7],[-22,-2],[-3,-6],[38,-12],[4,4],[13,-4],[9,7],[30,-9],[-17,-15],[-12,3],[-8,-6],[-18,5],[-35,-15],[8,-3],[3,3],[13,-4],[-2,-1],[13,-5],[-5,-3],[26,-9],[-5,-4],[-8,2],[-4,-3],[-13,6],[-16,-13],[8,-2],[-7,-6],[10,-3],[-8,-6],[13,-4],[-11,-9],[39,-30],[-17,-9],[2,-28],[-53,1],[-61,30],[14,22],[-1,11],[-9,3],[-2,2],[3,4],[-29,10],[-12,-10],[-14,5],[-62,-42],[-9,2],[8,7],[54,35],[-5,2],[4,3],[-2,6],[-12,0],[-4,-4],[-12,4],[-3,18],[8,7],[1,-1],[25,5],[9,-3],[4,4],[25,-8],[-5,-4],[9,-3],[5,4],[-6,2],[4,3],[4,-1],[3,3],[-6,2],[4,3],[6,-2],[2,4],[-12,4],[13,9],[-8,2],[5,4],[-16,5],[18,10],[9,-3],[8,7],[4,0],[-1,5],[-17,6],[-6,-5],[-7,3],[-14,-11],[-15,5],[-7,-3],[15,-5],[-7,-3],[4,-1],[-16,-7],[2,-1],[-9,-6],[-5,2],[-4,-3],[-8,3],[7,5],[-33,11],[4,4],[8,-3],[11,9],[8,-3],[5,4],[6,-2],[11,7],[13,11],[-7,3],[-4,-3],[-15,6],[38,30],[46,-15],[-14,-12],[6,-2],[-9,-6]],[[67414,35127],[-35,13],[-5,-4],[-5,1],[-8,-6],[40,-14],[13,10]],[[67362,35047],[-28,-2],[4,-7],[-2,-1],[1,-5],[29,2],[-1,5],[8,0],[7,5],[-18,0],[0,3]],[[67312,35062],[-19,-15],[4,-2],[-6,-5],[-19,7],[2,2],[-8,2],[9,8],[-8,2],[18,15],[24,-8],[5,3],[4,-1],[-5,-4],[6,-2],[-4,-4],[-3,2]],[[67375,35069],[10,-4],[-6,-6],[-5,1],[4,3],[-7,2],[4,4]],[[67317,35115],[-8,-7],[-19,6],[1,1],[-5,2],[8,6],[-11,4],[7,5],[46,-15],[2,2],[10,-3],[0,-2],[-7,-6],[-24,7]],[[67489,41636],[316,44],[3,-6],[-5,-1],[5,-7],[-3,-1],[4,-8],[-43,-7],[15,-28],[6,-17],[-30,-5],[-32,-15],[-7,-1],[2,-4],[-7,-2],[1,-3],[28,4],[31,-1],[21,-2],[7,2],[-1,1],[12,0],[0,-3],[11,-3],[-5,0],[-1,-26],[-32,-14],[15,-7],[3,-7],[18,-14],[-2,-18],[78,17],[43,-28],[-38,3],[-6,-1],[-24,-18],[67,-51],[-35,-11],[19,-14],[3,-4],[-16,-3],[-1,-3],[-11,0],[9,-27],[-24,0],[0,2],[-22,-1],[-3,11],[21,1],[-4,16],[-10,12],[-7,-1],[-4,6],[7,1],[-6,7],[-36,-13],[-37,27],[-19,-7],[-14,11],[-3,-1],[-4,3],[-33,-12],[-7,6],[-7,-3],[-9,6],[-18,-8],[-3,2],[-168,-11],[-61,121],[63,32],[-7,4],[29,13],[-2,5],[-88,41],[-51,67],[7,-4],[11,-10],[25,-15],[23,-8],[43,-11]],[[66113,48348],[49,2],[-3,12],[13,0],[82,5],[1,-6],[23,1],[2,-10],[-19,-1],[1,-7],[20,-2],[19,-6],[14,-7],[8,-8],[-69,-4],[-5,21],[-53,-3],[1,-6],[-50,-2],[-2,5],[-29,-2],[0,4],[-23,-1],[-34,-5],[-76,-20],[-5,27],[-3,-1],[-8,44],[21,-5],[18,-6],[63,-28],[45,2],[-1,7]],[[99891,99800],[-28,-1],[-57,-22],[-48,-12],[-29,-5],[-80,-9],[-14,-23],[-19,-16],[-7,-16],[-15,-19],[-23,-21],[-38,-24],[-25,-9],[-40,-11],[-36,-16],[-27,-19],[-37,-16],[-35,-10],[-26,-5],[-31,-2],[-25,0],[-34,-15],[-55,-19],[-38,-15],[-95,-31],[-39,-11],[-29,-5],[-55,-12],[-24,-4],[-49,-2],[-62,0],[-32,-7],[-41,-2],[-43,3],[-62,8],[-40,-15],[-78,-21],[-73,-10],[-44,-3],[-47,0],[-40,4],[-36,9],[-55,21],[-102,32],[-156,22],[-41,5],[-82,3],[-187,18],[-50,2],[-80,-1],[-43,-7],[-50,-1],[-25,1],[-40,5],[-20,4],[-27,8],[-30,12],[-56,10],[-36,4],[-71,-32],[-31,-10],[-30,-11],[-61,-19],[-32,-12],[-44,-14],[-103,-36],[-54,-29],[-35,-21],[-19,-16],[-16,-10],[-14,-21],[-15,-15],[-19,-14],[-40,-20],[-27,-9],[-39,-9],[-30,-3],[-42,0],[-26,2],[-28,5],[-88,-11],[-73,-5],[-51,-5],[-72,-1],[-61,4],[-26,-23],[-1,-24],[-11,-22],[-19,-19],[-19,-28],[-20,-22],[-15,-12],[-26,-19],[-58,-31],[-45,-16],[-25,-7],[-49,-9],[-103,-17],[-95,-24],[-19,-3],[-77,-9],[-52,-1],[-82,3],[-30,-2],[-45,-10],[-30,-12],[-27,-15],[-10,-8],[-54,-71],[-15,-15],[-81,-54],[-54,-26],[-26,-10],[-26,-7],[-64,-9],[-63,-3],[-49,-15],[-29,-6],[-62,-6],[-46,1],[-31,3],[-27,6],[-44,13],[-18,8],[-33,18],[-41,14],[-23,2],[-64,11],[-154,18],[-37,8],[-26,9],[-71,34],[-58,38],[-18,14],[-20,21],[-17,23],[-117,33],[-71,30],[18,-53],[-1,-22],[-13,-34],[-24,-29],[-17,-15],[-27,-16],[-16,-8],[-17,-6],[-29,-7],[-55,-6],[-27,-1],[-31,2],[-29,5],[-50,14],[-37,14],[-33,15],[-33,19],[-102,61],[-29,22],[-24,25],[-29,36],[-11,24],[-13,18],[-22,1],[-16,-1],[-7,-1],[-39,-36],[-38,-27],[-8,-10],[0,-17],[-9,-46],[-18,-29],[-54,-55],[-20,-13],[-33,-14],[-19,-5],[-79,-15],[-30,-4],[-65,1],[-46,6],[-37,11],[-24,11],[-13,9],[-25,23],[-24,37],[-22,-15],[-24,-11],[-32,-10],[-29,-7],[-43,-14],[-62,-14],[-59,-4],[-1,234],[14,14],[16,20],[20,16],[14,9],[16,7],[30,11],[19,5],[30,5],[41,1],[82,-6],[39,-7],[70,-21],[53,-25],[33,-18],[26,30],[46,34],[31,39],[26,17],[43,20],[71,23],[27,6],[50,8],[31,2],[48,1],[69,-3],[65,-8],[55,-15],[44,-17],[39,-24],[35,-32],[33,-47],[15,34],[24,32],[37,26],[32,15],[61,16],[84,9],[20,0],[37,-1],[39,-5],[59,-17],[47,-21],[45,-23],[18,-14],[9,-10],[21,-9],[125,-35],[53,-21],[15,-9],[31,-23],[15,-15],[11,-22],[9,-10],[32,-21],[27,-9],[105,-12],[68,-11],[24,-2],[42,-6],[28,-7],[42,-17],[36,-10],[18,-8],[57,11],[81,6],[9,4],[36,24],[59,74],[39,33],[70,40],[82,33],[62,15],[75,13],[85,5],[90,-3],[19,1],[19,2],[48,13],[50,11],[114,19],[21,5],[19,11],[9,11],[14,23],[0,19],[8,21],[14,21],[29,27],[5,13],[14,25],[29,27],[22,12],[17,7],[62,18],[36,6],[29,3],[28,1],[20,-1],[80,-11],[26,-2],[25,1],[104,8],[77,9],[72,12],[45,23],[23,18],[27,14],[22,15],[82,43],[37,15],[285,97],[27,13],[79,31],[37,10],[74,8],[37,0],[49,-3],[64,-7],[95,-17],[53,-13],[39,3],[104,1],[79,-2],[198,-19],[98,-4],[111,-15],[66,-10],[72,-9],[28,-7],[147,-47],[32,9],[28,19],[24,10],[27,8],[43,8],[31,1],[45,-2],[93,-13],[23,3],[45,4],[31,-1],[20,-2],[15,0],[27,7],[27,5],[79,25],[33,14],[48,16],[46,20],[28,9],[45,11],[51,6],[29,16],[57,22],[8,24],[12,17],[23,24],[8,19],[13,16],[10,10],[20,13],[38,16],[27,8],[50,9],[57,8],[98,11],[15,6],[24,14],[17,7],[35,11],[20,4],[20,3],[34,2],[38,0],[41,12],[39,7],[31,2],[32,-1],[0,-182],[-52,-11],[-56,-5]]],"transform":{"scale":[0.00006398785161035199,0.00010290860202905852],"translate":[134.60131350641464,-37.94870221616423]},"objects":{"SA-heritage":{"type":"GeometryCollection","geometries":[{"arcs":[[[0]],[[1]],[[2]],[[3]],[[4]],[[5]],[[6],[7]],[[8]],[[9],[10],[11]],[[12]],[[13]],[[14]],[[15]],[[16]],[[17]],[[18]],[[19]],[[20]],[[21]],[[22]],[[23]],[[24]],[[25]],[[26]],[[27]],[[28]],[[29],[30],[31]],[[32]],[[33]],[[34]],[[35]],[[36]],[[37]],[[38]],[[39]],[[40]],[[41]],[[42]],[[43]],[[44]],[[45]],[[46]],[[47]],[[48]],[[49]],[[50]],[[51],[52]],[[53]],[[54]],[[55]],[[56],[57]],[[58]],[[59]],[[60],[61],[62],[63],[64],[65]],[[66]],[[67]],[[68]],[[69]],[[70]],[[71]],[[72]],[[73]],[[74]],[[75]],[[76]],[[77]],[[78]],[[79]],[[80]],[[81]],[[82]],[[83]],[[84]],[[85]],[[86]],[[87]],[[88]],[[89]],[[90]],[[91]],[[92],[93]],[[94]],[[95]],[[96]],[[97]],[[98]],[[99]],[[100]],[[101],[102],[103]],[[104]],[[105]],[[106],[107]],[[108],[109]],[[110],[111]],[[112]],[[113]],[[114]],[[115]],[[116]],[[117]],[[118]],[[119]],[[120]],[[121]],[[122]],[[123]],[[124]],[[125]],[[126]],[[127]],[[128],[129],[130]],[[131]],[[132]],[[133]],[[134]],[[135]],[[136]],[[137]],[[138]],[[139]],[[140]],[[141]],[[142]],[[143]],[[144]],[[145]],[[146]],[[147]],[[148]],[[149],[150],[151]],[[152]],[[153]],[[154]],[[155]],[[156],[157],[158]],[[159]],[[160]],[[161]],[[162]],[[163]],[[164]],[[165]],[[166]],[[167]],[[168]],[[169]],[[170]],[[171],[172]],[[173]],[[174]],[[175]],[[176],[177]],[[178]],[[179]],[[180]],[[181]],[[182]],[[183]],[[184]],[[185]],[[186]],[[187]],[[188]],[[189]],[[190]],[[191]],[[192]],[[193]],[[194]],[[195]],[[196]],[[197],[198],[199],[200],[201]],[[202]],[[203]],[[204]],[[205]],[[206]],[[207]],[[208]],[[209]],[[210]],[[211]],[[212]],[[213]],[[214]],[[215]],[[216]],[[217]],[[218]],[[219]],[[220]],[[221]],[[222]],[[223]],[[224]],[[225]],[[226]],[[227]],[[228]],[[229]],[[230]],[[231]],[[232]],[[233]],[[234]],[[235]],[[236]],[[237]],[[238]],[[239]],[[240]],[[241]],[[242]],[[243]],[[244]],[[245]],[[246]],[[247]],[[248]],[[249]],[[250]],[[251]],[[252]],[[253]],[[254]],[[255]],[[256]],[[257]],[[258]],[[259]],[[260],[261]],[[262]],[[263]],[[264]],[[265]],[[266]],[[267]],[[268]],[[269],[270],[271]],[[272]],[[273]],[[274]],[[275]],[[276]],[[277]]],"type":"MultiPolygon","properties":{"layer":"heritage"}}]}},"properties":{"layer":"heritage","state":"SA","source":"SA Planning and Design Code Historic Area / Character Area / State Heritage Area overlays (PlanSA)","licence":"CC-BY-3.0-AU","asOf":"2026-09-23","simplify":"100%"}}