{"type":"Topology","arcs":[[[59001,12706],[0,25],[30,3],[20,49],[27,24],[60,-5],[47,28],[18,66],[34,50],[-6,56],[10,24],[-15,21],[-4,25],[32,3],[142,-13],[-10,-40],[71,1],[17,-9],[14,-24],[-13,-27],[-17,-11],[-33,-8],[-33,3],[-25,10],[-6,-47],[-31,-49],[-33,-3],[-36,-45],[-34,11],[-55,-41],[-95,-103],[-76,26]],[[10178,29182],[-21,14],[-11,-13],[-16,6],[6,6],[-18,5],[-1,11],[-8,3],[-12,-13],[-9,3],[-10,-11],[-25,-3],[-2,-10],[7,-3],[-15,-12],[-24,2],[-5,-5],[15,-5],[-24,-19],[-15,5],[-6,-5],[14,-5],[-11,-14],[-13,-2],[-7,-8],[-12,4],[-7,-5],[16,-5],[-10,-12],[-18,7],[-3,-5],[11,-4],[-7,-8],[6,-2],[-13,-17],[-7,3],[-8,-10],[-17,-2],[-12,-23],[-9,1],[17,41],[5,6],[9,-2],[3,7],[-9,2],[14,15],[5,12],[-6,1],[71,61],[28,6],[-2,-10],[46,38],[109,54],[2,9],[28,-14],[-12,-2],[-14,-32],[-31,11],[-8,-4],[14,-5],[-5,-6],[8,-3],[5,6],[19,-7],[-11,-14],[8,-2],[8,9],[13,-10],[10,6],[-2,-9],[7,-2],[7,7],[9,-3],[-11,-14],[8,-3],[8,10],[9,-3],[13,-9],[-6,-6],[9,-5],[5,6],[23,-3],[-17,-10],[38,-20],[6,-23],[23,3],[2,-8],[-23,-3],[1,-5],[-21,8],[4,5],[-14,-2],[6,8],[-29,10],[4,10],[-47,16],[4,5],[-8,3],[7,9],[-10,2],[-10,-13],[-25,9],[7,8]],[[10294,29452],[-1,-36],[-17,-14],[-19,0],[1,64],[25,53],[18,3],[4,5],[45,-5],[-41,-71],[-15,1]],[[43122,57909],[-24,-101],[-16,1],[13,104],[27,-4]],[[43083,57984],[41,-5],[-12,-62],[-17,2],[3,30],[-15,35]],[[43054,57975],[-4,13],[23,-3],[5,-13],[-24,3]],[[43160,58008],[27,-3],[-4,-14],[13,-1],[-3,-14],[-41,5],[8,27]],[[43075,58004],[72,-9],[-4,-12],[-63,8],[-5,13]],[[43147,57997],[-73,9],[-6,14],[83,-10],[-4,-13]],[[43041,58024],[5,18],[17,-2],[-6,-22],[14,-26],[-23,3],[-9,24],[-18,4],[5,21],[19,-2],[-4,-18]],[[43125,58033],[31,-5],[-3,-12],[-84,10],[5,16],[15,-3],[-15,3],[6,12],[80,-11],[-3,-13],[-32,3]],[[43064,58041],[-37,5],[3,13],[38,-4],[-4,-14]],[[42978,58057],[3,9],[45,-6],[-5,-19],[-26,3],[3,9],[-20,4]],[[43127,58071],[45,-5],[-4,-17],[-89,11],[3,11],[39,-5],[-38,7],[8,17],[85,-11],[-3,-12],[-46,4]],[[42952,58069],[25,-3],[-5,-18],[-25,3],[5,18]],[[42885,58078],[60,-8],[-5,-19],[-60,7],[5,20]],[[43070,58061],[-89,11],[-10,26],[105,-14],[-6,-23]],[[43176,58084],[-88,11],[4,12],[33,-4],[7,-5],[47,-2],[-3,-12]],[[42947,58076],[7,24],[11,-1],[12,-26],[-30,3]],[[42872,58063],[-92,15],[4,13],[92,-12],[-4,-16]],[[42940,58077],[-53,7],[7,24],[53,-7],[-7,-24]],[[42790,58109],[91,-13],[-2,-11],[-93,12],[4,12]],[[42882,58097],[-56,10],[2,10],[57,-7],[-3,-13]],[[41018,59885],[28,-3],[-10,-33],[27,-3],[-5,-22],[20,-3],[-3,-39],[26,-1],[12,-98],[-3,-6],[-22,1],[-1,-5],[15,-1],[-2,-10],[30,3],[-7,-31],[-22,3],[-5,-23],[-25,3],[-4,-19],[-17,1],[0,20],[-16,2],[7,35],[18,-2],[3,12],[11,82],[-16,2],[3,11],[-40,5],[2,9],[-32,3],[-2,-8],[-15,3],[4,14],[-18,2],[-4,-14],[-84,10],[0,-9],[-13,1],[1,14],[-11,1],[1,4],[28,-3],[1,37],[19,-2],[9,46],[-20,2],[-4,-29],[-40,3],[5,19],[11,9],[-6,12],[7,-1],[1,5],[29,-3],[8,33],[13,-1],[-1,-6],[54,-6],[0,-4],[9,-1],[9,0],[3,15],[37,-4],[-3,-32]],[[41631,59846],[3,12],[-35,4],[-10,-36],[-64,8],[13,49],[19,-2],[7,31],[46,-6],[-1,-4],[48,-2],[-16,-55],[-10,1]],[[41127,59865],[-6,-62],[-17,2],[-6,13],[-14,2],[8,32],[14,-2],[1,7],[-15,2],[2,9],[18,-2],[7,13],[17,-2],[-9,-12]],[[40804,59941],[85,-10],[-2,-7],[-11,1],[-2,-6],[-15,-1],[1,4],[-7,1],[-10,-36],[-7,1],[-3,-12],[-25,4],[1,5],[-9,1],[10,36],[-36,4],[-4,-16],[-26,3],[2,11],[10,1],[-3,10],[7,-1],[10,30],[14,-1],[-8,-32],[24,-2],[4,12]],[[40806,60031],[22,-2],[2,6],[17,-2],[-2,-12],[152,-22],[-12,-55],[30,-3],[-5,-17],[-184,21],[4,15],[-11,1],[1,7],[-12,2],[2,7],[-34,6],[4,16],[-15,2],[3,12],[11,-2],[3,31],[25,-3],[-1,-8]],[[41460,60014],[-114,14],[1,19],[27,-3],[9,30],[46,-6],[9,34],[23,-3],[7,28],[23,-3],[-31,-110]],[[40533,60042],[-5,-24],[16,-2],[0,-16],[-18,1],[-6,-38],[-6,1],[-4,-17],[-25,3],[4,12],[-31,4],[4,15],[11,-1],[6,25],[-16,2],[2,10],[9,-1],[5,6],[11,37],[-17,2],[2,10],[33,-3],[3,14],[-18,2],[4,18],[18,-2],[-3,-11],[8,-8],[94,-10],[-7,-30],[-48,5],[-1,-6],[-25,2]],[[41086,60178],[-16,11],[-16,2],[-3,-12],[11,-1],[-2,-6],[-10,2],[0,-3],[15,-2],[-3,-9],[-5,-4],[-38,2],[-3,-14],[-21,2],[0,18],[-18,2],[2,7],[17,-2],[3,7],[2,7],[-18,2],[3,12],[60,-6],[2,6],[47,-6],[-9,-15]],[[41171,60254],[1,19],[-16,2],[4,18],[70,-7],[14,-34],[-8,-19],[-80,-95],[-40,8],[-11,14],[14,42],[48,-3],[6,23],[-38,4],[-2,-6],[-53,6],[-2,-6],[-24,4],[-5,-19],[-28,22],[10,-1],[6,24],[55,-6],[7,18],[51,-9],[1,4],[11,-2],[-3,-12],[9,-1],[-5,-13],[16,-2],[7,25],[-15,2]],[[39969,60670],[-36,0],[-30,-10],[-4,-15],[7,-16],[-21,-16],[-7,-12],[-8,-24],[25,-33],[10,-28],[-23,-49],[-19,-14],[0,-44],[-114,-63],[-39,-13],[-31,-24],[-23,-9],[-58,-52],[-53,-21],[-27,-54],[2,-11],[60,-60],[10,-24],[-19,-15],[-67,-5],[-1,-4],[-24,-3],[-32,-13],[-58,-37],[-19,-48],[11,-25],[-26,-45],[-3,-22],[-10,-2],[-79,-74],[-29,-18],[-167,14],[11,64],[-8,1],[29,70],[132,-17],[-64,75],[-9,20],[-38,46],[-28,63],[-22,23],[-3,77],[11,8],[14,192],[-28,91],[-19,26],[-29,22],[-18,4],[-122,60],[-81,11],[-254,-19],[-183,-8],[-71,4],[-6,-8],[-18,3],[-1,5],[-87,4],[-243,34],[-279,86],[-89,51],[-44,12],[-60,3],[6,21],[63,-2],[183,-77],[62,-38],[64,-9],[199,-44],[147,-18],[243,-4],[203,6],[96,7],[106,18],[36,0],[98,27],[50,2],[46,18],[32,29],[24,-9],[53,3],[26,13],[17,29],[65,24],[46,-7],[6,-19],[47,-6],[29,1],[13,12],[27,-7],[30,5],[23,18],[29,1],[40,11],[91,47],[13,-4],[33,-40],[41,0],[58,-15],[52,-1],[13,-11],[24,-8],[2,-16],[55,-22],[18,-49]],[[310,74071],[-51,14],[1,23],[-4,5],[-24,-3],[-2,11],[-42,41],[-17,30],[-24,20],[-15,22],[8,26],[-4,35],[-8,12],[-41,-1],[-10,15],[-24,-1],[0,13],[-50,-1],[-3,36],[37,0],[-2,22],[86,3],[0,-10],[23,1],[10,-13],[73,-27],[4,-33],[-46,-2],[9,-9],[1,-18],[-5,-56],[31,-58],[51,-42],[18,-32],[19,-7],[40,5],[-6,-22],[-33,1]],[[75341,429],[156,-32],[33,-13],[57,9],[37,23],[-15,40],[14,15],[51,23],[50,175],[36,-13],[161,-19],[89,-25],[15,-9],[9,-14],[1,-22],[-11,-29],[-79,-96],[-37,-13],[-34,-3],[-45,9],[-145,-24],[-9,-18],[-67,-34],[-70,-13],[-28,2],[50,-64],[-9,-21],[-96,-36],[-58,0],[-20,-34],[-22,-11],[-51,-2],[-37,13],[-46,-6],[0,-31],[-26,-36],[5,-48],[-25,-45],[-19,-14],[-79,-13],[-78,3],[-69,31],[22,9],[-46,4],[3,12],[83,-9],[32,8],[39,-4],[38,13],[11,35],[-16,25],[34,114],[102,24],[92,0],[33,20],[77,13],[-2,12],[-58,80],[-59,38],[-10,13],[-34,17],[13,10],[36,-19],[21,-20]],[[75433,396],[-58,13],[36,-33],[40,-62],[3,-20],[-9,-9],[-22,-5],[-60,-7],[-45,-20],[-47,-3],[-44,3],[-78,-17],[-32,-111],[10,-15],[-7,-41],[-16,-15],[-19,-7],[-20,-5],[-38,4],[-22,-6],[67,-3],[57,9],[16,40],[-8,41],[29,37],[-3,33],[13,16],[58,16],[37,5],[19,-3],[25,-14],[13,-1],[29,40],[11,6],[16,3],[51,-3],[65,22],[-80,85],[13,27]],[[75827,478],[50,-13],[31,7],[64,81],[7,27],[-125,36],[-41,-140],[14,2]],[[75696,439],[-16,9],[-8,-3],[8,-22],[59,8],[-43,8]],[[77515,1218],[-20,8],[-17,-11],[-15,4],[28,19],[-21,8],[-6,-8],[-19,-3],[-6,-8],[-11,5],[-3,12],[-19,-3],[-11,32],[48,4],[-8,21],[-40,-6],[-16,57],[24,-4],[43,6],[-3,9],[12,0],[-3,8],[-8,1],[-52,-6],[-41,-16],[-40,3],[-6,-13],[-88,44],[-9,-4],[-4,-39],[-16,-2],[-4,11],[-38,-7],[-6,-6],[-13,-2],[1,-6],[-71,-10],[-3,16],[-9,-1],[-7,-3],[3,-14],[-53,-4],[1,-17],[-114,-29],[-22,-3],[-16,17],[13,10],[23,47],[88,2],[26,-4],[-4,33],[49,-2],[7,-5],[7,18],[17,-6],[0,6],[-15,5],[11,26],[145,34],[15,-35],[44,-22],[24,-4],[55,19],[47,-7],[24,7],[11,14],[-33,21],[54,26],[195,15],[3,-10],[43,5],[68,-6],[11,-9],[38,13],[94,62],[27,12],[-6,4],[-48,-18],[-20,14],[-15,-11],[-91,-13],[-11,-1],[-4,7],[-107,-10],[-5,6],[-12,-3],[-18,25],[12,1],[-3,4],[11,5],[7,-8],[113,8],[4,-5],[24,7],[5,-6],[24,7],[37,1],[-18,23],[32,11],[34,2],[18,6],[-3,5],[39,6],[25,13],[38,-22],[12,9],[21,-11],[-9,-13],[28,-17],[15,-1],[10,7],[43,-21],[-20,-14],[39,-24],[18,-46],[41,-29],[-6,-6],[-5,2],[-9,-8],[-16,9],[-15,-14],[-24,14],[-17,-15],[-32,-4],[-8,-8],[-8,5],[-13,-9],[-17,12],[-32,-17],[-48,-43],[4,-15],[-43,-14],[7,20],[0,60],[56,27],[28,19],[19,-12],[25,18],[-31,13],[-49,-34],[-60,-28],[-19,21],[32,9],[55,38],[-6,5],[-16,-11],[-12,7],[-6,-4],[-37,22],[-32,-24],[37,-31],[-38,-10],[11,-17],[-14,-6],[-11,-3],[-4,7],[-11,-4],[3,-4],[-26,1],[-8,-5],[30,-20],[42,15],[14,-12],[3,-33],[-17,-39],[-12,-16],[-9,-2],[-43,15],[11,-6],[-10,-10],[-33,11],[-15,-22],[29,-11],[-6,-7],[-15,5],[-8,-11],[60,-14],[-7,-14],[-82,11],[-10,-14],[15,-3],[-41,-28],[-3,-9],[16,-8],[-8,-6],[-16,6],[-6,-5],[7,-4],[-21,-15],[-17,6],[19,15],[-37,15],[7,7],[-30,14],[10,7],[-6,4],[4,4],[-11,6],[-16,-10],[-19,11],[-42,-19]],[[78002,1545],[-17,-4],[-22,-2],[21,-13],[24,15],[-6,4]],[[77949,1530],[-47,-12],[40,-26],[20,16],[-24,15],[11,7]],[[77725,1431],[-29,16],[-21,-3],[-58,5],[-59,-22],[-24,-1],[-9,-9],[-11,-32],[-16,-14],[-39,-4],[4,-10],[37,-2],[44,19],[-5,4],[7,4],[5,-4],[15,10],[13,-9],[48,20],[17,1],[7,9],[11,-8],[17,4],[4,-3],[26,12],[19,-3],[21,18],[-24,2]],[[77846,1328],[-13,6],[-13,-12],[22,-5],[4,11]],[[77470,2009],[-9,0],[-8,8],[-7,20],[55,10],[-5,6],[6,2],[6,-7],[16,2],[48,17],[-12,13],[-51,-15],[-79,-14],[-10,3],[0,23],[17,-2],[-1,13],[18,-1],[0,-9],[19,-2],[11,3],[0,8],[8,-1],[16,55],[12,13],[36,-4],[11,-10],[14,5],[2,-8],[8,-1],[15,7],[7,-6],[34,18],[-21,9],[-13,-6],[-10,10],[41,17],[-8,13],[10,21],[12,-4],[12,7],[38,-51],[14,7],[-10,10],[187,87],[14,-13],[22,10],[22,-20],[-9,-4],[-5,5],[-116,-55],[7,-8],[-6,-3],[11,-12],[-98,-46],[6,-5],[13,6],[10,-9],[7,4],[9,-8],[-5,-2],[10,-10],[-6,-2],[6,-6],[13,-11],[19,-5],[7,-6],[-5,-2],[53,-43],[11,-17],[10,1],[-4,7],[19,8],[15,-14],[13,6],[30,-18],[13,9],[7,-5],[-7,-15],[20,-11],[16,11],[59,-35],[7,4],[8,-5],[-13,-17],[24,-16],[-48,-30],[-52,26],[6,6],[-21,10],[-21,-19],[-36,14],[-15,17],[-18,-4],[-4,6],[-8,-3],[-8,12],[-8,-4],[-5,6],[15,7],[-2,13],[-11,6],[-54,-26],[-9,12],[55,25],[-4,5],[-9,-1],[6,5],[-14,7],[-47,-25],[-10,13],[31,15],[-13,13],[17,8],[-20,17],[3,3],[-269,-127],[-82,70],[19,9]],[[77548,2100],[20,7],[1,5],[-18,0],[7,19],[-6,-1],[-3,-11],[-14,-1],[-9,2],[2,12],[-7,-25],[24,-1],[3,-6]],[[77632,2112],[42,-6],[7,-7],[8,3],[-5,5],[45,10],[-62,33],[-16,-8],[11,-10],[-26,-14],[-4,-6]],[[77623,2095],[-43,-19],[3,-3],[-6,-3],[9,-8],[20,12],[11,-3],[21,9],[-15,15]],[[77681,2070],[16,-15],[62,29],[-14,12],[-64,-26]],[[77386,2259],[19,-2],[1,4],[40,-5],[5,13],[-27,2],[5,24],[-28,6],[7,29],[21,-3],[2,10],[-21,3],[4,14],[-12,1],[17,13],[38,-22],[-4,-14],[21,-1],[7,-10],[-7,-18],[23,-2],[3,12],[21,-2],[-2,-9],[25,-3],[6,-7],[11,-2],[5,14],[-14,-5],[3,15],[-50,21],[-2,-9],[-20,2],[4,18],[-22,2],[8,6],[-15,8],[-8,-6],[-8,5],[10,7],[-22,12],[14,11],[133,-77],[30,-38],[-19,2],[5,-7],[28,-3],[-5,-16],[10,0],[-5,-16],[20,-2],[0,-6],[-15,-33],[-99,-10],[-2,27],[-27,3],[3,11],[29,-4],[-21,5],[-2,11],[-16,2],[-9,-31],[-12,2],[3,8],[-10,3],[-10,1],[-3,-9],[-13,1],[3,12],[-8,2],[-20,-3],[-58,12],[-1,-4],[-9,0],[-3,-7],[-20,3],[-14,-7],[-70,13],[3,12],[-30,-1],[-2,-4],[-20,5],[10,50],[15,3],[6,27],[-28,3],[-3,9],[-17,-4],[4,12],[35,-5],[2,14],[8,5],[-30,4],[5,16],[-7,0],[18,61],[45,-6],[-4,-25],[12,-1],[-4,-25],[-11,2],[-6,-12],[23,-7],[4,-18],[-17,-4],[9,-16],[12,-4],[-1,-10],[-15,0],[-5,-19],[20,4],[32,-3],[-2,-5],[7,-1],[2,7],[11,0],[3,11],[24,-3],[-3,-15],[26,-2],[-6,-22],[26,-1],[-2,-9]],[[77560,2262],[-34,5],[-5,-18],[25,-3],[2,9],[10,-1],[2,8]],[[76985,2257],[-77,11],[10,29],[74,-14],[-7,-26]],[[77119,2302],[-8,2],[5,18],[44,-5],[-11,-13],[-28,3],[-2,-5]],[[77116,2398],[-10,-36],[5,-1],[-4,-18],[-24,0],[3,8],[-32,4],[17,49],[45,-6]],[[76959,2389],[-2,-6],[12,-2],[-10,-28],[-26,12],[-6,-20],[-61,4],[-88,20],[3,52],[-17,2],[1,11],[77,-11],[88,-41],[-9,-9],[13,-6],[16,26],[9,-4]],[[77135,2490],[-11,-40],[26,-10],[5,-14],[-5,-13],[-82,12],[26,70],[11,-2],[3,10],[16,-2],[-2,-9],[13,-2]],[[77543,2515],[-26,-24],[14,-4],[-10,-13],[60,-15],[-21,-86],[24,-2],[4,-10],[-16,-26],[30,-19],[2,-12],[-9,1],[-27,21],[-145,85],[6,6],[-5,3],[9,7],[-11,6],[27,13],[4,9],[-8,1],[2,9],[-27,3],[8,24],[-32,4],[10,38],[13,-2],[-2,8],[-27,4],[-8,8],[-6,-5],[-7,2],[3,12],[-22,3],[-2,-5],[-14,2],[12,27],[-4,12],[20,2],[-18,39],[21,8],[123,-76],[-16,-14],[32,-17],[16,14],[-9,7],[12,8],[-16,10],[11,6],[-18,11],[5,4],[-14,13],[-36,-19],[-16,10],[10,8],[-5,4],[23,18],[6,-6],[11,9],[-11,7],[-9,-7],[-11,8],[8,6],[-25,14],[36,25],[24,-27],[69,18],[26,-33],[-14,1],[0,-6],[21,-34],[-27,3],[-2,-10],[11,-3],[-29,-11],[14,-10],[-12,-6],[8,-16],[12,-4],[15,7],[14,-15],[-15,-7],[11,-11],[-17,-11],[11,-18],[-16,-5],[-12,15],[-10,-4],[-11,10]],[[77249,2575],[-1,-5],[-12,2],[-5,-15],[-36,9],[-10,-35],[-14,2],[-5,7],[-49,6],[18,11],[-29,17],[180,111],[21,-14],[-22,-14],[11,-8],[-5,-3],[5,-4],[-47,-43],[41,-5],[-14,-43],[-14,2],[6,18],[-19,4]],[[77364,2834],[26,-3],[4,10],[24,1],[-20,-37],[79,-22],[-7,-14],[-118,29],[12,36]],[[77330,2763],[-68,-5],[-21,-13],[-69,54],[18,10],[-21,16],[5,2],[-9,8],[27,10],[45,-24],[-5,-2],[31,-23],[13,7],[75,-18],[-3,-5],[11,-9],[-27,-4],[-6,10],[4,-14]],[[68021,5149],[75,26],[16,-22],[69,5],[9,13],[-9,13],[-19,12],[14,3],[47,-74],[-46,-60],[9,-12],[-17,-5],[14,-55],[-6,-15],[-18,-15],[-138,186]],[[68573,5172],[26,-22],[1,-19],[-10,-14],[-12,-6],[-37,-4],[-41,-20],[-52,-4],[-45,-29],[-62,-11],[-29,-11],[-112,-128],[-31,44],[20,22],[10,27],[-7,55],[20,18],[-10,12],[20,30],[45,43],[33,17],[2,10],[-12,19],[9,27],[60,26],[61,9],[31,18],[34,-15],[99,-69],[-28,-19],[17,-6]],[[75765,8364],[-18,19],[-30,-6],[43,31],[7,-8],[45,31],[-34,-41],[10,-10],[-23,-16]],[[75972,8598],[29,-4],[111,-74],[-164,-164],[-6,8],[9,29],[-9,19],[6,32],[-29,27],[-49,-14],[-25,-14],[3,-14],[-19,27],[-44,-30],[-21,15],[59,49],[8,-5],[22,20],[-56,29],[27,45],[6,38],[-72,42],[96,50],[16,-7],[69,17],[41,-27],[-15,-29],[-36,-20],[43,-45]],[[75178,9309],[250,-237],[166,-135],[-213,-86],[-8,12],[-430,127],[-252,-33],[-97,90],[584,262]],[[73499,13432],[-2,10],[-27,21],[-41,101],[11,30],[-9,55],[-8,-5],[-9,28],[-34,41],[-22,40],[-12,3],[-90,106],[5,1],[-6,7],[9,4],[-3,6],[-10,10],[-16,-6],[-62,70],[31,11],[51,-54],[100,35],[68,-74],[3,-23],[-59,-36],[16,-8],[-4,-15],[42,-5],[2,15],[23,-3],[-19,-71],[6,-8],[6,2],[28,-39],[36,17],[23,-17],[39,-75],[13,-54],[-4,-102],[-8,-4],[-19,7],[-19,16],[-29,-37]],[[65823,18925],[207,-23],[-9,-37],[50,-5],[-18,-68],[-61,8],[-13,-48],[163,-20],[3,9],[9,-1],[8,30],[84,-9],[-17,-70],[-27,4],[4,15],[-59,6],[0,-3],[-195,22],[3,10],[-9,1],[-2,-6],[-35,4],[-5,-21],[-145,15],[-10,43],[-172,20],[-9,-11],[-37,-7],[-133,15],[-17,-1],[46,188],[240,-17],[24,9],[56,-2],[19,6],[62,-30],[-5,-26]],[[77758,1089],[-18,31],[47,16],[25,-37],[-18,-5],[-14,7],[-22,-12]],[[78086,1072],[-15,1],[-49,-10],[-43,-15],[-5,9],[-7,-4],[-17,1],[5,18],[-20,-2],[-80,64],[-10,18],[-6,-9],[26,-24],[-16,-8],[-13,6],[-19,29],[6,1],[-1,7],[-10,-1],[-4,22],[10,1],[-3,8],[11,2],[1,8],[19,-2],[14,27],[40,30],[-11,9],[7,14],[4,-3],[7,4],[-8,5],[3,6],[8,-6],[20,21],[-13,9],[8,9],[14,-9],[3,4],[9,-3],[23,12],[15,-14],[34,6],[-13,31],[17,3],[-1,29],[15,2],[-3,6],[13,5],[31,-81],[-27,-5],[3,-8],[-7,-1],[-8,22],[-7,-1],[5,-14],[-14,-2],[4,-9],[-10,-2],[5,-21],[6,1],[5,-10],[38,11],[17,-11],[15,2],[-2,8],[49,7],[-4,9],[-11,3],[-1,4],[9,2],[-3,5],[-46,-12],[-12,37],[11,2],[-2,5],[-22,42],[8,1],[-7,23],[19,3],[37,-4],[12,-2],[-1,-15],[20,6],[7,-53],[-26,-4],[1,-4],[-20,-3],[2,-5],[-18,-3],[3,-9],[28,10],[-3,8],[9,1],[3,-8],[62,7],[17,6],[14,-6],[7,5],[19,-14],[15,-27],[-35,-6],[4,-9],[12,2],[15,-20],[28,5],[-9,17],[16,1],[-5,13],[15,3],[0,13],[12,5],[4,8],[-44,14],[-14,8],[5,7],[-5,2],[-38,2],[-6,12],[-28,1],[-11,23],[-11,5],[-1,12],[21,31],[9,-3],[5,6],[10,-4],[7,4],[-19,9],[116,49],[48,67],[24,-6],[8,14],[52,-3],[14,38],[68,1],[0,-20],[42,-4],[2,-16],[75,-1],[-2,-22],[-13,-7],[40,-30],[-5,-38],[-26,-19],[-43,-14],[3,-8],[-18,6],[-8,-10],[9,-5],[-2,-8],[-4,-4],[-9,1],[8,-4],[-10,-2],[6,-3],[-20,-13],[-43,-15],[-63,-6],[3,-12],[-44,-56],[-14,3],[14,-3],[-14,-18],[-35,12],[-17,-19],[34,-9],[5,-9],[-45,-3],[23,-13],[-21,-3],[6,-9],[-5,-12],[17,-17],[-1,-17],[-10,-3],[-30,29],[-13,-3],[-7,8],[-44,-12],[16,-17],[21,-6],[-15,-8],[11,-8],[-86,-51],[-130,-36]],[[77868,1275],[40,55],[31,10],[-29,-32],[-23,-41],[-19,8]],[[78033,1710],[21,14],[27,-20],[-43,-30],[-6,-11],[-15,-2],[-25,-18],[-18,-19],[-6,4],[-8,-5],[-15,10],[-35,-19],[-6,11],[-21,-7],[-6,7],[-67,-4],[6,29],[-14,15],[16,8],[-9,11],[-16,-12],[-3,3],[-23,-6],[-76,-37],[-7,2],[-2,-5],[-18,-1],[-5,5],[-30,-12],[-32,41],[-144,145],[10,32],[-10,13],[6,3],[-7,8],[23,3],[7,-7],[9,3],[4,-3],[14,6],[-20,21],[36,17],[11,-11],[29,13],[-22,22],[11,4],[23,-22],[25,10],[36,-26],[6,2],[12,-13],[-12,-5],[19,-18],[12,3],[8,-7],[-20,-7],[15,-10],[9,4],[8,-9],[-7,-3],[3,-10],[12,5],[8,-7],[-13,-8],[22,-21],[8,3],[33,-35],[6,3],[-7,-8],[4,-8],[6,5],[10,-9],[13,1],[53,-32],[45,30],[19,-11],[22,19],[-9,6],[62,41],[45,-28],[-18,-14],[31,-21],[-22,-15],[12,-6]],[[77809,1685],[13,7],[-11,9],[-12,-8],[10,-8]],[[77883,1827],[-2,6],[8,6],[12,-4],[9,6],[9,-6],[-122,-83],[-9,7],[19,12],[-15,16],[20,3],[-4,3],[19,8],[11,-4],[4,2],[-10,5],[19,8],[6,-4],[26,19]],[[77766,2010],[84,-117],[4,-20],[-23,-17],[27,-11],[-19,-13],[-22,2],[-6,6],[-27,6],[-20,21],[13,6],[-41,43],[-45,-19],[-65,69],[96,44],[44,0]],[[77828,2098],[-17,-9],[-13,12],[51,25],[20,-16],[-34,-19],[-7,7]],[[77734,2282],[42,-58],[-27,-13],[-50,52],[-16,-5],[-11,16],[-25,-7],[-12,26],[20,9],[-15,15],[27,14],[-5,6],[10,4],[62,-59]],[[77805,2364],[20,-40],[-15,-7],[-35,48],[-81,-35],[-55,49],[-17,-3],[-14,8],[2,31],[13,6],[18,-16],[29,14],[-8,8],[53,24],[18,-10],[18,7],[40,-41],[-16,-5],[14,-13],[-3,-4],[2,-9],[-12,-4],[4,-5],[11,1],[-3,17],[17,1],[0,-22]],[[77819,2357],[-5,29],[48,-46],[-26,-11],[-17,28]],[[77618,2502],[49,-55],[-56,-26],[-1,22],[-26,39],[23,8],[-5,6],[16,6]],[[77668,2689],[-26,-99],[-2,0],[-60,82],[33,15],[2,7],[53,-5]],[[77924,2689],[-1,-17],[24,-7],[3,5],[-10,10],[14,10],[93,-35],[23,-3],[32,5],[35,-41],[21,-8],[70,-49],[59,-25],[25,-46],[40,-37],[16,-32],[-5,-3],[-14,14],[-62,79],[-177,97],[-105,30],[-107,12],[-26,8],[-37,0],[7,23],[-29,4],[2,7],[-42,4],[-9,-6],[-28,9],[-3,-10],[-10,1],[4,11],[-21,-1],[1,3],[-28,4],[-1,-7],[-36,4],[-1,-5],[-62,6],[6,21],[-26,9],[2,5],[-35,6],[11,10],[22,-6],[7,10],[20,-7],[8,4],[37,-1],[-5,-20],[291,-39],[7,-6]],[[70278,45695],[26,69],[-4,10],[-29,-5],[-15,-39],[-29,4],[2,10],[22,-2],[-9,21],[-26,-5],[5,-14],[-7,-9],[-33,3],[9,15],[-12,5],[-55,-11],[-6,7],[33,15],[-51,54],[14,6],[4,-4],[68,32],[-45,46],[107,52],[-15,14],[65,28],[24,-22],[16,-50],[-24,-12],[4,-9],[31,14],[-3,-9],[14,-22],[37,13],[7,-15],[13,6],[21,-33],[36,12],[-10,13],[37,12],[10,-26],[15,-8],[-22,-87],[-72,-13],[44,-93],[-16,-10],[3,-6],[-45,-8],[5,-12],[-10,-2],[4,-9],[-97,9],[-11,-30],[16,-2],[-19,-61],[-84,9],[56,132],[-37,5],[4,17],[34,-5]],[[79236,772],[-20,6],[-7,-6],[4,7],[-9,3],[-4,-7],[-20,8],[4,9],[-13,3],[-3,-7],[-27,19],[-13,-23],[-95,38],[2,6],[-19,6],[4,4],[-27,11],[-16,-9],[-54,16],[8,7],[-13,5],[-13,-11],[-17,11],[-6,-5],[-13,7],[-4,-3],[-27,21],[-7,-6],[-10,6],[-32,-23],[-16,7],[57,42],[-13,8],[-7,-5],[-15,9],[-4,-3],[-15,9],[-13,1],[6,7],[-16,9],[-12,-7],[-15,-1],[-20,8],[26,25],[55,-12],[50,-23],[29,-7],[22,-23],[17,-3],[4,-10],[100,-16],[31,-15],[46,-2],[-15,-27],[69,-29],[16,35],[15,-3],[4,11],[13,-3],[3,6],[92,-15],[-31,-91],[-22,15],[6,10]],[[78448,968],[54,53],[-18,-3],[3,19],[12,12],[19,-10],[13,9],[-13,7],[8,6],[-8,4],[-9,-6],[-7,4],[36,37],[8,-3],[10,-5],[-5,-5],[20,-5],[-15,-15],[23,-12],[-16,-11],[-7,4],[-11,-8],[12,-7],[-11,-10],[-31,-12],[15,-5],[-7,-7],[6,-7],[-13,-11],[-11,8],[-21,-21],[9,-5],[-17,-13],[-28,18]],[[78405,1124],[13,-8],[-7,-7],[-9,5],[-12,-3],[13,-7],[-8,-6],[8,-5],[-4,-2],[21,-13],[-11,-6],[20,-10],[-41,-32],[-19,10],[-30,-24],[-41,23],[17,13],[-16,9],[95,77],[17,-10],[-6,-4]],[[78415,1151],[13,9],[11,-7],[-4,-3],[25,-9],[4,-11],[10,-7],[-6,-4],[-53,32]],[[78252,1522],[17,-6],[-8,-3],[-19,5],[-42,-38],[-57,26],[-36,32],[70,49],[53,-33],[16,4],[17,-10],[-7,-3],[6,-3],[-10,-20]],[[78303,1532],[3,3],[-17,6],[9,17],[-98,45],[25,17],[11,-7],[10,7],[43,-27],[8,8],[46,-38],[8,-24],[-13,5],[-12,-15],[-8,-2],[-15,5]],[[78296,1772],[64,22],[18,-13],[-94,-65],[30,-14],[-8,-8],[6,-3],[-24,-17],[38,-20],[-17,-15],[28,-11],[-23,-30],[-71,45],[-74,-51],[-13,8],[-14,-9],[-13,8],[8,6],[-3,9],[-15,9],[21,15],[17,-10],[46,32],[-21,13],[21,8],[13,-8],[4,3],[-12,8],[18,13],[13,-1],[-8,5],[27,23],[-4,8],[27,14],[23,21],[-8,5]],[[78428,1958],[-39,-27],[-22,-1],[-73,30],[-80,50],[-79,83],[11,5],[-7,17],[63,25],[136,-141],[-184,193],[-78,-31],[-276,261],[31,19],[-17,31],[-48,0],[19,93],[35,51],[16,10],[28,7],[33,1],[145,-20],[54,-18],[55,-27],[83,-54],[37,-42],[22,-50],[3,-50],[-13,-21],[-10,-4],[0,-6],[43,-10],[25,-15],[59,-76],[45,-45],[29,-53],[-5,-38],[20,-12],[8,-40],[14,1],[-9,90],[5,36],[53,56],[11,59],[19,44],[22,2],[-17,-16],[-13,-34],[-6,-66],[-43,-32],[-15,-27],[7,-16],[17,-15],[-6,-18],[10,-56],[16,-11],[25,-3],[22,20],[-29,-38],[34,-19],[8,0],[19,-19],[36,-21],[4,-12],[25,-15],[-14,-3],[3,-17],[-20,3],[-26,-15],[-50,-6],[-54,7],[-29,17],[-12,35],[-76,-6]],[[77987,2108],[-4,12],[-29,-13],[9,-9],[-37,-13],[-81,69],[12,6],[10,-10],[73,32],[29,20],[8,-6],[26,12],[9,-8],[-9,-4],[20,-21],[10,5],[5,-4],[11,-11],[-8,-4],[17,-15],[-71,-38]],[[78572,2398],[32,-20],[15,-27],[-27,0],[-13,25],[-34,17],[-110,-1],[-12,1],[0,5],[34,16],[83,1],[0,-14],[25,-9],[7,6]],[[82715,6855],[116,21],[1,-6],[45,5],[-9,-15],[-33,-4],[-5,-9],[18,-89],[-71,-8],[-61,-15],[-25,13],[-20,82],[-88,-8],[4,21],[-28,3],[2,-17],[-11,1],[11,-43],[38,-30],[-20,-5],[6,-8],[-44,-11],[8,-22],[11,-3],[31,-42],[-119,-28],[21,-37],[-64,-18],[-9,13],[-28,-5],[-34,64],[-48,-13],[-42,68],[16,10],[-6,11],[30,8],[24,22],[-19,18],[53,24],[-42,54],[36,-4],[-4,102],[220,-24],[23,33],[18,9],[10,-1],[-1,-18],[16,-7],[33,2],[-2,-8],[-31,-15],[-10,-20],[36,-16],[10,-36],[37,1]],[[81901,9243],[-6,-19],[-10,2],[-23,-41],[27,-3],[-11,-43],[-25,3],[9,-24],[-51,-13],[-19,22],[-4,22],[31,45],[5,8],[-6,3],[8,15],[16,0],[3,11],[-11,1],[10,18],[12,-1],[-3,-6],[12,-3],[9,7],[27,-4]],[[79599,13585],[-88,-10],[-110,-60],[-139,121],[246,59],[50,-58],[33,9],[46,-44],[-38,-17]],[[80183,21745],[-45,-69],[-57,-28],[-12,-12],[-19,-4],[-29,4],[-28,-11],[-54,-54],[-31,-46],[-28,-2],[-24,27],[22,8],[-10,11],[-9,-3],[-8,8],[-25,-22],[47,-53],[9,-28],[40,-32],[-54,-17],[-72,91],[-156,-57],[-40,33],[-62,-33],[-83,-96],[-49,7],[-2,33],[40,145],[41,66],[96,111],[36,17],[41,32],[37,20],[79,31],[88,25],[108,16],[166,5],[171,-19],[74,2],[89,8],[-1,-19],[-104,-63],[-84,-15],[-64,-5],[-3,-8],[-31,-4]],[[79882,21705],[-38,46],[-150,-4],[-31,-8],[-65,-28],[-26,-28],[101,-116],[-2,8],[73,30],[3,8],[-37,43],[79,31],[22,-25],[71,43]],[[84684,31076],[-8,-33],[46,-5],[10,-16],[79,-9],[10,14],[46,-5],[-9,-31],[83,-9],[-21,-80],[-174,20],[-69,-96],[-20,-73],[-57,6],[9,31],[-143,17],[-20,-22],[-85,30],[121,209],[202,52]],[[84405,34158],[7,32],[-27,2],[-10,23],[-15,2],[-4,22],[45,-5],[-14,42],[33,4],[45,-13],[20,60],[5,41],[11,-1],[3,9],[40,-5],[-11,-43],[50,-5],[8,33],[-12,1],[10,18],[-21,3],[11,24],[-25,2],[2,14],[-31,6],[2,9],[-57,6],[11,50],[78,-7],[1,7],[53,-6],[89,5],[-11,-53],[-6,1],[-5,-19],[78,-7],[-30,-122],[7,-5],[3,-160],[-61,7],[2,6],[-33,4],[12,36],[-31,3],[-24,-91],[-31,3],[-11,-47],[-80,12],[11,43],[-81,9],[12,47],[-18,3]],[[72521,46303],[-22,-17],[-56,35],[-55,7],[3,12],[-127,16],[17,77],[-19,2],[8,36],[11,8],[24,2],[-4,-11],[25,-1],[-3,-19],[40,-1],[1,18],[50,-1],[-2,18],[68,5],[-1,24],[48,-1],[6,-57],[-74,3],[2,-10],[-19,0],[3,-32],[18,0],[6,-60],[20,-2],[-6,-13],[4,-15],[34,-23]],[[75215,46668],[76,24],[5,-20],[27,5],[15,-47],[11,-1],[5,-12],[34,-4],[30,4],[-4,-17],[53,-6],[5,-5],[-28,-66],[-91,38],[-131,-9],[0,4],[-31,-1],[-14,21],[-28,-11],[-26,21],[-18,-9],[-3,3],[-61,-18],[-3,14],[-26,35],[-28,25],[15,3],[-83,51],[34,10],[17,17],[27,-15],[13,0],[65,39],[143,-73]],[[71278,51439],[88,-37],[-14,-14],[-53,-4],[-58,-13],[22,-15],[-14,-10],[-97,59],[43,46],[26,7],[14,-15],[38,2],[5,-6]],[[99743,99308],[-209,172],[-8,-32],[-39,30],[-21,12],[-13,-1],[-23,17],[-172,61],[-32,5],[-45,-5],[-7,-4],[-11,-29],[-13,-8],[-16,4],[-2,-9],[-9,9],[-19,-5],[-32,6],[-59,-7],[-1,16],[-15,6],[-10,-4],[-12,4],[-7,-5],[-6,6],[-22,-6],[-24,11],[-42,-1],[-36,-20],[-1,-15],[-6,-2],[5,-3],[-11,-8],[-18,16],[-14,0],[-6,-6],[-18,0],[-1,-17],[-12,-4],[-1,-8],[-16,-7],[-6,5],[5,13],[-11,6],[-4,-11],[-21,1],[-13,-5],[-10,8],[-5,26],[3,2],[4,-5],[1,5],[14,1],[5,16],[-44,10],[-9,10],[-9,23],[9,10],[13,0],[-2,4],[-7,2],[1,-4],[-8,3],[16,9],[-24,6],[2,6],[6,-5],[20,4],[-10,6],[3,5],[-19,6],[-2,8],[8,7],[14,1],[0,6],[-9,-4],[1,6],[13,0],[1,-4],[13,7],[-1,-9],[5,4],[12,-4],[0,4],[20,10],[15,-1],[2,-11],[8,-2],[11,9],[-4,4],[17,5],[14,-16],[15,-3],[15,3],[0,15],[13,2],[9,-8],[16,7],[2,10],[-12,-1],[-15,8],[21,7],[-22,6],[6,10],[-9,3],[5,17],[17,0],[-1,-6],[17,5],[3,-6],[8,7],[15,0],[7,-6],[7,5],[-3,6],[6,-5],[10,8],[7,-1],[23,16],[-12,19],[-9,1],[-2,7],[-8,1],[8,20],[23,3],[-12,7],[6,10],[-4,4],[6,2],[-12,2],[-7,13],[-11,-2],[8,12],[-8,2],[8,-1],[4,13],[7,-2],[22,12],[17,-9],[10,3],[-4,-8],[6,-8],[18,-2],[8,7],[6,-2],[10,13],[-8,15],[18,5],[-7,4],[6,2],[11,0],[9,-9],[8,20],[8,-1],[8,21],[10,3],[-6,9],[14,13],[-2,4],[-4,-4],[-8,3],[9,1],[-11,8],[3,9],[12,-2],[-4,7],[8,-2],[1,4],[12,-9],[0,9],[1,-4],[12,6],[16,0],[17,-25],[-3,11],[8,5],[-5,20],[6,6],[10,-12],[12,5],[3,-10],[7,-1],[-1,-13],[33,-17],[-13,-10],[16,-3],[1,-22],[-9,-4],[7,-2],[2,-12],[23,-9],[17,-2],[10,5],[-7,-5],[29,-4],[38,-13],[96,6],[63,17],[68,-7],[93,59],[316,-34],[31,-18],[-163,-650],[-93,65]]],"transform":{"scale":[0.000026014487965350176,0.000029254888409461077],"translate":[145.29193887131763,-42.934155882815155]},"objects":{"TAS-heritage":{"type":"GeometryCollection","geometries":[{"arcs":[[[0]],[[1]],[[2]],[[3]],[[4]],[[5]],[[6]],[[7]],[[8]],[[9]],[[10]],[[11]],[[12]],[[13]],[[14]],[[15]],[[16]],[[17]],[[18]],[[19]],[[20]],[[21]],[[22]],[[23]],[[24]],[[25]],[[26]],[[27]],[[28]],[[29]],[[30]],[[31]],[[32]],[[33]],[[34],[35],[36],[37]],[[38],[39],[40],[41],[42]],[[43],[44],[45],[46],[47]],[[48],[49]],[[50]],[[51]],[[52]],[[53]],[[54]],[[55]],[[56]],[[57]],[[58]],[[59]],[[60]],[[61]],[[62]],[[63]],[[64]],[[65]],[[66]],[[67]],[[68]],[[69],[70]],[[71]],[[72]],[[73]],[[74]],[[75]],[[76]],[[77]],[[78]],[[79]],[[80]],[[81]],[[82]],[[83]],[[84]],[[85]],[[86]],[[87]],[[88]],[[89]],[[90]],[[91]],[[92]],[[93]],[[94],[95]],[[96]],[[97]],[[98]],[[99]],[[100]],[[101]]],"type":"MultiPolygon","properties":{"layer":"heritage"}}]}},"properties":{"layer":"heritage","state":"TAS","source":"Tasmanian Planning Scheme Local Historic Heritage Code precincts (theLIST)","licence":"CC-BY-3.0-AU","asOf":"2026-09-23","simplify":"100%"}}